<?xml version="1.0" encoding="UTF-8"?>
<gpx xmlns="http://www.topografix.com/GPX/1/1" xmlns:xsi="http://www.w3.org/2001/XMLSchema-instance" xsi:schemaLocation="http://www.topografix.com/GPX/1/1 http://www.topografix.com/GPX/1/1/gpx.xsd" version="1.1" creator="Martin Schneider">
  <wpt lat="25.122304" lon="121.863767">
    <ele>6.0</ele>
    <name>Start</name>
  </wpt>
  <wpt lat="25.108813" lon="121.80613">
    <ele>61.0</ele>
    <name>End</name>
  </wpt>
  <wpt lat="25.120324" lon="121.860558">
    <name>1</name>
  </wpt>
  <wpt lat="25.118916" lon="121.849246">
    <ele>558.0</ele>
    <name>Summit Jilongshan</name>
  </wpt>
  <trk>
    <name>6_Jilongshan</name>
    <trkseg>
      <trkpt lat="25.122304" lon="121.863767">
        <ele>6.0</ele>
      </trkpt>
      <trkpt lat="25.122492" lon="121.863871">
        <ele>4.0</ele>
      </trkpt>
      <trkpt lat="25.122492" lon="121.863871">
        <ele>4.0</ele>
      </trkpt>
      <trkpt lat="25.122492" lon="121.863871">
        <ele>4.0</ele>
      </trkpt>
      <trkpt lat="25.1224665" lon="121.8638569">
        <ele>4.0</ele>
      </trkpt>
      <trkpt lat="25.122279" lon="121.863753">
        <ele>7.0</ele>
      </trkpt>
      <trkpt lat="25.122389" lon="121.863561">
        <ele>7.0</ele>
      </trkpt>
      <trkpt lat="25.122321" lon="121.863508">
        <ele>8.0</ele>
      </trkpt>
      <trkpt lat="25.122206" lon="121.863419">
        <ele>10.0</ele>
      </trkpt>
      <trkpt lat="25.122301" lon="121.863259">
        <ele>10.0</ele>
      </trkpt>
      <trkpt lat="25.122022" lon="121.863283">
        <ele>12.0</ele>
      </trkpt>
      <trkpt lat="25.121874" lon="121.86315">
        <ele>15.0</ele>
      </trkpt>
      <trkpt lat="25.121751" lon="121.863102">
        <ele>17.0</ele>
      </trkpt>
      <trkpt lat="25.121833" lon="121.86294">
        <ele>18.0</ele>
      </trkpt>
      <trkpt lat="25.121789" lon="121.862712">
        <ele>22.0</ele>
      </trkpt>
      <trkpt lat="25.121684" lon="121.862349">
        <ele>30.0</ele>
      </trkpt>
      <trkpt lat="25.121576" lon="121.862263">
        <ele>33.0</ele>
      </trkpt>
      <trkpt lat="25.121641" lon="121.862206">
        <ele>33.0</ele>
      </trkpt>
      <trkpt lat="25.121766" lon="121.86202">
        <ele>35.0</ele>
      </trkpt>
      <trkpt lat="25.121924" lon="121.86189">
        <ele>35.0</ele>
      </trkpt>
      <trkpt lat="25.121999" lon="121.861789">
        <ele>36.0</ele>
      </trkpt>
      <trkpt lat="25.12219" lon="121.861428">
        <ele>41.0</ele>
      </trkpt>
      <trkpt lat="25.122175" lon="121.861391">
        <ele>43.0</ele>
      </trkpt>
      <trkpt lat="25.122133" lon="121.861355">
        <ele>44.0</ele>
      </trkpt>
      <trkpt lat="25.122066" lon="121.861417">
        <ele>44.0</ele>
      </trkpt>
      <trkpt lat="25.121939" lon="121.861522">
        <ele>43.0</ele>
      </trkpt>
      <trkpt lat="25.121774" lon="121.861533">
        <ele>46.0</ele>
      </trkpt>
      <trkpt lat="25.1217207" lon="121.8615475">
        <ele>46.0</ele>
      </trkpt>
      <trkpt lat="25.1216753" lon="121.8615613">
        <ele>47.0</ele>
      </trkpt>
      <trkpt lat="25.121356" lon="121.861653">
        <ele>47.0</ele>
      </trkpt>
      <trkpt lat="25.121083" lon="121.861083">
        <ele>66.0</ele>
      </trkpt>
      <trkpt lat="25.120995" lon="121.861008">
        <ele>70.0</ele>
      </trkpt>
      <trkpt lat="25.120908" lon="121.860793">
        <ele>77.0</ele>
      </trkpt>
      <trkpt lat="25.121012" lon="121.860689">
        <ele>79.0</ele>
      </trkpt>
      <trkpt lat="25.120573" lon="121.860677">
        <ele>83.0</ele>
      </trkpt>
      <trkpt lat="25.120478" lon="121.860568">
        <ele>87.0</ele>
      </trkpt>
      <trkpt lat="25.120422" lon="121.860555">
        <ele>88.0</ele>
      </trkpt>
      <trkpt lat="25.120312" lon="121.860573">
        <ele>89.0</ele>
      </trkpt>
      <trkpt lat="25.12029" lon="121.860519">
        <ele>91.0</ele>
      </trkpt>
      <trkpt lat="25.12018" lon="121.860468">
        <ele>93.0</ele>
      </trkpt>
      <trkpt lat="25.120159" lon="121.860407">
        <ele>96.0</ele>
      </trkpt>
      <trkpt lat="25.120205" lon="121.860342">
        <ele>98.0</ele>
      </trkpt>
      <trkpt lat="25.120129" lon="121.860193">
        <ele>104.0</ele>
      </trkpt>
      <trkpt lat="25.120121" lon="121.859903">
        <ele>115.0</ele>
      </trkpt>
      <trkpt lat="25.120079" lon="121.859716">
        <ele>123.0</ele>
      </trkpt>
      <trkpt lat="25.120036" lon="121.859651">
        <ele>126.0</ele>
      </trkpt>
      <trkpt lat="25.119981" lon="121.859628">
        <ele>127.0</ele>
      </trkpt>
      <trkpt lat="25.119926" lon="121.859501">
        <ele>131.0</ele>
      </trkpt>
      <trkpt lat="25.119964" lon="121.859385">
        <ele>136.0</ele>
      </trkpt>
      <trkpt lat="25.119871" lon="121.859039">
        <ele>148.0</ele>
      </trkpt>
      <trkpt lat="25.11985" lon="121.858894">
        <ele>155.0</ele>
      </trkpt>
      <trkpt lat="25.119897" lon="121.858698">
        <ele>164.0</ele>
      </trkpt>
      <trkpt lat="25.119952" lon="121.858609">
        <ele>169.0</ele>
      </trkpt>
      <trkpt lat="25.119893" lon="121.858446">
        <ele>175.0</ele>
      </trkpt>
      <trkpt lat="25.119905" lon="121.858353">
        <ele>179.0</ele>
      </trkpt>
      <trkpt lat="25.119981" lon="121.858259">
        <ele>188.0</ele>
      </trkpt>
      <trkpt lat="25.120036" lon="121.858147">
        <ele>198.0</ele>
      </trkpt>
      <trkpt lat="25.119986" lon="121.857881">
        <ele>226.0</ele>
      </trkpt>
      <trkpt lat="25.119909" lon="121.857792">
        <ele>235.0</ele>
      </trkpt>
      <trkpt lat="25.119854" lon="121.857694">
        <ele>245.0</ele>
      </trkpt>
      <trkpt lat="25.119817" lon="121.857707">
        <ele>244.0</ele>
      </trkpt>
      <trkpt lat="25.119811" lon="121.857651">
        <ele>250.0</ele>
      </trkpt>
      <trkpt lat="25.119785" lon="121.857619">
        <ele>253.0</ele>
      </trkpt>
      <trkpt lat="25.119772" lon="121.857541">
        <ele>261.0</ele>
      </trkpt>
      <trkpt lat="25.119735" lon="121.85753">
        <ele>263.0</ele>
      </trkpt>
      <trkpt lat="25.119694" lon="121.857476">
        <ele>268.0</ele>
      </trkpt>
      <trkpt lat="25.11969" lon="121.857437">
        <ele>271.0</ele>
      </trkpt>
      <trkpt lat="25.119608" lon="121.857344">
        <ele>278.0</ele>
      </trkpt>
      <trkpt lat="25.119524" lon="121.85729">
        <ele>282.0</ele>
      </trkpt>
      <trkpt lat="25.119533" lon="121.857252">
        <ele>285.0</ele>
      </trkpt>
      <trkpt lat="25.119506" lon="121.857223">
        <ele>287.0</ele>
      </trkpt>
      <trkpt lat="25.119464" lon="121.85722">
        <ele>287.0</ele>
      </trkpt>
      <trkpt lat="25.119446" lon="121.857107">
        <ele>294.0</ele>
      </trkpt>
      <trkpt lat="25.119393" lon="121.857089">
        <ele>296.0</ele>
      </trkpt>
      <trkpt lat="25.11939" lon="121.857068">
        <ele>297.0</ele>
      </trkpt>
      <trkpt lat="25.119373" lon="121.857072">
        <ele>297.0</ele>
      </trkpt>
      <trkpt lat="25.119336" lon="121.856996">
        <ele>302.0</ele>
      </trkpt>
      <trkpt lat="25.119356" lon="121.856912">
        <ele>307.0</ele>
      </trkpt>
      <trkpt lat="25.119344" lon="121.856851">
        <ele>310.0</ele>
      </trkpt>
      <trkpt lat="25.119387" lon="121.856767">
        <ele>316.0</ele>
      </trkpt>
      <trkpt lat="25.119355" lon="121.856743">
        <ele>317.0</ele>
      </trkpt>
      <trkpt lat="25.119375" lon="121.856645">
        <ele>323.0</ele>
      </trkpt>
      <trkpt lat="25.119365" lon="121.856573">
        <ele>326.0</ele>
      </trkpt>
      <trkpt lat="25.119325" lon="121.856518">
        <ele>328.0</ele>
      </trkpt>
      <trkpt lat="25.11933" lon="121.856494">
        <ele>329.0</ele>
      </trkpt>
      <trkpt lat="25.119312" lon="121.85646">
        <ele>331.0</ele>
      </trkpt>
      <trkpt lat="25.119278" lon="121.856438">
        <ele>332.0</ele>
      </trkpt>
      <trkpt lat="25.119291" lon="121.856353">
        <ele>335.0</ele>
      </trkpt>
      <trkpt lat="25.119345" lon="121.856292">
        <ele>339.0</ele>
      </trkpt>
      <trkpt lat="25.119389" lon="121.856202">
        <ele>343.0</ele>
      </trkpt>
      <trkpt lat="25.119468" lon="121.856125">
        <ele>347.0</ele>
      </trkpt>
      <trkpt lat="25.11956" lon="121.855763">
        <ele>363.0</ele>
      </trkpt>
      <trkpt lat="25.119728" lon="121.855645">
        <ele>370.0</ele>
      </trkpt>
      <trkpt lat="25.119809" lon="121.85556">
        <ele>374.0</ele>
      </trkpt>
      <trkpt lat="25.119868" lon="121.855416">
        <ele>381.0</ele>
      </trkpt>
      <trkpt lat="25.120139" lon="121.855283">
        <ele>386.0</ele>
      </trkpt>
      <trkpt lat="25.120155" lon="121.855236">
        <ele>387.0</ele>
      </trkpt>
      <trkpt lat="25.120145" lon="121.855144">
        <ele>392.0</ele>
      </trkpt>
      <trkpt lat="25.120007" lon="121.854702">
        <ele>406.0</ele>
      </trkpt>
      <trkpt lat="25.119972" lon="121.854322">
        <ele>408.0</ele>
      </trkpt>
      <trkpt lat="25.119972" lon="121.854125">
        <ele>411.0</ele>
      </trkpt>
      <trkpt lat="25.119849" lon="121.853776">
        <ele>415.0</ele>
      </trkpt>
      <trkpt lat="25.119802" lon="121.853508">
        <ele>421.0</ele>
      </trkpt>
      <trkpt lat="25.119896" lon="121.853085">
        <ele>433.0</ele>
      </trkpt>
      <trkpt lat="25.119864" lon="121.852891">
        <ele>435.0</ele>
      </trkpt>
      <trkpt lat="25.119776" lon="121.852733">
        <ele>436.0</ele>
      </trkpt>
      <trkpt lat="25.119673" lon="121.852632">
        <ele>437.0</ele>
      </trkpt>
      <trkpt lat="25.119523" lon="121.852284">
        <ele>442.0</ele>
      </trkpt>
      <trkpt lat="25.119484" lon="121.852228">
        <ele>443.0</ele>
      </trkpt>
      <trkpt lat="25.119368" lon="121.85214">
        <ele>446.0</ele>
      </trkpt>
      <trkpt lat="25.119331" lon="121.852056">
        <ele>448.0</ele>
      </trkpt>
      <trkpt lat="25.119263" lon="121.851999">
        <ele>451.0</ele>
      </trkpt>
      <trkpt lat="25.119246" lon="121.851964">
        <ele>452.0</ele>
      </trkpt>
      <trkpt lat="25.119228" lon="121.851745">
        <ele>458.0</ele>
      </trkpt>
      <trkpt lat="25.11918" lon="121.851548">
        <ele>467.0</ele>
      </trkpt>
      <trkpt lat="25.119135" lon="121.851491">
        <ele>469.0</ele>
      </trkpt>
      <trkpt lat="25.119088" lon="121.851291">
        <ele>476.0</ele>
      </trkpt>
      <trkpt lat="25.119109" lon="121.8512">
        <ele>480.0</ele>
      </trkpt>
      <trkpt lat="25.119102" lon="121.851143">
        <ele>483.0</ele>
      </trkpt>
      <trkpt lat="25.119063" lon="121.850906">
        <ele>491.0</ele>
      </trkpt>
      <trkpt lat="25.118982" lon="121.850625">
        <ele>504.0</ele>
      </trkpt>
      <trkpt lat="25.118979" lon="121.850521">
        <ele>510.0</ele>
      </trkpt>
      <trkpt lat="25.119006" lon="121.850386">
        <ele>519.0</ele>
      </trkpt>
      <trkpt lat="25.119093" lon="121.850218">
        <ele>532.0</ele>
      </trkpt>
      <trkpt lat="25.119099" lon="121.850149">
        <ele>537.0</ele>
      </trkpt>
      <trkpt lat="25.119126" lon="121.850118">
        <ele>539.0</ele>
      </trkpt>
      <trkpt lat="25.119216" lon="121.850082">
        <ele>541.0</ele>
      </trkpt>
      <trkpt lat="25.119242" lon="121.850062">
        <ele>540.0</ele>
      </trkpt>
      <trkpt lat="25.119246" lon="121.850038">
        <ele>542.0</ele>
      </trkpt>
      <trkpt lat="25.119166" lon="121.849734">
        <ele>553.0</ele>
      </trkpt>
      <trkpt lat="25.119063" lon="121.849436">
        <ele>557.0</ele>
      </trkpt>
      <trkpt lat="25.119004" lon="121.849341">
        <ele>558.0</ele>
      </trkpt>
      <trkpt lat="25.118916" lon="121.849246">
        <ele>558.0</ele>
      </trkpt>
      <trkpt lat="25.118807" lon="121.849166">
        <ele>558.0</ele>
      </trkpt>
      <trkpt lat="25.118756" lon="121.849093">
        <ele>556.0</ele>
      </trkpt>
      <trkpt lat="25.118567" lon="121.848916">
        <ele>552.0</ele>
      </trkpt>
      <trkpt lat="25.11853" lon="121.848821">
        <ele>551.0</ele>
      </trkpt>
      <trkpt lat="25.118356" lon="121.848647">
        <ele>551.0</ele>
      </trkpt>
      <trkpt lat="25.1180061" lon="121.8483955">
        <ele>542.0</ele>
      </trkpt>
      <trkpt lat="25.11785" lon="121.848294">
        <ele>537.0</ele>
      </trkpt>
      <trkpt lat="25.117444" lon="121.848108">
        <ele>519.0</ele>
      </trkpt>
      <trkpt lat="25.117124" lon="121.84792">
        <ele>502.0</ele>
      </trkpt>
      <trkpt lat="25.117113" lon="121.847898">
        <ele>501.0</ele>
      </trkpt>
      <trkpt lat="25.117152" lon="121.847823">
        <ele>500.0</ele>
      </trkpt>
      <trkpt lat="25.117225" lon="121.847775">
        <ele>501.0</ele>
      </trkpt>
      <trkpt lat="25.117337" lon="121.84777">
        <ele>503.0</ele>
      </trkpt>
      <trkpt lat="25.117448" lon="121.847786">
        <ele>507.0</ele>
      </trkpt>
      <trkpt lat="25.117565" lon="121.847764">
        <ele>508.0</ele>
      </trkpt>
      <trkpt lat="25.117735" lon="121.847694">
        <ele>507.0</ele>
      </trkpt>
      <trkpt lat="25.117939" lon="121.847555">
        <ele>502.0</ele>
      </trkpt>
      <trkpt lat="25.118026" lon="121.847437">
        <ele>497.0</ele>
      </trkpt>
      <trkpt lat="25.117983" lon="121.847383">
        <ele>493.0</ele>
      </trkpt>
      <trkpt lat="25.118012" lon="121.84733">
        <ele>491.0</ele>
      </trkpt>
      <trkpt lat="25.117963" lon="121.847228">
        <ele>485.0</ele>
      </trkpt>
      <trkpt lat="25.118012" lon="121.847163">
        <ele>481.0</ele>
      </trkpt>
      <trkpt lat="25.118065" lon="121.847158">
        <ele>481.0</ele>
      </trkpt>
      <trkpt lat="25.118226" lon="121.847196">
        <ele>483.0</ele>
      </trkpt>
      <trkpt lat="25.118352" lon="121.847206">
        <ele>484.0</ele>
      </trkpt>
      <trkpt lat="25.118116" lon="121.847072">
        <ele>476.0</ele>
      </trkpt>
      <trkpt lat="25.118058" lon="121.846948">
        <ele>469.0</ele>
      </trkpt>
      <trkpt lat="25.118309" lon="121.846959">
        <ele>470.0</ele>
      </trkpt>
      <trkpt lat="25.118193" lon="121.846847">
        <ele>463.0</ele>
      </trkpt>
      <trkpt lat="25.118097" lon="121.846691">
        <ele>454.0</ele>
      </trkpt>
      <trkpt lat="25.11833" lon="121.846776">
        <ele>459.0</ele>
      </trkpt>
      <trkpt lat="25.118214" lon="121.84656">
        <ele>448.0</ele>
      </trkpt>
      <trkpt lat="25.11815" lon="121.846378">
        <ele>439.0</ele>
      </trkpt>
      <trkpt lat="25.118208" lon="121.846162">
        <ele>429.0</ele>
      </trkpt>
      <trkpt lat="25.118234" lon="121.845963">
        <ele>421.0</ele>
      </trkpt>
      <trkpt lat="25.118277" lon="121.845889">
        <ele>418.0</ele>
      </trkpt>
      <trkpt lat="25.118283" lon="121.845812">
        <ele>414.0</ele>
      </trkpt>
      <trkpt lat="25.11824" lon="121.845739">
        <ele>410.0</ele>
      </trkpt>
      <trkpt lat="25.117988" lon="121.845677">
        <ele>404.0</ele>
      </trkpt>
      <trkpt lat="25.117836" lon="121.845702">
        <ele>403.0</ele>
      </trkpt>
      <trkpt lat="25.117476" lon="121.845864">
        <ele>406.0</ele>
      </trkpt>
      <trkpt lat="25.11731" lon="121.845896">
        <ele>403.0</ele>
      </trkpt>
      <trkpt lat="25.117225" lon="121.846166">
        <ele>417.0</ele>
      </trkpt>
      <trkpt lat="25.116798" lon="121.846241">
        <ele>409.0</ele>
      </trkpt>
      <trkpt lat="25.116464" lon="121.846248">
        <ele>402.0</ele>
      </trkpt>
      <trkpt lat="25.116331" lon="121.846268">
        <ele>401.0</ele>
      </trkpt>
      <trkpt lat="25.11603" lon="121.846182">
        <ele>391.0</ele>
      </trkpt>
      <trkpt lat="25.11569" lon="121.846246">
        <ele>384.0</ele>
      </trkpt>
      <trkpt lat="25.115617" lon="121.846327">
        <ele>384.0</ele>
      </trkpt>
      <trkpt lat="25.11552" lon="121.846573">
        <ele>387.0</ele>
      </trkpt>
      <trkpt lat="25.115423" lon="121.84674">
        <ele>388.0</ele>
      </trkpt>
      <trkpt lat="25.115369" lon="121.847008">
        <ele>396.0</ele>
      </trkpt>
      <trkpt lat="25.115209" lon="121.847222">
        <ele>396.0</ele>
      </trkpt>
      <trkpt lat="25.115112" lon="121.847292">
        <ele>393.0</ele>
      </trkpt>
      <trkpt lat="25.114927" lon="121.847281">
        <ele>384.0</ele>
      </trkpt>
      <trkpt lat="25.114777" lon="121.847324">
        <ele>380.0</ele>
      </trkpt>
      <trkpt lat="25.114733" lon="121.847367">
        <ele>380.0</ele>
      </trkpt>
      <trkpt lat="25.114641" lon="121.847357">
        <ele>376.0</ele>
      </trkpt>
      <trkpt lat="25.114403" lon="121.847373">
        <ele>367.0</ele>
      </trkpt>
      <trkpt lat="25.114315" lon="121.847335">
        <ele>363.0</ele>
      </trkpt>
      <trkpt lat="25.114204" lon="121.847217">
        <ele>354.0</ele>
      </trkpt>
      <trkpt lat="25.113979" lon="121.847189">
        <ele>348.0</ele>
      </trkpt>
      <trkpt lat="25.113785" lon="121.847268">
        <ele>346.0</ele>
      </trkpt>
      <trkpt lat="25.113556" lon="121.847282">
        <ele>341.0</ele>
      </trkpt>
      <trkpt lat="25.113408" lon="121.847268">
        <ele>337.0</ele>
      </trkpt>
      <trkpt lat="25.113269" lon="121.847283">
        <ele>335.0</ele>
      </trkpt>
      <trkpt lat="25.113166" lon="121.847266">
        <ele>333.0</ele>
      </trkpt>
      <trkpt lat="25.112985" lon="121.847202">
        <ele>329.0</ele>
      </trkpt>
      <trkpt lat="25.1126866" lon="121.847204">
        <ele>324.0</ele>
      </trkpt>
      <trkpt lat="25.112616" lon="121.847207">
        <ele>323.0</ele>
      </trkpt>
      <trkpt lat="25.112437" lon="121.847187">
        <ele>320.0</ele>
      </trkpt>
      <trkpt lat="25.112344" lon="121.847223">
        <ele>320.0</ele>
      </trkpt>
      <trkpt lat="25.112312" lon="121.847222">
        <ele>320.0</ele>
      </trkpt>
      <trkpt lat="25.112277" lon="121.84722">
        <ele>320.0</ele>
      </trkpt>
      <trkpt lat="25.112016" lon="121.847294">
        <ele>320.0</ele>
      </trkpt>
      <trkpt lat="25.111734" lon="121.847469">
        <ele>325.0</ele>
      </trkpt>
      <trkpt lat="25.111711" lon="121.847489">
        <ele>326.0</ele>
      </trkpt>
      <trkpt lat="25.111711" lon="121.847489">
        <ele>326.0</ele>
      </trkpt>
      <trkpt lat="25.111711" lon="121.847489">
        <ele>326.0</ele>
      </trkpt>
      <trkpt lat="25.111452" lon="121.847351">
        <ele>323.0</ele>
      </trkpt>
      <trkpt lat="25.111541" lon="121.847294">
        <ele>320.0</ele>
      </trkpt>
      <trkpt lat="25.11156" lon="121.847243">
        <ele>318.0</ele>
      </trkpt>
      <trkpt lat="25.111475" lon="121.847032">
        <ele>312.0</ele>
      </trkpt>
      <trkpt lat="25.111461" lon="121.846965">
        <ele>310.0</ele>
      </trkpt>
      <trkpt lat="25.111455" lon="121.846761">
        <ele>303.0</ele>
      </trkpt>
      <trkpt lat="25.111325" lon="121.84671">
        <ele>304.0</ele>
      </trkpt>
      <trkpt lat="25.111255" lon="121.846623">
        <ele>303.0</ele>
      </trkpt>
      <trkpt lat="25.111237" lon="121.846523">
        <ele>301.0</ele>
      </trkpt>
      <trkpt lat="25.111289" lon="121.846446">
        <ele>298.0</ele>
      </trkpt>
      <trkpt lat="25.111313" lon="121.846207">
        <ele>292.0</ele>
      </trkpt>
      <trkpt lat="25.111306" lon="121.84614">
        <ele>290.0</ele>
      </trkpt>
      <trkpt lat="25.111324" lon="121.846102">
        <ele>289.0</ele>
      </trkpt>
      <trkpt lat="25.111306" lon="121.845994">
        <ele>287.0</ele>
      </trkpt>
      <trkpt lat="25.111262" lon="121.84593">
        <ele>286.0</ele>
      </trkpt>
      <trkpt lat="25.111174" lon="121.845875">
        <ele>287.0</ele>
      </trkpt>
      <trkpt lat="25.111007" lon="121.845812">
        <ele>289.0</ele>
      </trkpt>
      <trkpt lat="25.110895" lon="121.845823">
        <ele>292.0</ele>
      </trkpt>
      <trkpt lat="25.110812" lon="121.845809">
        <ele>293.0</ele>
      </trkpt>
      <trkpt lat="25.110741" lon="121.845752">
        <ele>294.0</ele>
      </trkpt>
      <trkpt lat="25.110689" lon="121.84571">
        <ele>294.0</ele>
      </trkpt>
      <trkpt lat="25.110401" lon="121.8457">
        <ele>300.0</ele>
      </trkpt>
      <trkpt lat="25.11033" lon="121.845603">
        <ele>300.0</ele>
      </trkpt>
      <trkpt lat="25.110264" lon="121.845005">
        <ele>290.0</ele>
      </trkpt>
      <trkpt lat="25.110227" lon="121.844928">
        <ele>288.0</ele>
      </trkpt>
      <trkpt lat="25.1102" lon="121.844919">
        <ele>288.0</ele>
      </trkpt>
      <trkpt lat="25.109963" lon="121.844865">
        <ele>290.0</ele>
      </trkpt>
      <trkpt lat="25.109477" lon="121.845099">
        <ele>301.0</ele>
      </trkpt>
      <trkpt lat="25.109297" lon="121.845076">
        <ele>302.0</ele>
      </trkpt>
      <trkpt lat="25.109272" lon="121.845114">
        <ele>303.0</ele>
      </trkpt>
      <trkpt lat="25.109297" lon="121.845076">
        <ele>302.0</ele>
      </trkpt>
      <trkpt lat="25.109149" lon="121.844997">
        <ele>301.0</ele>
      </trkpt>
      <trkpt lat="25.109025" lon="121.844984">
        <ele>302.0</ele>
      </trkpt>
      <trkpt lat="25.108894" lon="121.844926">
        <ele>303.0</ele>
      </trkpt>
      <trkpt lat="25.108781" lon="121.844818">
        <ele>303.0</ele>
      </trkpt>
      <trkpt lat="25.10865" lon="121.844874">
        <ele>305.0</ele>
      </trkpt>
      <trkpt lat="25.10856" lon="121.844932">
        <ele>306.0</ele>
      </trkpt>
      <trkpt lat="25.108515" lon="121.844912">
        <ele>307.0</ele>
      </trkpt>
      <trkpt lat="25.108413" lon="121.844791">
        <ele>308.0</ele>
      </trkpt>
      <trkpt lat="25.108515" lon="121.844714">
        <ele>306.0</ele>
      </trkpt>
      <trkpt lat="25.10859" lon="121.844476">
        <ele>303.0</ele>
      </trkpt>
      <trkpt lat="25.108685" lon="121.844286">
        <ele>300.0</ele>
      </trkpt>
      <trkpt lat="25.108459" lon="121.843999">
        <ele>302.0</ele>
      </trkpt>
      <trkpt lat="25.108274" lon="121.843883">
        <ele>305.0</ele>
      </trkpt>
      <trkpt lat="25.10822" lon="121.8439">
        <ele>307.0</ele>
      </trkpt>
      <trkpt lat="25.108151" lon="121.843878">
        <ele>308.0</ele>
      </trkpt>
      <trkpt lat="25.108101" lon="121.843274">
        <ele>299.0</ele>
      </trkpt>
      <trkpt lat="25.108003" lon="121.84326">
        <ele>302.0</ele>
      </trkpt>
      <trkpt lat="25.107906" lon="121.843282">
        <ele>305.0</ele>
      </trkpt>
      <trkpt lat="25.107799" lon="121.843157">
        <ele>304.0</ele>
      </trkpt>
      <trkpt lat="25.107655" lon="121.843055">
        <ele>305.0</ele>
      </trkpt>
      <trkpt lat="25.107533" lon="121.842847">
        <ele>302.0</ele>
      </trkpt>
      <trkpt lat="25.10762" lon="121.842762">
        <ele>296.0</ele>
      </trkpt>
      <trkpt lat="25.107631" lon="121.842729">
        <ele>294.0</ele>
      </trkpt>
      <trkpt lat="25.107574" lon="121.842611">
        <ele>292.0</ele>
      </trkpt>
      <trkpt lat="25.107566" lon="121.842563">
        <ele>291.0</ele>
      </trkpt>
      <trkpt lat="25.107509" lon="121.842459">
        <ele>290.0</ele>
      </trkpt>
      <trkpt lat="25.107356" lon="121.842242">
        <ele>290.0</ele>
      </trkpt>
      <trkpt lat="25.107152" lon="121.842191">
        <ele>294.0</ele>
      </trkpt>
      <trkpt lat="25.107132" lon="121.842129">
        <ele>294.0</ele>
      </trkpt>
      <trkpt lat="25.10717" lon="121.841958">
        <ele>290.0</ele>
      </trkpt>
      <trkpt lat="25.10719" lon="121.84164">
        <ele>286.0</ele>
      </trkpt>
      <trkpt lat="25.107219" lon="121.841494">
        <ele>288.0</ele>
      </trkpt>
      <trkpt lat="25.107234" lon="121.841416">
        <ele>289.0</ele>
      </trkpt>
      <trkpt lat="25.107279" lon="121.841348">
        <ele>288.0</ele>
      </trkpt>
      <trkpt lat="25.107501" lon="121.84116">
        <ele>285.0</ele>
      </trkpt>
      <trkpt lat="25.107617" lon="121.840912">
        <ele>285.0</ele>
      </trkpt>
      <trkpt lat="25.107667" lon="121.840865">
        <ele>284.0</ele>
      </trkpt>
      <trkpt lat="25.10804" lon="121.840654">
        <ele>276.0</ele>
      </trkpt>
      <trkpt lat="25.1082699" lon="121.8404758">
        <ele>274.0</ele>
      </trkpt>
      <trkpt lat="25.108496" lon="121.840279">
        <ele>272.0</ele>
      </trkpt>
      <trkpt lat="25.108535" lon="121.840172">
        <ele>274.0</ele>
      </trkpt>
      <trkpt lat="25.108568" lon="121.839992">
        <ele>279.0</ele>
      </trkpt>
      <trkpt lat="25.108776" lon="121.839522">
        <ele>270.0</ele>
      </trkpt>
      <trkpt lat="25.108711" lon="121.839465">
        <ele>273.0</ele>
      </trkpt>
      <trkpt lat="25.108452" lon="121.839212">
        <ele>286.0</ele>
      </trkpt>
      <trkpt lat="25.108196" lon="121.838963">
        <ele>294.0</ele>
      </trkpt>
      <trkpt lat="25.108086" lon="121.838614">
        <ele>293.0</ele>
      </trkpt>
      <trkpt lat="25.108107" lon="121.838453">
        <ele>290.0</ele>
      </trkpt>
      <trkpt lat="25.108146" lon="121.83835">
        <ele>286.0</ele>
      </trkpt>
      <trkpt lat="25.108176" lon="121.838225">
        <ele>286.0</ele>
      </trkpt>
      <trkpt lat="25.108384" lon="121.837758">
        <ele>283.0</ele>
      </trkpt>
      <trkpt lat="25.108665" lon="121.837605">
        <ele>269.0</ele>
      </trkpt>
      <trkpt lat="25.108713" lon="121.837361">
        <ele>269.0</ele>
      </trkpt>
      <trkpt lat="25.108629" lon="121.837244">
        <ele>277.0</ele>
      </trkpt>
      <trkpt lat="25.108604" lon="121.837094">
        <ele>280.0</ele>
      </trkpt>
      <trkpt lat="25.108697" lon="121.836819">
        <ele>279.0</ele>
      </trkpt>
      <trkpt lat="25.108823" lon="121.83673">
        <ele>272.0</ele>
      </trkpt>
      <trkpt lat="25.108828" lon="121.836627">
        <ele>274.0</ele>
      </trkpt>
      <trkpt lat="25.10873" lon="121.836343">
        <ele>283.0</ele>
      </trkpt>
      <trkpt lat="25.108718" lon="121.836198">
        <ele>285.0</ele>
      </trkpt>
      <trkpt lat="25.108807" lon="121.836072">
        <ele>282.0</ele>
      </trkpt>
      <trkpt lat="25.108925" lon="121.836109">
        <ele>275.0</ele>
      </trkpt>
      <trkpt lat="25.109022" lon="121.836034">
        <ele>272.0</ele>
      </trkpt>
      <trkpt lat="25.109056" lon="121.835908">
        <ele>272.0</ele>
      </trkpt>
      <trkpt lat="25.109069" lon="121.835759">
        <ele>272.0</ele>
      </trkpt>
      <trkpt lat="25.109094" lon="121.835698">
        <ele>270.0</ele>
      </trkpt>
      <trkpt lat="25.109183" lon="121.835539">
        <ele>265.0</ele>
      </trkpt>
      <trkpt lat="25.109344" lon="121.835474">
        <ele>257.0</ele>
      </trkpt>
      <trkpt lat="25.109411" lon="121.835297">
        <ele>253.0</ele>
      </trkpt>
      <trkpt lat="25.109411" lon="121.835297">
        <ele>253.0</ele>
      </trkpt>
      <trkpt lat="25.10936" lon="121.835138">
        <ele>254.0</ele>
      </trkpt>
      <trkpt lat="25.109234" lon="121.835026">
        <ele>258.0</ele>
      </trkpt>
      <trkpt lat="25.109132" lon="121.834956">
        <ele>260.0</ele>
      </trkpt>
      <trkpt lat="25.108988" lon="121.834993">
        <ele>265.0</ele>
      </trkpt>
      <trkpt lat="25.108828" lon="121.834764">
        <ele>258.0</ele>
      </trkpt>
      <trkpt lat="25.108705" lon="121.834694">
        <ele>257.0</ele>
      </trkpt>
      <trkpt lat="25.10857" lon="121.834675">
        <ele>259.0</ele>
      </trkpt>
      <trkpt lat="25.108417" lon="121.83468">
        <ele>262.0</ele>
      </trkpt>
      <trkpt lat="25.108189" lon="121.834769">
        <ele>264.0</ele>
      </trkpt>
      <trkpt lat="25.108117" lon="121.834774">
        <ele>262.0</ele>
      </trkpt>
      <trkpt lat="25.108121" lon="121.834675">
        <ele>258.0</ele>
      </trkpt>
      <trkpt lat="25.108172" lon="121.834456">
        <ele>249.0</ele>
      </trkpt>
      <trkpt lat="25.108253" lon="121.833858">
        <ele>229.0</ele>
      </trkpt>
      <trkpt lat="25.108354" lon="121.833316">
        <ele>213.0</ele>
      </trkpt>
      <trkpt lat="25.108354" lon="121.832953">
        <ele>208.0</ele>
      </trkpt>
      <trkpt lat="25.108392" lon="121.83249">
        <ele>199.0</ele>
      </trkpt>
      <trkpt lat="25.108434" lon="121.832247">
        <ele>193.0</ele>
      </trkpt>
      <trkpt lat="25.108532" lon="121.83182">
        <ele>182.0</ele>
      </trkpt>
      <trkpt lat="25.108532" lon="121.83182">
        <ele>182.0</ele>
      </trkpt>
      <trkpt lat="25.10855" lon="121.831033">
        <ele>160.0</ele>
      </trkpt>
      <trkpt lat="25.108622" lon="121.83061">
        <ele>148.0</ele>
      </trkpt>
      <trkpt lat="25.108705" lon="121.829935">
        <ele>131.0</ele>
      </trkpt>
      <trkpt lat="25.108713" lon="121.82966">
        <ele>125.0</ele>
      </trkpt>
      <trkpt lat="25.10876" lon="121.829412">
        <ele>120.0</ele>
      </trkpt>
      <trkpt lat="25.108853" lon="121.829165">
        <ele>116.0</ele>
      </trkpt>
      <trkpt lat="25.108874" lon="121.828665">
        <ele>112.0</ele>
      </trkpt>
      <trkpt lat="25.108959" lon="121.828394">
        <ele>109.0</ele>
      </trkpt>
      <trkpt lat="25.109263" lon="121.828296">
        <ele>106.0</ele>
      </trkpt>
      <trkpt lat="25.109588" lon="121.828086">
        <ele>111.0</ele>
      </trkpt>
      <trkpt lat="25.109509" lon="121.82783">
        <ele>109.0</ele>
      </trkpt>
      <trkpt lat="25.109493" lon="121.827698">
        <ele>109.0</ele>
      </trkpt>
      <trkpt lat="25.109522" lon="121.827347">
        <ele>109.0</ele>
      </trkpt>
      <trkpt lat="25.109509" lon="121.827207">
        <ele>108.0</ele>
      </trkpt>
      <trkpt lat="25.10931" lon="121.826362">
        <ele>98.0</ele>
      </trkpt>
      <trkpt lat="25.109247" lon="121.826147">
        <ele>96.0</ele>
      </trkpt>
      <trkpt lat="25.109141" lon="121.825909">
        <ele>95.0</ele>
      </trkpt>
      <trkpt lat="25.109026" lon="121.82578">
        <ele>97.0</ele>
      </trkpt>
      <trkpt lat="25.108816" lon="121.825614">
        <ele>99.0</ele>
      </trkpt>
      <trkpt lat="25.108516" lon="121.82545">
        <ele>99.0</ele>
      </trkpt>
      <trkpt lat="25.108516" lon="121.82545">
        <ele>99.0</ele>
      </trkpt>
      <trkpt lat="25.108199" lon="121.825243">
        <ele>96.0</ele>
      </trkpt>
      <trkpt lat="25.10804" lon="121.825066">
        <ele>93.0</ele>
      </trkpt>
      <trkpt lat="25.107566" lon="121.823991">
        <ele>84.0</ele>
      </trkpt>
      <trkpt lat="25.107422" lon="121.823579">
        <ele>83.0</ele>
      </trkpt>
      <trkpt lat="25.10738" lon="121.82317">
        <ele>82.0</ele>
      </trkpt>
      <trkpt lat="25.107381" lon="121.822901">
        <ele>79.0</ele>
      </trkpt>
      <trkpt lat="25.10738" lon="121.822716">
        <ele>78.0</ele>
      </trkpt>
      <trkpt lat="25.107312" lon="121.822275">
        <ele>75.0</ele>
      </trkpt>
      <trkpt lat="25.1072681" lon="121.8221238">
        <ele>74.0</ele>
      </trkpt>
      <trkpt lat="25.106939" lon="121.820991">
        <ele>70.0</ele>
      </trkpt>
      <trkpt lat="25.106906" lon="121.820755">
        <ele>69.0</ele>
      </trkpt>
      <trkpt lat="25.106912" lon="121.820634">
        <ele>69.0</ele>
      </trkpt>
      <trkpt lat="25.106977" lon="121.820352">
        <ele>70.0</ele>
      </trkpt>
      <trkpt lat="25.107277" lon="121.819771">
        <ele>70.0</ele>
      </trkpt>
      <trkpt lat="25.107392" lon="121.819592">
        <ele>70.0</ele>
      </trkpt>
      <trkpt lat="25.107827" lon="121.818638">
        <ele>66.0</ele>
      </trkpt>
      <trkpt lat="25.107568" lon="121.818484">
        <ele>64.0</ele>
      </trkpt>
      <trkpt lat="25.107461" lon="121.818355">
        <ele>63.0</ele>
      </trkpt>
      <trkpt lat="25.107388" lon="121.818474">
        <ele>63.0</ele>
      </trkpt>
      <trkpt lat="25.107157" lon="121.818591">
        <ele>62.0</ele>
      </trkpt>
      <trkpt lat="25.107056" lon="121.818622">
        <ele>62.0</ele>
      </trkpt>
      <trkpt lat="25.106838" lon="121.818635">
        <ele>60.0</ele>
      </trkpt>
      <trkpt lat="25.106798" lon="121.818682">
        <ele>60.0</ele>
      </trkpt>
      <trkpt lat="25.106656" lon="121.818742">
        <ele>60.0</ele>
      </trkpt>
      <trkpt lat="25.106284" lon="121.818943">
        <ele>58.0</ele>
      </trkpt>
      <trkpt lat="25.106286" lon="121.818907">
        <ele>58.0</ele>
      </trkpt>
      <trkpt lat="25.106465" lon="121.818793">
        <ele>59.0</ele>
      </trkpt>
      <trkpt lat="25.106467" lon="121.818773">
        <ele>59.0</ele>
      </trkpt>
      <trkpt lat="25.106166" lon="121.818049">
        <ele>59.0</ele>
      </trkpt>
      <trkpt lat="25.10619" lon="121.817993">
        <ele>59.0</ele>
      </trkpt>
      <trkpt lat="25.10614" lon="121.818019">
        <ele>59.0</ele>
      </trkpt>
      <trkpt lat="25.106437" lon="121.817875">
        <ele>59.0</ele>
      </trkpt>
      <trkpt lat="25.106705" lon="121.817716">
        <ele>58.0</ele>
      </trkpt>
      <trkpt lat="25.10704" lon="121.817486">
        <ele>58.0</ele>
      </trkpt>
      <trkpt lat="25.107499" lon="121.817096">
        <ele>58.0</ele>
      </trkpt>
      <trkpt lat="25.107766" lon="121.816774">
        <ele>60.0</ele>
      </trkpt>
      <trkpt lat="25.107932" lon="121.816432">
        <ele>59.0</ele>
      </trkpt>
      <trkpt lat="25.108065" lon="121.815819">
        <ele>55.0</ele>
      </trkpt>
      <trkpt lat="25.108099" lon="121.815395">
        <ele>54.0</ele>
      </trkpt>
      <trkpt lat="25.108057" lon="121.814996">
        <ele>53.0</ele>
      </trkpt>
      <trkpt lat="25.107902" lon="121.814526">
        <ele>57.0</ele>
      </trkpt>
      <trkpt lat="25.10772" lon="121.814215">
        <ele>59.0</ele>
      </trkpt>
      <trkpt lat="25.107643" lon="121.813927">
        <ele>60.0</ele>
      </trkpt>
      <trkpt lat="25.107341" lon="121.812722">
        <ele>59.0</ele>
      </trkpt>
      <trkpt lat="25.107321" lon="121.812573">
        <ele>60.0</ele>
      </trkpt>
      <trkpt lat="25.10733" lon="121.812231">
        <ele>59.0</ele>
      </trkpt>
      <trkpt lat="25.107343" lon="121.811727">
        <ele>57.0</ele>
      </trkpt>
      <trkpt lat="25.107321" lon="121.81139">
        <ele>57.0</ele>
      </trkpt>
      <trkpt lat="25.107247" lon="121.811031">
        <ele>57.0</ele>
      </trkpt>
      <trkpt lat="25.107018" lon="121.810366">
        <ele>58.0</ele>
      </trkpt>
      <trkpt lat="25.107021" lon="121.810226">
        <ele>58.0</ele>
      </trkpt>
      <trkpt lat="25.10712" lon="121.810176">
        <ele>58.0</ele>
      </trkpt>
      <trkpt lat="25.107605" lon="121.809937">
        <ele>59.0</ele>
      </trkpt>
      <trkpt lat="25.107431" lon="121.809517">
        <ele>60.0</ele>
      </trkpt>
      <trkpt lat="25.10742" lon="121.809455">
        <ele>60.0</ele>
      </trkpt>
      <trkpt lat="25.107432" lon="121.809367">
        <ele>61.0</ele>
      </trkpt>
      <trkpt lat="25.1074829" lon="121.8091238">
        <ele>63.0</ele>
      </trkpt>
      <trkpt lat="25.107728" lon="121.807954">
        <ele>63.0</ele>
      </trkpt>
      <trkpt lat="25.1079139" lon="121.807133">
        <ele>63.0</ele>
      </trkpt>
      <trkpt lat="25.108155" lon="121.806068">
        <ele>63.0</ele>
      </trkpt>
      <trkpt lat="25.108345" lon="121.806117">
        <ele>63.0</ele>
      </trkpt>
      <trkpt lat="25.108476" lon="121.806151">
        <ele>62.0</ele>
      </trkpt>
      <trkpt lat="25.108524" lon="121.805922">
        <ele>62.0</ele>
      </trkpt>
      <trkpt lat="25.108565" lon="121.805932">
        <ele>62.0</ele>
      </trkpt>
      <trkpt lat="25.108609" lon="121.80594">
        <ele>62.0</ele>
      </trkpt>
      <trkpt lat="25.108814" lon="121.805996">
        <ele>61.0</ele>
      </trkpt>
      <trkpt lat="25.108814" lon="121.805996">
        <ele>61.0</ele>
      </trkpt>
      <trkpt lat="25.10884" lon="121.806003">
        <ele>61.0</ele>
      </trkpt>
      <trkpt lat="25.108827" lon="121.806063">
        <ele>61.0</ele>
      </trkpt>
      <trkpt lat="25.108813" lon="121.80613">
        <ele>61.0</ele>
      </trkpt>
    </trkseg>
  </trk>
</gpx>
