<?xml version="1.0" encoding="UTF-8"?>
<gpx xmlns="http://www.topografix.com/GPX/1/1" xmlns:xsi="http://www.w3.org/2001/XMLSchema-instance" xsi:schemaLocation="http://www.topografix.com/GPX/1/1 http://www.topografix.com/GPX/1/1/gpx.xsd" version="1.1" creator="Martin Schneider">
  <wpt lat="25.126273" lon="121.501065">
    <ele>11.0</ele>
    <name>Start</name>
  </wpt>
  <wpt lat="25.136956" lon="121.503521">
    <ele>22.0</ele>
    <name>End</name>
  </wpt>
  <wpt lat="25.1312506" lon="121.5060803">
    <name>1</name>
    <desc>Trailhead</desc>
  </wpt>
  <wpt lat="25.133734" lon="121.50984">
    <name>2</name>
    <desc>Fork to the summit</desc>
  </wpt>
  <wpt lat="25.134096" lon="121.509617">
    <ele>120.0</ele>
    <name>Summit Danfengshan</name>
  </wpt>
  <trk>
    <name>006a_Danfengshan</name>
    <trkseg>
      <trkpt lat="25.126273" lon="121.501065">
        <ele>11.0</ele>
      </trkpt>
      <trkpt lat="25.126273" lon="121.501065">
        <ele>11.0</ele>
      </trkpt>
      <trkpt lat="25.126434" lon="121.501706">
        <ele>10.0</ele>
      </trkpt>
      <trkpt lat="25.126603" lon="121.502624">
        <ele>12.0</ele>
      </trkpt>
      <trkpt lat="25.126685" lon="121.503346">
        <ele>8.0</ele>
      </trkpt>
      <trkpt lat="25.126701" lon="121.503503">
        <ele>8.0</ele>
      </trkpt>
      <trkpt lat="25.126706" lon="121.503559">
        <ele>8.0</ele>
      </trkpt>
      <trkpt lat="25.126769" lon="121.503631">
        <ele>8.0</ele>
      </trkpt>
      <trkpt lat="25.126771" lon="121.503645">
        <ele>8.0</ele>
      </trkpt>
      <trkpt lat="25.126771" lon="121.503645">
        <ele>8.0</ele>
      </trkpt>
      <trkpt lat="25.126769" lon="121.503631">
        <ele>8.0</ele>
      </trkpt>
      <trkpt lat="25.126794" lon="121.503673">
        <ele>8.0</ele>
      </trkpt>
      <trkpt lat="25.126964" lon="121.503675">
        <ele>8.0</ele>
      </trkpt>
      <trkpt lat="25.127298" lon="121.503604">
        <ele>8.0</ele>
      </trkpt>
      <trkpt lat="25.127654" lon="121.503528">
        <ele>9.0</ele>
      </trkpt>
      <trkpt lat="25.127826" lon="121.503521">
        <ele>8.0</ele>
      </trkpt>
      <trkpt lat="25.128195" lon="121.503506">
        <ele>8.0</ele>
      </trkpt>
      <trkpt lat="25.128195" lon="121.503506">
        <ele>8.0</ele>
      </trkpt>
      <trkpt lat="25.128236" lon="121.503504">
        <ele>8.0</ele>
      </trkpt>
      <trkpt lat="25.128239" lon="121.503449">
        <ele>8.0</ele>
      </trkpt>
      <trkpt lat="25.128568" lon="121.503433">
        <ele>7.0</ele>
      </trkpt>
      <trkpt lat="25.128596" lon="121.503432">
        <ele>7.0</ele>
      </trkpt>
      <trkpt lat="25.128626" lon="121.503429">
        <ele>7.0</ele>
      </trkpt>
      <trkpt lat="25.128915" lon="121.503398">
        <ele>6.0</ele>
      </trkpt>
      <trkpt lat="25.129156" lon="121.503382">
        <ele>5.0</ele>
      </trkpt>
      <trkpt lat="25.129325" lon="121.503392">
        <ele>6.0</ele>
      </trkpt>
      <trkpt lat="25.129445" lon="121.503481">
        <ele>7.0</ele>
      </trkpt>
      <trkpt lat="25.129525" lon="121.503585">
        <ele>7.0</ele>
      </trkpt>
      <trkpt lat="25.129844" lon="121.503799">
        <ele>8.0</ele>
      </trkpt>
      <trkpt lat="25.129814" lon="121.503896">
        <ele>8.0</ele>
      </trkpt>
      <trkpt lat="25.129834" lon="121.503931">
        <ele>8.0</ele>
      </trkpt>
      <trkpt lat="25.12986" lon="121.503978">
        <ele>8.0</ele>
      </trkpt>
      <trkpt lat="25.129845" lon="121.503985">
        <ele>8.0</ele>
      </trkpt>
      <trkpt lat="25.129845" lon="121.503985">
        <ele>8.0</ele>
      </trkpt>
      <trkpt lat="25.12986" lon="121.503978">
        <ele>8.0</ele>
      </trkpt>
      <trkpt lat="25.129834" lon="121.503931">
        <ele>8.0</ele>
      </trkpt>
      <trkpt lat="25.129921" lon="121.503897">
        <ele>8.0</ele>
      </trkpt>
      <trkpt lat="25.130042" lon="121.504002">
        <ele>8.0</ele>
      </trkpt>
      <trkpt lat="25.130128" lon="121.504147">
        <ele>8.0</ele>
      </trkpt>
      <trkpt lat="25.1302" lon="121.504364">
        <ele>9.0</ele>
      </trkpt>
      <trkpt lat="25.130182" lon="121.504425">
        <ele>10.0</ele>
      </trkpt>
      <trkpt lat="25.12999" lon="121.504526">
        <ele>10.0</ele>
      </trkpt>
      <trkpt lat="25.130023" lon="121.504599">
        <ele>11.0</ele>
      </trkpt>
      <trkpt lat="25.13029" lon="121.504451">
        <ele>10.0</ele>
      </trkpt>
      <trkpt lat="25.130429" lon="121.504684">
        <ele>12.0</ele>
      </trkpt>
      <trkpt lat="25.130409" lon="121.504697">
        <ele>12.0</ele>
      </trkpt>
      <trkpt lat="25.130409" lon="121.504697">
        <ele>12.0</ele>
      </trkpt>
      <trkpt lat="25.130653" lon="121.504639">
        <ele>12.0</ele>
      </trkpt>
      <trkpt lat="25.131107" lon="121.504627">
        <ele>11.0</ele>
      </trkpt>
      <trkpt lat="25.131121" lon="121.504666">
        <ele>11.0</ele>
      </trkpt>
      <trkpt lat="25.131121" lon="121.504666">
        <ele>11.0</ele>
      </trkpt>
      <trkpt lat="25.131213" lon="121.504858">
        <ele>12.0</ele>
      </trkpt>
      <trkpt lat="25.131193" lon="121.504869">
        <ele>12.0</ele>
      </trkpt>
      <trkpt lat="25.131048" lon="121.504955">
        <ele>13.0</ele>
      </trkpt>
      <trkpt lat="25.13097" lon="121.505032">
        <ele>15.0</ele>
      </trkpt>
      <trkpt lat="25.130904" lon="121.505139">
        <ele>19.0</ele>
      </trkpt>
      <trkpt lat="25.130904" lon="121.505139">
        <ele>19.0</ele>
      </trkpt>
      <trkpt lat="25.130755" lon="121.505348">
        <ele>26.0</ele>
      </trkpt>
      <trkpt lat="25.130691" lon="121.505356">
        <ele>25.0</ele>
      </trkpt>
      <trkpt lat="25.130419" lon="121.505656">
        <ele>30.0</ele>
      </trkpt>
      <trkpt lat="25.130419" lon="121.505656">
        <ele>30.0</ele>
      </trkpt>
      <trkpt lat="25.130105" lon="121.506002">
        <ele>30.0</ele>
      </trkpt>
      <trkpt lat="25.130253" lon="121.506172">
        <ele>36.0</ele>
      </trkpt>
      <trkpt lat="25.130315" lon="121.506099">
        <ele>36.0</ele>
      </trkpt>
      <trkpt lat="25.130315" lon="121.506099">
        <ele>36.0</ele>
      </trkpt>
      <trkpt lat="25.130438" lon="121.505996">
        <ele>37.0</ele>
      </trkpt>
      <trkpt lat="25.130647" lon="121.505784">
        <ele>37.0</ele>
      </trkpt>
      <trkpt lat="25.130804" lon="121.505666">
        <ele>36.0</ele>
      </trkpt>
      <trkpt lat="25.130874" lon="121.505661">
        <ele>36.0</ele>
      </trkpt>
      <trkpt lat="25.130874" lon="121.505661">
        <ele>36.0</ele>
      </trkpt>
      <trkpt lat="25.130927" lon="121.505669">
        <ele>35.0</ele>
      </trkpt>
      <trkpt lat="25.130979" lon="121.505713">
        <ele>35.0</ele>
      </trkpt>
      <trkpt lat="25.131118" lon="121.505979">
        <ele>39.0</ele>
      </trkpt>
      <trkpt lat="25.131251" lon="121.50608">
        <ele>39.0</ele>
      </trkpt>
      <trkpt lat="25.131316" lon="121.506364">
        <ele>46.0</ele>
      </trkpt>
      <trkpt lat="25.131336" lon="121.506392">
        <ele>46.0</ele>
      </trkpt>
      <trkpt lat="25.131323" lon="121.506398">
        <ele>46.0</ele>
      </trkpt>
      <trkpt lat="25.131306" lon="121.506377">
        <ele>46.0</ele>
      </trkpt>
      <trkpt lat="25.131306" lon="121.506377">
        <ele>46.0</ele>
      </trkpt>
      <trkpt lat="25.131269" lon="121.506407">
        <ele>47.0</ele>
      </trkpt>
      <trkpt lat="25.131174" lon="121.506567">
        <ele>52.0</ele>
      </trkpt>
      <trkpt lat="25.131092" lon="121.506657">
        <ele>55.0</ele>
      </trkpt>
      <trkpt lat="25.131093" lon="121.506717">
        <ele>57.0</ele>
      </trkpt>
      <trkpt lat="25.131121" lon="121.506774">
        <ele>58.0</ele>
      </trkpt>
      <trkpt lat="25.131121" lon="121.506774">
        <ele>58.0</ele>
      </trkpt>
      <trkpt lat="25.131202" lon="121.506772">
        <ele>58.0</ele>
      </trkpt>
      <trkpt lat="25.131272" lon="121.506808">
        <ele>58.0</ele>
      </trkpt>
      <trkpt lat="25.131357" lon="121.506909">
        <ele>61.0</ele>
      </trkpt>
      <trkpt lat="25.131333" lon="121.506981">
        <ele>63.0</ele>
      </trkpt>
      <trkpt lat="25.131449" lon="121.507107">
        <ele>67.0</ele>
      </trkpt>
      <trkpt lat="25.131472" lon="121.507213">
        <ele>71.0</ele>
      </trkpt>
      <trkpt lat="25.13166" lon="121.507583">
        <ele>85.0</ele>
      </trkpt>
      <trkpt lat="25.131596" lon="121.507611">
        <ele>85.0</ele>
      </trkpt>
      <trkpt lat="25.131594" lon="121.507639">
        <ele>86.0</ele>
      </trkpt>
      <trkpt lat="25.131683" lon="121.507689">
        <ele>88.0</ele>
      </trkpt>
      <trkpt lat="25.13169" lon="121.507761">
        <ele>90.0</ele>
      </trkpt>
      <trkpt lat="25.131651" lon="121.507782">
        <ele>91.0</ele>
      </trkpt>
      <trkpt lat="25.131594" lon="121.50777">
        <ele>89.0</ele>
      </trkpt>
      <trkpt lat="25.131573" lon="121.507811">
        <ele>90.0</ele>
      </trkpt>
      <trkpt lat="25.131575" lon="121.507888">
        <ele>92.0</ele>
      </trkpt>
      <trkpt lat="25.131806" lon="121.508226">
        <ele>103.0</ele>
      </trkpt>
      <trkpt lat="25.13189" lon="121.508265">
        <ele>104.0</ele>
      </trkpt>
      <trkpt lat="25.13189" lon="121.508265">
        <ele>104.0</ele>
      </trkpt>
      <trkpt lat="25.131961" lon="121.508298">
        <ele>104.0</ele>
      </trkpt>
      <trkpt lat="25.132087" lon="121.508383">
        <ele>106.0</ele>
      </trkpt>
      <trkpt lat="25.132152" lon="121.508376">
        <ele>105.0</ele>
      </trkpt>
      <trkpt lat="25.132231" lon="121.50839">
        <ele>105.0</ele>
      </trkpt>
      <trkpt lat="25.132273" lon="121.508451">
        <ele>106.0</ele>
      </trkpt>
      <trkpt lat="25.132321" lon="121.508519">
        <ele>107.0</ele>
      </trkpt>
      <trkpt lat="25.132423" lon="121.508626">
        <ele>109.0</ele>
      </trkpt>
      <trkpt lat="25.132612" lon="121.508694">
        <ele>108.0</ele>
      </trkpt>
      <trkpt lat="25.132724" lon="121.508759">
        <ele>107.0</ele>
      </trkpt>
      <trkpt lat="25.132803" lon="121.508857">
        <ele>108.0</ele>
      </trkpt>
      <trkpt lat="25.132813" lon="121.509011">
        <ele>113.0</ele>
      </trkpt>
      <trkpt lat="25.13286" lon="121.509121">
        <ele>116.0</ele>
      </trkpt>
      <trkpt lat="25.133229" lon="121.509493">
        <ele>126.0</ele>
      </trkpt>
      <trkpt lat="25.133246" lon="121.50965">
        <ele>132.0</ele>
      </trkpt>
      <trkpt lat="25.13331" lon="121.509758">
        <ele>135.0</ele>
      </trkpt>
      <trkpt lat="25.133371" lon="121.509904">
        <ele>140.0</ele>
      </trkpt>
      <trkpt lat="25.133488" lon="121.509897">
        <ele>138.0</ele>
      </trkpt>
      <trkpt lat="25.133584" lon="121.509837">
        <ele>134.0</ele>
      </trkpt>
      <trkpt lat="25.13361" lon="121.509831">
        <ele>133.0</ele>
      </trkpt>
      <trkpt lat="25.13361" lon="121.509831">
        <ele>133.0</ele>
      </trkpt>
      <trkpt lat="25.13365" lon="121.509822">
        <ele>132.0</ele>
      </trkpt>
      <trkpt lat="25.133714" lon="121.509858">
        <ele>132.0</ele>
      </trkpt>
      <trkpt lat="25.133828" lon="121.509772">
        <ele>128.0</ele>
      </trkpt>
      <trkpt lat="25.133857" lon="121.509717">
        <ele>126.0</ele>
      </trkpt>
      <trkpt lat="25.133901" lon="121.509683">
        <ele>124.0</ele>
      </trkpt>
      <trkpt lat="25.133962" lon="121.509664">
        <ele>123.0</ele>
      </trkpt>
      <trkpt lat="25.134051" lon="121.509592">
        <ele>120.0</ele>
      </trkpt>
      <trkpt lat="25.134096" lon="121.509617">
        <ele>120.0</ele>
      </trkpt>
      <trkpt lat="25.134183" lon="121.509545">
        <ele>117.0</ele>
      </trkpt>
      <trkpt lat="25.134235" lon="121.509516">
        <ele>115.0</ele>
      </trkpt>
      <trkpt lat="25.134329" lon="121.509455">
        <ele>112.0</ele>
      </trkpt>
      <trkpt lat="25.134329" lon="121.509455">
        <ele>112.0</ele>
      </trkpt>
      <trkpt lat="25.134361" lon="121.509455">
        <ele>111.0</ele>
      </trkpt>
      <trkpt lat="25.134444" lon="121.509402">
        <ele>109.0</ele>
      </trkpt>
      <trkpt lat="25.134508" lon="121.509321">
        <ele>107.0</ele>
      </trkpt>
      <trkpt lat="25.13461" lon="121.509253">
        <ele>105.0</ele>
      </trkpt>
      <trkpt lat="25.134673" lon="121.509174">
        <ele>104.0</ele>
      </trkpt>
      <trkpt lat="25.134796" lon="121.509142">
        <ele>102.0</ele>
      </trkpt>
      <trkpt lat="25.134871" lon="121.509104">
        <ele>101.0</ele>
      </trkpt>
      <trkpt lat="25.135027" lon="121.509074">
        <ele>98.0</ele>
      </trkpt>
      <trkpt lat="25.135027" lon="121.509074">
        <ele>98.0</ele>
      </trkpt>
      <trkpt lat="25.135069" lon="121.509066">
        <ele>96.0</ele>
      </trkpt>
      <trkpt lat="25.135069" lon="121.509138">
        <ele>98.0</ele>
      </trkpt>
      <trkpt lat="25.13509" lon="121.509195">
        <ele>97.0</ele>
      </trkpt>
      <trkpt lat="25.135152" lon="121.509215">
        <ele>95.0</ele>
      </trkpt>
      <trkpt lat="25.135234" lon="121.509285">
        <ele>91.0</ele>
      </trkpt>
      <trkpt lat="25.135282" lon="121.509183">
        <ele>90.0</ele>
      </trkpt>
      <trkpt lat="25.135316" lon="121.509183">
        <ele>88.0</ele>
      </trkpt>
      <trkpt lat="25.135363" lon="121.509292">
        <ele>86.0</ele>
      </trkpt>
      <trkpt lat="25.135444" lon="121.509103">
        <ele>82.0</ele>
      </trkpt>
      <trkpt lat="25.135517" lon="121.509012">
        <ele>78.0</ele>
      </trkpt>
      <trkpt lat="25.135517" lon="121.509012">
        <ele>78.0</ele>
      </trkpt>
      <trkpt lat="25.135566" lon="121.508837">
        <ele>73.0</ele>
      </trkpt>
      <trkpt lat="25.135542" lon="121.508691">
        <ele>72.0</ele>
      </trkpt>
      <trkpt lat="25.135378" lon="121.508485">
        <ele>73.0</ele>
      </trkpt>
      <trkpt lat="25.135182" lon="121.508355">
        <ele>77.0</ele>
      </trkpt>
      <trkpt lat="25.135116" lon="121.508165">
        <ele>75.0</ele>
      </trkpt>
      <trkpt lat="25.135411" lon="121.50792">
        <ele>61.0</ele>
      </trkpt>
      <trkpt lat="25.135411" lon="121.50792">
        <ele>61.0</ele>
      </trkpt>
      <trkpt lat="25.135463" lon="121.507877">
        <ele>59.0</ele>
      </trkpt>
      <trkpt lat="25.135585" lon="121.507849">
        <ele>55.0</ele>
      </trkpt>
      <trkpt lat="25.135608" lon="121.507917">
        <ele>56.0</ele>
      </trkpt>
      <trkpt lat="25.135811" lon="121.508165">
        <ele>55.0</ele>
      </trkpt>
      <trkpt lat="25.135811" lon="121.508165">
        <ele>55.0</ele>
      </trkpt>
      <trkpt lat="25.135825" lon="121.508184">
        <ele>55.0</ele>
      </trkpt>
      <trkpt lat="25.135808" lon="121.508011">
        <ele>52.0</ele>
      </trkpt>
      <trkpt lat="25.135842" lon="121.507949">
        <ele>50.0</ele>
      </trkpt>
      <trkpt lat="25.136078" lon="121.507917">
        <ele>45.0</ele>
      </trkpt>
      <trkpt lat="25.136136" lon="121.507769">
        <ele>42.0</ele>
      </trkpt>
      <trkpt lat="25.136164" lon="121.507617">
        <ele>40.0</ele>
      </trkpt>
      <trkpt lat="25.136177" lon="121.507458">
        <ele>38.0</ele>
      </trkpt>
      <trkpt lat="25.136163" lon="121.507291">
        <ele>37.0</ele>
      </trkpt>
      <trkpt lat="25.136187" lon="121.507151">
        <ele>36.0</ele>
      </trkpt>
      <trkpt lat="25.136328" lon="121.507624">
        <ele>38.0</ele>
      </trkpt>
      <trkpt lat="25.136488" lon="121.507822">
        <ele>37.0</ele>
      </trkpt>
      <trkpt lat="25.136428" lon="121.507929">
        <ele>39.0</ele>
      </trkpt>
      <trkpt lat="25.136426" lon="121.507932">
        <ele>39.0</ele>
      </trkpt>
      <trkpt lat="25.136426" lon="121.507932">
        <ele>39.0</ele>
      </trkpt>
      <trkpt lat="25.136428" lon="121.507929">
        <ele>39.0</ele>
      </trkpt>
      <trkpt lat="25.136518" lon="121.507996">
        <ele>38.0</ele>
      </trkpt>
      <trkpt lat="25.136571" lon="121.507975">
        <ele>37.0</ele>
      </trkpt>
      <trkpt lat="25.136606" lon="121.508121">
        <ele>37.0</ele>
      </trkpt>
      <trkpt lat="25.136636" lon="121.508117">
        <ele>36.0</ele>
      </trkpt>
      <trkpt lat="25.136742" lon="121.508124">
        <ele>36.0</ele>
      </trkpt>
      <trkpt lat="25.136834" lon="121.508125">
        <ele>38.0</ele>
      </trkpt>
      <trkpt lat="25.136934" lon="121.508088">
        <ele>40.0</ele>
      </trkpt>
      <trkpt lat="25.136936" lon="121.508093">
        <ele>40.0</ele>
      </trkpt>
      <trkpt lat="25.136936" lon="121.508093">
        <ele>40.0</ele>
      </trkpt>
      <trkpt lat="25.136934" lon="121.508088">
        <ele>40.0</ele>
      </trkpt>
      <trkpt lat="25.136843" lon="121.507815">
        <ele>37.0</ele>
      </trkpt>
      <trkpt lat="25.136819" lon="121.507484">
        <ele>35.0</ele>
      </trkpt>
      <trkpt lat="25.136821" lon="121.5073">
        <ele>34.0</ele>
      </trkpt>
      <trkpt lat="25.136826" lon="121.50669">
        <ele>29.0</ele>
      </trkpt>
      <trkpt lat="25.136822" lon="121.506603">
        <ele>29.0</ele>
      </trkpt>
      <trkpt lat="25.136825" lon="121.506518">
        <ele>28.0</ele>
      </trkpt>
      <trkpt lat="25.136833" lon="121.506429">
        <ele>28.0</ele>
      </trkpt>
      <trkpt lat="25.136833" lon="121.506429">
        <ele>28.0</ele>
      </trkpt>
      <trkpt lat="25.136924" lon="121.505912">
        <ele>27.0</ele>
      </trkpt>
      <trkpt lat="25.136962" lon="121.505719">
        <ele>27.0</ele>
      </trkpt>
      <trkpt lat="25.136969" lon="121.505586">
        <ele>27.0</ele>
      </trkpt>
      <trkpt lat="25.136946" lon="121.505397">
        <ele>27.0</ele>
      </trkpt>
      <trkpt lat="25.136894" lon="121.504826">
        <ele>26.0</ele>
      </trkpt>
      <trkpt lat="25.136894" lon="121.504826">
        <ele>26.0</ele>
      </trkpt>
      <trkpt lat="25.136866" lon="121.50452">
        <ele>24.0</ele>
      </trkpt>
      <trkpt lat="25.136817" lon="121.504462">
        <ele>23.0</ele>
      </trkpt>
      <trkpt lat="25.136807" lon="121.504308">
        <ele>23.0</ele>
      </trkpt>
      <trkpt lat="25.136895" lon="121.504225">
        <ele>23.0</ele>
      </trkpt>
      <trkpt lat="25.136982" lon="121.504108">
        <ele>23.0</ele>
      </trkpt>
      <trkpt lat="25.136954" lon="121.503963">
        <ele>22.0</ele>
      </trkpt>
      <trkpt lat="25.136956" lon="121.503589">
        <ele>22.0</ele>
      </trkpt>
      <trkpt lat="25.136956" lon="121.503521">
        <ele>22.0</ele>
      </trkpt>
    </trkseg>
  </trk>
</gpx>
