<?xml version="1.0" encoding="UTF-8"?>
<gpx xmlns="http://www.topografix.com/GPX/1/1" xmlns:xsi="http://www.w3.org/2001/XMLSchema-instance" xsi:schemaLocation="http://www.topografix.com/GPX/1/1 http://www.topografix.com/GPX/1/1/gpx.xsd" version="1.1" creator="Martin Schneider">
  <wpt lat="25.080893" lon="121.524468">
    <ele>27.0</ele>
    <name>Start</name>
  </wpt>
  <wpt lat="25.09599" lon="121.589175">
    <ele>172.0</ele>
    <name>End</name>
  </wpt>
  <wpt lat="25.0809102" lon="121.5244994">
    <name>1</name>
    <desc>Trailhead</desc>
  </wpt>
  <wpt lat="25.083553" lon="121.528662">
    <name>2</name>
    <desc>Radio tower</desc>
  </wpt>
  <wpt lat="25.0841345" lon="121.5283295">
    <name>3</name>
    <desc>Viewing platform</desc>
  </wpt>
  <wpt lat="25.1020643" lon="121.5730192">
    <name>4</name>
    <desc>Trailhead</desc>
  </wpt>
  <wpt lat="25.1083235" lon="121.58142">
    <name>5</name>
    <desc>Trailhead</desc>
  </wpt>
  <wpt lat="25.109704" lon="121.585903">
    <name>6</name>
    <desc>Fork</desc>
  </wpt>
  <wpt lat="25.084254" lon="121.529303">
    <ele>144.0</ele>
    <name>Summit Jiantanshan</name>
  </wpt>
  <wpt lat="25.108878" lon="121.585332">
    <ele>452.0</ele>
    <name>Summit Daluntoushan</name>
  </wpt>
  <trk>
    <name>8_Daluntoushan</name>
    <trkseg>
      <trkpt lat="25.080893" lon="121.524468">
        <ele>27.0</ele>
      </trkpt>
      <trkpt lat="25.080872" lon="121.524629">
        <ele>30.0</ele>
      </trkpt>
      <trkpt lat="25.080872" lon="121.524803">
        <ele>33.0</ele>
      </trkpt>
      <trkpt lat="25.080854" lon="121.524839">
        <ele>33.0</ele>
      </trkpt>
      <trkpt lat="25.080821" lon="121.524844">
        <ele>34.0</ele>
      </trkpt>
      <trkpt lat="25.080779" lon="121.524907">
        <ele>34.0</ele>
      </trkpt>
      <trkpt lat="25.080668" lon="121.52499">
        <ele>35.0</ele>
      </trkpt>
      <trkpt lat="25.080649" lon="121.525034">
        <ele>36.0</ele>
      </trkpt>
      <trkpt lat="25.080671" lon="121.525062">
        <ele>37.0</ele>
      </trkpt>
      <trkpt lat="25.080733" lon="121.525096">
        <ele>39.0</ele>
      </trkpt>
      <trkpt lat="25.080695" lon="121.525213">
        <ele>43.0</ele>
      </trkpt>
      <trkpt lat="25.080783" lon="121.525274">
        <ele>46.0</ele>
      </trkpt>
      <trkpt lat="25.080838" lon="121.525388">
        <ele>50.0</ele>
      </trkpt>
      <trkpt lat="25.081213" lon="121.525618">
        <ele>50.0</ele>
      </trkpt>
      <trkpt lat="25.081279" lon="121.525687">
        <ele>51.0</ele>
      </trkpt>
      <trkpt lat="25.081356" lon="121.526">
        <ele>61.0</ele>
      </trkpt>
      <trkpt lat="25.081388" lon="121.526041">
        <ele>62.0</ele>
      </trkpt>
      <trkpt lat="25.081489" lon="121.526106">
        <ele>63.0</ele>
      </trkpt>
      <trkpt lat="25.081522" lon="121.526152">
        <ele>64.0</ele>
      </trkpt>
      <trkpt lat="25.081607" lon="121.526294">
        <ele>69.0</ele>
      </trkpt>
      <trkpt lat="25.081632" lon="121.526332">
        <ele>71.0</ele>
      </trkpt>
      <trkpt lat="25.08168" lon="121.526481">
        <ele>77.0</ele>
      </trkpt>
      <trkpt lat="25.081735" lon="121.526566">
        <ele>79.0</ele>
      </trkpt>
      <trkpt lat="25.081753" lon="121.526607">
        <ele>81.0</ele>
      </trkpt>
      <trkpt lat="25.081769" lon="121.526706">
        <ele>84.0</ele>
      </trkpt>
      <trkpt lat="25.081792" lon="121.526756">
        <ele>84.0</ele>
      </trkpt>
      <trkpt lat="25.081854" lon="121.526797">
        <ele>84.0</ele>
      </trkpt>
      <trkpt lat="25.08191" lon="121.526926">
        <ele>85.0</ele>
      </trkpt>
      <trkpt lat="25.082008" lon="121.527025">
        <ele>87.0</ele>
      </trkpt>
      <trkpt lat="25.082129" lon="121.52708">
        <ele>89.0</ele>
      </trkpt>
      <trkpt lat="25.082182" lon="121.527125">
        <ele>90.0</ele>
      </trkpt>
      <trkpt lat="25.082198" lon="121.527157">
        <ele>91.0</ele>
      </trkpt>
      <trkpt lat="25.082204" lon="121.527271">
        <ele>96.0</ele>
      </trkpt>
      <trkpt lat="25.082244" lon="121.527332">
        <ele>99.0</ele>
      </trkpt>
      <trkpt lat="25.082202" lon="121.527348">
        <ele>99.0</ele>
      </trkpt>
      <trkpt lat="25.082172" lon="121.527358">
        <ele>99.0</ele>
      </trkpt>
      <trkpt lat="25.082206" lon="121.52744">
        <ele>103.0</ele>
      </trkpt>
      <trkpt lat="25.082228" lon="121.527455">
        <ele>104.0</ele>
      </trkpt>
      <trkpt lat="25.082226" lon="121.527461">
        <ele>104.0</ele>
      </trkpt>
      <trkpt lat="25.08237" lon="121.527537">
        <ele>109.0</ele>
      </trkpt>
      <trkpt lat="25.082632" lon="121.527626">
        <ele>111.0</ele>
      </trkpt>
      <trkpt lat="25.08285" lon="121.527747">
        <ele>111.0</ele>
      </trkpt>
      <trkpt lat="25.083086" lon="121.52796">
        <ele>116.0</ele>
      </trkpt>
      <trkpt lat="25.083111" lon="121.528021">
        <ele>118.0</ele>
      </trkpt>
      <trkpt lat="25.083091" lon="121.52817">
        <ele>123.0</ele>
      </trkpt>
      <trkpt lat="25.083058" lon="121.528234">
        <ele>124.0</ele>
      </trkpt>
      <trkpt lat="25.083022" lon="121.528253">
        <ele>123.0</ele>
      </trkpt>
      <trkpt lat="25.082979" lon="121.52828">
        <ele>123.0</ele>
      </trkpt>
      <trkpt lat="25.083037" lon="121.528392">
        <ele>125.0</ele>
      </trkpt>
      <trkpt lat="25.083196" lon="121.528602">
        <ele>128.0</ele>
      </trkpt>
      <trkpt lat="25.083392" lon="121.528747">
        <ele>131.0</ele>
      </trkpt>
      <trkpt lat="25.083515" lon="121.528805">
        <ele>132.0</ele>
      </trkpt>
      <trkpt lat="25.083601" lon="121.528869">
        <ele>133.0</ele>
      </trkpt>
      <trkpt lat="25.083655" lon="121.528867">
        <ele>133.0</ele>
      </trkpt>
      <trkpt lat="25.083649" lon="121.528829">
        <ele>133.0</ele>
      </trkpt>
      <trkpt lat="25.083665" lon="121.528786">
        <ele>133.0</ele>
      </trkpt>
      <trkpt lat="25.083876" lon="121.528521">
        <ele>131.0</ele>
      </trkpt>
      <trkpt lat="25.08385" lon="121.528428">
        <ele>130.0</ele>
      </trkpt>
      <trkpt lat="25.083863" lon="121.528418">
        <ele>129.0</ele>
      </trkpt>
      <trkpt lat="25.084001" lon="121.528495">
        <ele>130.0</ele>
      </trkpt>
      <trkpt lat="25.084102" lon="121.528634">
        <ele>133.0</ele>
      </trkpt>
      <trkpt lat="25.084178" lon="121.528648">
        <ele>133.0</ele>
      </trkpt>
      <trkpt lat="25.084263" lon="121.528714">
        <ele>132.0</ele>
      </trkpt>
      <trkpt lat="25.08431" lon="121.528751">
        <ele>132.0</ele>
      </trkpt>
      <trkpt lat="25.084339" lon="121.528782">
        <ele>132.0</ele>
      </trkpt>
      <trkpt lat="25.084433" lon="121.529">
        <ele>136.0</ele>
      </trkpt>
      <trkpt lat="25.084372" lon="121.529132">
        <ele>141.0</ele>
      </trkpt>
      <trkpt lat="25.084279" lon="121.529228">
        <ele>144.0</ele>
      </trkpt>
      <trkpt lat="25.084269" lon="121.5293">
        <ele>144.0</ele>
      </trkpt>
      <trkpt lat="25.084254" lon="121.529303">
        <ele>144.0</ele>
      </trkpt>
      <trkpt lat="25.084252" lon="121.529366">
        <ele>144.0</ele>
      </trkpt>
      <trkpt lat="25.084321" lon="121.529549">
        <ele>141.0</ele>
      </trkpt>
      <trkpt lat="25.084379" lon="121.52963">
        <ele>140.0</ele>
      </trkpt>
      <trkpt lat="25.084425" lon="121.529735">
        <ele>138.0</ele>
      </trkpt>
      <trkpt lat="25.084448" lon="121.529856">
        <ele>137.0</ele>
      </trkpt>
      <trkpt lat="25.084476" lon="121.529874">
        <ele>137.0</ele>
      </trkpt>
      <trkpt lat="25.084485" lon="121.529901">
        <ele>136.0</ele>
      </trkpt>
      <trkpt lat="25.084614" lon="121.53005">
        <ele>133.0</ele>
      </trkpt>
      <trkpt lat="25.08476" lon="121.530269">
        <ele>129.0</ele>
      </trkpt>
      <trkpt lat="25.084764" lon="121.530328">
        <ele>128.0</ele>
      </trkpt>
      <trkpt lat="25.084767" lon="121.530328">
        <ele>128.0</ele>
      </trkpt>
      <trkpt lat="25.084824" lon="121.530339">
        <ele>128.0</ele>
      </trkpt>
      <trkpt lat="25.084948" lon="121.530408">
        <ele>126.0</ele>
      </trkpt>
      <trkpt lat="25.085055" lon="121.530419">
        <ele>124.0</ele>
      </trkpt>
      <trkpt lat="25.085061" lon="121.530421">
        <ele>124.0</ele>
      </trkpt>
      <trkpt lat="25.085082" lon="121.530478">
        <ele>123.0</ele>
      </trkpt>
      <trkpt lat="25.085039" lon="121.530588">
        <ele>124.0</ele>
      </trkpt>
      <trkpt lat="25.085045" lon="121.530754">
        <ele>123.0</ele>
      </trkpt>
      <trkpt lat="25.085028" lon="121.530885">
        <ele>122.0</ele>
      </trkpt>
      <trkpt lat="25.085029" lon="121.530946">
        <ele>121.0</ele>
      </trkpt>
      <trkpt lat="25.085092" lon="121.531066">
        <ele>119.0</ele>
      </trkpt>
      <trkpt lat="25.08516" lon="121.531149">
        <ele>118.0</ele>
      </trkpt>
      <trkpt lat="25.085489" lon="121.531347">
        <ele>117.0</ele>
      </trkpt>
      <trkpt lat="25.085602" lon="121.531392">
        <ele>118.0</ele>
      </trkpt>
      <trkpt lat="25.085938" lon="121.531465">
        <ele>120.0</ele>
      </trkpt>
      <trkpt lat="25.086109" lon="121.531621">
        <ele>123.0</ele>
      </trkpt>
      <trkpt lat="25.086422" lon="121.531816">
        <ele>126.0</ele>
      </trkpt>
      <trkpt lat="25.086536" lon="121.531947">
        <ele>128.0</ele>
      </trkpt>
      <trkpt lat="25.086585" lon="121.532035">
        <ele>129.0</ele>
      </trkpt>
      <trkpt lat="25.086772" lon="121.53229">
        <ele>133.0</ele>
      </trkpt>
      <trkpt lat="25.0869" lon="121.53253">
        <ele>137.0</ele>
      </trkpt>
      <trkpt lat="25.086954" lon="121.532591">
        <ele>138.0</ele>
      </trkpt>
      <trkpt lat="25.087054" lon="121.53264">
        <ele>139.0</ele>
      </trkpt>
      <trkpt lat="25.087499" lon="121.532753">
        <ele>147.0</ele>
      </trkpt>
      <trkpt lat="25.087625" lon="121.532847">
        <ele>146.0</ele>
      </trkpt>
      <trkpt lat="25.087661" lon="121.532932">
        <ele>147.0</ele>
      </trkpt>
      <trkpt lat="25.087681" lon="121.532921">
        <ele>147.0</ele>
      </trkpt>
      <trkpt lat="25.087718" lon="121.532993">
        <ele>147.0</ele>
      </trkpt>
      <trkpt lat="25.08774" lon="121.533036">
        <ele>148.0</ele>
      </trkpt>
      <trkpt lat="25.087804" lon="121.533198">
        <ele>149.0</ele>
      </trkpt>
      <trkpt lat="25.087817" lon="121.533262">
        <ele>150.0</ele>
      </trkpt>
      <trkpt lat="25.087849" lon="121.533445">
        <ele>151.0</ele>
      </trkpt>
      <trkpt lat="25.087895" lon="121.533531">
        <ele>151.0</ele>
      </trkpt>
      <trkpt lat="25.087954" lon="121.533592">
        <ele>152.0</ele>
      </trkpt>
      <trkpt lat="25.087954" lon="121.533628">
        <ele>152.0</ele>
      </trkpt>
      <trkpt lat="25.088037" lon="121.533789">
        <ele>153.0</ele>
      </trkpt>
      <trkpt lat="25.088032" lon="121.533832">
        <ele>153.0</ele>
      </trkpt>
      <trkpt lat="25.088048" lon="121.533895">
        <ele>154.0</ele>
      </trkpt>
      <trkpt lat="25.088089" lon="121.533973">
        <ele>155.0</ele>
      </trkpt>
      <trkpt lat="25.088382" lon="121.534223">
        <ele>156.0</ele>
      </trkpt>
      <trkpt lat="25.088564" lon="121.534336">
        <ele>150.0</ele>
      </trkpt>
      <trkpt lat="25.088836" lon="121.534639">
        <ele>146.0</ele>
      </trkpt>
      <trkpt lat="25.089008" lon="121.534769">
        <ele>149.0</ele>
      </trkpt>
      <trkpt lat="25.089042" lon="121.534798">
        <ele>150.0</ele>
      </trkpt>
      <trkpt lat="25.089279" lon="121.535029">
        <ele>156.0</ele>
      </trkpt>
      <trkpt lat="25.089519" lon="121.535307">
        <ele>156.0</ele>
      </trkpt>
      <trkpt lat="25.089571" lon="121.535406">
        <ele>157.0</ele>
      </trkpt>
      <trkpt lat="25.090124" lon="121.535914">
        <ele>167.0</ele>
      </trkpt>
      <trkpt lat="25.090251" lon="121.536111">
        <ele>166.0</ele>
      </trkpt>
      <trkpt lat="25.090302" lon="121.536237">
        <ele>166.0</ele>
      </trkpt>
      <trkpt lat="25.09045" lon="121.536517">
        <ele>169.0</ele>
      </trkpt>
      <trkpt lat="25.090506" lon="121.536611">
        <ele>171.0</ele>
      </trkpt>
      <trkpt lat="25.090624" lon="121.536751">
        <ele>175.0</ele>
      </trkpt>
      <trkpt lat="25.090719" lon="121.536925">
        <ele>178.0</ele>
      </trkpt>
      <trkpt lat="25.090794" lon="121.537113">
        <ele>182.0</ele>
      </trkpt>
      <trkpt lat="25.090784" lon="121.537415">
        <ele>185.0</ele>
      </trkpt>
      <trkpt lat="25.090759" lon="121.537553">
        <ele>185.0</ele>
      </trkpt>
      <trkpt lat="25.090758" lon="121.537628">
        <ele>184.0</ele>
      </trkpt>
      <trkpt lat="25.09078" lon="121.537728">
        <ele>184.0</ele>
      </trkpt>
      <trkpt lat="25.090796" lon="121.537781">
        <ele>185.0</ele>
      </trkpt>
      <trkpt lat="25.090872" lon="121.538062">
        <ele>185.0</ele>
      </trkpt>
      <trkpt lat="25.090878" lon="121.538275">
        <ele>184.0</ele>
      </trkpt>
      <trkpt lat="25.090907" lon="121.538357">
        <ele>184.0</ele>
      </trkpt>
      <trkpt lat="25.090906" lon="121.538496">
        <ele>182.0</ele>
      </trkpt>
      <trkpt lat="25.090936" lon="121.538743">
        <ele>179.0</ele>
      </trkpt>
      <trkpt lat="25.091052" lon="121.538937">
        <ele>179.0</ele>
      </trkpt>
      <trkpt lat="25.091005" lon="121.53922">
        <ele>175.0</ele>
      </trkpt>
      <trkpt lat="25.091009" lon="121.539264">
        <ele>174.0</ele>
      </trkpt>
      <trkpt lat="25.091068" lon="121.539418">
        <ele>173.0</ele>
      </trkpt>
      <trkpt lat="25.091234" lon="121.539625">
        <ele>175.0</ele>
      </trkpt>
      <trkpt lat="25.091289" lon="121.53978">
        <ele>175.0</ele>
      </trkpt>
      <trkpt lat="25.091324" lon="121.540023">
        <ele>173.0</ele>
      </trkpt>
      <trkpt lat="25.091405" lon="121.540313">
        <ele>173.0</ele>
      </trkpt>
      <trkpt lat="25.091452" lon="121.540428">
        <ele>174.0</ele>
      </trkpt>
      <trkpt lat="25.091497" lon="121.540475">
        <ele>175.0</ele>
      </trkpt>
      <trkpt lat="25.091509" lon="121.540525">
        <ele>175.0</ele>
      </trkpt>
      <trkpt lat="25.09158" lon="121.540572">
        <ele>177.0</ele>
      </trkpt>
      <trkpt lat="25.091643" lon="121.540639">
        <ele>178.0</ele>
      </trkpt>
      <trkpt lat="25.091696" lon="121.540579">
        <ele>180.0</ele>
      </trkpt>
      <trkpt lat="25.091825" lon="121.54078">
        <ele>177.0</ele>
      </trkpt>
      <trkpt lat="25.091943" lon="121.541148">
        <ele>169.0</ele>
      </trkpt>
      <trkpt lat="25.092113" lon="121.541418">
        <ele>163.0</ele>
      </trkpt>
      <trkpt lat="25.092178" lon="121.541494">
        <ele>161.0</ele>
      </trkpt>
      <trkpt lat="25.092268" lon="121.54155">
        <ele>160.0</ele>
      </trkpt>
      <trkpt lat="25.092391" lon="121.541571">
        <ele>160.0</ele>
      </trkpt>
      <trkpt lat="25.092577" lon="121.541554">
        <ele>156.0</ele>
      </trkpt>
      <trkpt lat="25.092666" lon="121.5415">
        <ele>153.0</ele>
      </trkpt>
      <trkpt lat="25.092704" lon="121.54145">
        <ele>152.0</ele>
      </trkpt>
      <trkpt lat="25.092721" lon="121.541362">
        <ele>153.0</ele>
      </trkpt>
      <trkpt lat="25.092698" lon="121.541171">
        <ele>158.0</ele>
      </trkpt>
      <trkpt lat="25.092713" lon="121.541148">
        <ele>158.0</ele>
      </trkpt>
      <trkpt lat="25.092741" lon="121.541153">
        <ele>156.0</ele>
      </trkpt>
      <trkpt lat="25.092778" lon="121.54126">
        <ele>152.0</ele>
      </trkpt>
      <trkpt lat="25.092768" lon="121.541383">
        <ele>150.0</ele>
      </trkpt>
      <trkpt lat="25.09274" lon="121.541486">
        <ele>149.0</ele>
      </trkpt>
      <trkpt lat="25.092697" lon="121.541571">
        <ele>150.0</ele>
      </trkpt>
      <trkpt lat="25.092577" lon="121.541709">
        <ele>153.0</ele>
      </trkpt>
      <trkpt lat="25.092266" lon="121.541941">
        <ele>149.0</ele>
      </trkpt>
      <trkpt lat="25.091977" lon="121.542059">
        <ele>148.0</ele>
      </trkpt>
      <trkpt lat="25.091904" lon="121.542124">
        <ele>147.0</ele>
      </trkpt>
      <trkpt lat="25.091833" lon="121.542217">
        <ele>146.0</ele>
      </trkpt>
      <trkpt lat="25.091747" lon="121.542388">
        <ele>144.0</ele>
      </trkpt>
      <trkpt lat="25.091687" lon="121.542584">
        <ele>142.0</ele>
      </trkpt>
      <trkpt lat="25.091655" lon="121.542753">
        <ele>142.0</ele>
      </trkpt>
      <trkpt lat="25.091647" lon="121.542976">
        <ele>141.0</ele>
      </trkpt>
      <trkpt lat="25.091701" lon="121.543351">
        <ele>139.0</ele>
      </trkpt>
      <trkpt lat="25.091706" lon="121.543762">
        <ele>137.0</ele>
      </trkpt>
      <trkpt lat="25.09169" lon="121.543947">
        <ele>137.0</ele>
      </trkpt>
      <trkpt lat="25.091633" lon="121.544093">
        <ele>137.0</ele>
      </trkpt>
      <trkpt lat="25.091546" lon="121.544224">
        <ele>137.0</ele>
      </trkpt>
      <trkpt lat="25.091492" lon="121.54428">
        <ele>136.0</ele>
      </trkpt>
      <trkpt lat="25.091014" lon="121.544603">
        <ele>140.0</ele>
      </trkpt>
      <trkpt lat="25.090818" lon="121.544687">
        <ele>143.0</ele>
      </trkpt>
      <trkpt lat="25.09052" lon="121.544725">
        <ele>145.0</ele>
      </trkpt>
      <trkpt lat="25.090389" lon="121.544821">
        <ele>147.0</ele>
      </trkpt>
      <trkpt lat="25.090317" lon="121.544966">
        <ele>150.0</ele>
      </trkpt>
      <trkpt lat="25.090279" lon="121.545107">
        <ele>151.0</ele>
      </trkpt>
      <trkpt lat="25.090279" lon="121.545188">
        <ele>150.0</ele>
      </trkpt>
      <trkpt lat="25.090372" lon="121.545766">
        <ele>149.0</ele>
      </trkpt>
      <trkpt lat="25.090455" lon="121.546011">
        <ele>146.0</ele>
      </trkpt>
      <trkpt lat="25.090601" lon="121.546336">
        <ele>142.0</ele>
      </trkpt>
      <trkpt lat="25.090628" lon="121.546494">
        <ele>141.0</ele>
      </trkpt>
      <trkpt lat="25.090628" lon="121.546966">
        <ele>142.0</ele>
      </trkpt>
      <trkpt lat="25.090664" lon="121.547248">
        <ele>144.0</ele>
      </trkpt>
      <trkpt lat="25.090686" lon="121.547328">
        <ele>145.0</ele>
      </trkpt>
      <trkpt lat="25.090674" lon="121.547388">
        <ele>146.0</ele>
      </trkpt>
      <trkpt lat="25.090633" lon="121.547425">
        <ele>146.0</ele>
      </trkpt>
      <trkpt lat="25.090547" lon="121.547432">
        <ele>145.0</ele>
      </trkpt>
      <trkpt lat="25.090405" lon="121.547485">
        <ele>144.0</ele>
      </trkpt>
      <trkpt lat="25.090326" lon="121.547548">
        <ele>145.0</ele>
      </trkpt>
      <trkpt lat="25.090337" lon="121.547615">
        <ele>146.0</ele>
      </trkpt>
      <trkpt lat="25.090246" lon="121.547879">
        <ele>149.0</ele>
      </trkpt>
      <trkpt lat="25.090085" lon="121.548204">
        <ele>150.0</ele>
      </trkpt>
      <trkpt lat="25.09003" lon="121.548405">
        <ele>150.0</ele>
      </trkpt>
      <trkpt lat="25.09001" lon="121.548692">
        <ele>151.0</ele>
      </trkpt>
      <trkpt lat="25.090062" lon="121.54897">
        <ele>154.0</ele>
      </trkpt>
      <trkpt lat="25.090054" lon="121.549275">
        <ele>154.0</ele>
      </trkpt>
      <trkpt lat="25.090005" lon="121.549572">
        <ele>151.0</ele>
      </trkpt>
      <trkpt lat="25.089941" lon="121.549832">
        <ele>148.0</ele>
      </trkpt>
      <trkpt lat="25.089964" lon="121.549884">
        <ele>149.0</ele>
      </trkpt>
      <trkpt lat="25.090037" lon="121.549935">
        <ele>150.0</ele>
      </trkpt>
      <trkpt lat="25.09012" lon="121.549936">
        <ele>152.0</ele>
      </trkpt>
      <trkpt lat="25.090201" lon="121.549883">
        <ele>153.0</ele>
      </trkpt>
      <trkpt lat="25.090224" lon="121.549783">
        <ele>155.0</ele>
      </trkpt>
      <trkpt lat="25.090351" lon="121.549765">
        <ele>157.0</ele>
      </trkpt>
      <trkpt lat="25.090475" lon="121.549769">
        <ele>160.0</ele>
      </trkpt>
      <trkpt lat="25.090585" lon="121.549693">
        <ele>163.0</ele>
      </trkpt>
      <trkpt lat="25.090638" lon="121.549628">
        <ele>165.0</ele>
      </trkpt>
      <trkpt lat="25.090749" lon="121.549598">
        <ele>167.0</ele>
      </trkpt>
      <trkpt lat="25.090834" lon="121.549607">
        <ele>169.0</ele>
      </trkpt>
      <trkpt lat="25.090905" lon="121.54959">
        <ele>169.0</ele>
      </trkpt>
      <trkpt lat="25.090937" lon="121.549555">
        <ele>170.0</ele>
      </trkpt>
      <trkpt lat="25.090995" lon="121.549534">
        <ele>170.0</ele>
      </trkpt>
      <trkpt lat="25.091172" lon="121.549599">
        <ele>169.0</ele>
      </trkpt>
      <trkpt lat="25.091222" lon="121.549696">
        <ele>169.0</ele>
      </trkpt>
      <trkpt lat="25.091435" lon="121.549797">
        <ele>170.0</ele>
      </trkpt>
      <trkpt lat="25.091505" lon="121.549808">
        <ele>171.0</ele>
      </trkpt>
      <trkpt lat="25.091585" lon="121.549867">
        <ele>172.0</ele>
      </trkpt>
      <trkpt lat="25.09165" lon="121.55002">
        <ele>174.0</ele>
      </trkpt>
      <trkpt lat="25.091708" lon="121.550095">
        <ele>171.0</ele>
      </trkpt>
      <trkpt lat="25.091728" lon="121.5501">
        <ele>170.0</ele>
      </trkpt>
      <trkpt lat="25.091783" lon="121.550194">
        <ele>166.0</ele>
      </trkpt>
      <trkpt lat="25.091812" lon="121.550312">
        <ele>163.0</ele>
      </trkpt>
      <trkpt lat="25.091857" lon="121.550369">
        <ele>161.0</ele>
      </trkpt>
      <trkpt lat="25.091848" lon="121.550474">
        <ele>161.0</ele>
      </trkpt>
      <trkpt lat="25.091823" lon="121.550543">
        <ele>161.0</ele>
      </trkpt>
      <trkpt lat="25.091788" lon="121.550535">
        <ele>163.0</ele>
      </trkpt>
      <trkpt lat="25.091754" lon="121.55055">
        <ele>164.0</ele>
      </trkpt>
      <trkpt lat="25.091709" lon="121.550612">
        <ele>166.0</ele>
      </trkpt>
      <trkpt lat="25.091735" lon="121.550673">
        <ele>164.0</ele>
      </trkpt>
      <trkpt lat="25.091787" lon="121.550739">
        <ele>161.0</ele>
      </trkpt>
      <trkpt lat="25.091789" lon="121.550821">
        <ele>160.0</ele>
      </trkpt>
      <trkpt lat="25.091768" lon="121.550845">
        <ele>161.0</ele>
      </trkpt>
      <trkpt lat="25.091774" lon="121.55108">
        <ele>163.0</ele>
      </trkpt>
      <trkpt lat="25.091741" lon="121.551354">
        <ele>167.0</ele>
      </trkpt>
      <trkpt lat="25.091772" lon="121.551424">
        <ele>167.0</ele>
      </trkpt>
      <trkpt lat="25.091796" lon="121.551699">
        <ele>169.0</ele>
      </trkpt>
      <trkpt lat="25.091818" lon="121.551773">
        <ele>169.0</ele>
      </trkpt>
      <trkpt lat="25.091887" lon="121.551899">
        <ele>168.0</ele>
      </trkpt>
      <trkpt lat="25.091973" lon="121.551943">
        <ele>168.0</ele>
      </trkpt>
      <trkpt lat="25.092351" lon="121.552203">
        <ele>167.0</ele>
      </trkpt>
      <trkpt lat="25.092426" lon="121.552288">
        <ele>168.0</ele>
      </trkpt>
      <trkpt lat="25.092408" lon="121.552321">
        <ele>169.0</ele>
      </trkpt>
      <trkpt lat="25.092408" lon="121.552399">
        <ele>170.0</ele>
      </trkpt>
      <trkpt lat="25.092357" lon="121.552495">
        <ele>170.0</ele>
      </trkpt>
      <trkpt lat="25.092329" lon="121.552635">
        <ele>168.0</ele>
      </trkpt>
      <trkpt lat="25.092317" lon="121.552744">
        <ele>166.0</ele>
      </trkpt>
      <trkpt lat="25.092367" lon="121.552893">
        <ele>163.0</ele>
      </trkpt>
      <trkpt lat="25.092404" lon="121.553015">
        <ele>161.0</ele>
      </trkpt>
      <trkpt lat="25.092388" lon="121.553132">
        <ele>159.0</ele>
      </trkpt>
      <trkpt lat="25.092468" lon="121.55331">
        <ele>156.0</ele>
      </trkpt>
      <trkpt lat="25.092506" lon="121.553302">
        <ele>156.0</ele>
      </trkpt>
      <trkpt lat="25.092521" lon="121.553315">
        <ele>156.0</ele>
      </trkpt>
      <trkpt lat="25.092587" lon="121.553425">
        <ele>154.0</ele>
      </trkpt>
      <trkpt lat="25.092595" lon="121.55347">
        <ele>155.0</ele>
      </trkpt>
      <trkpt lat="25.092577" lon="121.553572">
        <ele>156.0</ele>
      </trkpt>
      <trkpt lat="25.093229" lon="121.554082">
        <ele>151.0</ele>
      </trkpt>
      <trkpt lat="25.093566" lon="121.554208">
        <ele>148.0</ele>
      </trkpt>
      <trkpt lat="25.09374" lon="121.554315">
        <ele>146.0</ele>
      </trkpt>
      <trkpt lat="25.093835" lon="121.554387">
        <ele>146.0</ele>
      </trkpt>
      <trkpt lat="25.09403" lon="121.55465">
        <ele>146.0</ele>
      </trkpt>
      <trkpt lat="25.094144" lon="121.554842">
        <ele>147.0</ele>
      </trkpt>
      <trkpt lat="25.094189" lon="121.55516">
        <ele>150.0</ele>
      </trkpt>
      <trkpt lat="25.094264" lon="121.555549">
        <ele>154.0</ele>
      </trkpt>
      <trkpt lat="25.094364" lon="121.555652">
        <ele>156.0</ele>
      </trkpt>
      <trkpt lat="25.094432" lon="121.555667">
        <ele>158.0</ele>
      </trkpt>
      <trkpt lat="25.09454" lon="121.555623">
        <ele>159.0</ele>
      </trkpt>
      <trkpt lat="25.094645" lon="121.555543">
        <ele>159.0</ele>
      </trkpt>
      <trkpt lat="25.094891" lon="121.555297">
        <ele>156.0</ele>
      </trkpt>
      <trkpt lat="25.095014" lon="121.555213">
        <ele>154.0</ele>
      </trkpt>
      <trkpt lat="25.095281" lon="121.555087">
        <ele>154.0</ele>
      </trkpt>
      <trkpt lat="25.095333" lon="121.555029">
        <ele>153.0</ele>
      </trkpt>
      <trkpt lat="25.095359" lon="121.554906">
        <ele>151.0</ele>
      </trkpt>
      <trkpt lat="25.095311" lon="121.554654">
        <ele>145.0</ele>
      </trkpt>
      <trkpt lat="25.095322" lon="121.554506">
        <ele>142.0</ele>
      </trkpt>
      <trkpt lat="25.095374" lon="121.554375">
        <ele>140.0</ele>
      </trkpt>
      <trkpt lat="25.095717" lon="121.553958">
        <ele>134.0</ele>
      </trkpt>
      <trkpt lat="25.095835" lon="121.553848">
        <ele>131.0</ele>
      </trkpt>
      <trkpt lat="25.09598" lon="121.553768">
        <ele>127.0</ele>
      </trkpt>
      <trkpt lat="25.096104" lon="121.553729">
        <ele>124.0</ele>
      </trkpt>
      <trkpt lat="25.09618" lon="121.553728">
        <ele>123.0</ele>
      </trkpt>
      <trkpt lat="25.09625" lon="121.553754">
        <ele>123.0</ele>
      </trkpt>
      <trkpt lat="25.09667" lon="121.554054">
        <ele>127.0</ele>
      </trkpt>
      <trkpt lat="25.096741" lon="121.554182">
        <ele>131.0</ele>
      </trkpt>
      <trkpt lat="25.096878" lon="121.554534">
        <ele>139.0</ele>
      </trkpt>
      <trkpt lat="25.096948" lon="121.554618">
        <ele>141.0</ele>
      </trkpt>
      <trkpt lat="25.096944" lon="121.554676">
        <ele>142.0</ele>
      </trkpt>
      <trkpt lat="25.096966" lon="121.55473">
        <ele>144.0</ele>
      </trkpt>
      <trkpt lat="25.096973" lon="121.554961">
        <ele>150.0</ele>
      </trkpt>
      <trkpt lat="25.096993" lon="121.555022">
        <ele>151.0</ele>
      </trkpt>
      <trkpt lat="25.097047" lon="121.555106">
        <ele>153.0</ele>
      </trkpt>
      <trkpt lat="25.097116" lon="121.555316">
        <ele>157.0</ele>
      </trkpt>
      <trkpt lat="25.097158" lon="121.55536">
        <ele>157.0</ele>
      </trkpt>
      <trkpt lat="25.097231" lon="121.555396">
        <ele>157.0</ele>
      </trkpt>
      <trkpt lat="25.097335" lon="121.555568">
        <ele>159.0</ele>
      </trkpt>
      <trkpt lat="25.097445" lon="121.55564">
        <ele>158.0</ele>
      </trkpt>
      <trkpt lat="25.097489" lon="121.555724">
        <ele>159.0</ele>
      </trkpt>
      <trkpt lat="25.09755" lon="121.555773">
        <ele>159.0</ele>
      </trkpt>
      <trkpt lat="25.097568" lon="121.555956">
        <ele>162.0</ele>
      </trkpt>
      <trkpt lat="25.097503" lon="121.556218">
        <ele>167.0</ele>
      </trkpt>
      <trkpt lat="25.097485" lon="121.556563">
        <ele>174.0</ele>
      </trkpt>
      <trkpt lat="25.097528" lon="121.556696">
        <ele>175.0</ele>
      </trkpt>
      <trkpt lat="25.097558" lon="121.556919">
        <ele>179.0</ele>
      </trkpt>
      <trkpt lat="25.097597" lon="121.556981">
        <ele>180.0</ele>
      </trkpt>
      <trkpt lat="25.097619" lon="121.557192">
        <ele>184.0</ele>
      </trkpt>
      <trkpt lat="25.097675" lon="121.557349">
        <ele>186.0</ele>
      </trkpt>
      <trkpt lat="25.097783" lon="121.557413">
        <ele>185.0</ele>
      </trkpt>
      <trkpt lat="25.097813" lon="121.557451">
        <ele>186.0</ele>
      </trkpt>
      <trkpt lat="25.097895" lon="121.55783">
        <ele>190.0</ele>
      </trkpt>
      <trkpt lat="25.097988" lon="121.558005">
        <ele>192.0</ele>
      </trkpt>
      <trkpt lat="25.098042" lon="121.558073">
        <ele>192.0</ele>
      </trkpt>
      <trkpt lat="25.098059" lon="121.55816">
        <ele>194.0</ele>
      </trkpt>
      <trkpt lat="25.098105" lon="121.558241">
        <ele>195.0</ele>
      </trkpt>
      <trkpt lat="25.098148" lon="121.558279">
        <ele>196.0</ele>
      </trkpt>
      <trkpt lat="25.098202" lon="121.55837">
        <ele>197.0</ele>
      </trkpt>
      <trkpt lat="25.098191" lon="121.558433">
        <ele>197.0</ele>
      </trkpt>
      <trkpt lat="25.09816" lon="121.558508">
        <ele>197.0</ele>
      </trkpt>
      <trkpt lat="25.098129" lon="121.558777">
        <ele>197.0</ele>
      </trkpt>
      <trkpt lat="25.098186" lon="121.559118">
        <ele>197.0</ele>
      </trkpt>
      <trkpt lat="25.098202" lon="121.559433">
        <ele>197.0</ele>
      </trkpt>
      <trkpt lat="25.098258" lon="121.559836">
        <ele>197.0</ele>
      </trkpt>
      <trkpt lat="25.098176" lon="121.56017">
        <ele>193.0</ele>
      </trkpt>
      <trkpt lat="25.098166" lon="121.560564">
        <ele>191.0</ele>
      </trkpt>
      <trkpt lat="25.098202" lon="121.560799">
        <ele>189.0</ele>
      </trkpt>
      <trkpt lat="25.098183" lon="121.560879">
        <ele>189.0</ele>
      </trkpt>
      <trkpt lat="25.098135" lon="121.560957">
        <ele>188.0</ele>
      </trkpt>
      <trkpt lat="25.098118" lon="121.561118">
        <ele>188.0</ele>
      </trkpt>
      <trkpt lat="25.098105" lon="121.561136">
        <ele>188.0</ele>
      </trkpt>
      <trkpt lat="25.098056" lon="121.561307">
        <ele>188.0</ele>
      </trkpt>
      <trkpt lat="25.09802" lon="121.561377">
        <ele>188.0</ele>
      </trkpt>
      <trkpt lat="25.098019" lon="121.561538">
        <ele>188.0</ele>
      </trkpt>
      <trkpt lat="25.098038" lon="121.561651">
        <ele>187.0</ele>
      </trkpt>
      <trkpt lat="25.098018" lon="121.561738">
        <ele>189.0</ele>
      </trkpt>
      <trkpt lat="25.098018" lon="121.562216">
        <ele>196.0</ele>
      </trkpt>
      <trkpt lat="25.098056" lon="121.56236">
        <ele>199.0</ele>
      </trkpt>
      <trkpt lat="25.098149" lon="121.562462">
        <ele>202.0</ele>
      </trkpt>
      <trkpt lat="25.098194" lon="121.562584">
        <ele>205.0</ele>
      </trkpt>
      <trkpt lat="25.098303" lon="121.562774">
        <ele>212.0</ele>
      </trkpt>
      <trkpt lat="25.098484" lon="121.562972">
        <ele>216.0</ele>
      </trkpt>
      <trkpt lat="25.098491" lon="121.563085">
        <ele>219.0</ele>
      </trkpt>
      <trkpt lat="25.098474" lon="121.563197">
        <ele>223.0</ele>
      </trkpt>
      <trkpt lat="25.098474" lon="121.563535">
        <ele>230.0</ele>
      </trkpt>
      <trkpt lat="25.098528" lon="121.56379">
        <ele>233.0</ele>
      </trkpt>
      <trkpt lat="25.098531" lon="121.564356">
        <ele>238.0</ele>
      </trkpt>
      <trkpt lat="25.098625" lon="121.564447">
        <ele>237.0</ele>
      </trkpt>
      <trkpt lat="25.098736" lon="121.564527">
        <ele>236.0</ele>
      </trkpt>
      <trkpt lat="25.098837" lon="121.564757">
        <ele>237.0</ele>
      </trkpt>
      <trkpt lat="25.098911" lon="121.564828">
        <ele>237.0</ele>
      </trkpt>
      <trkpt lat="25.09892" lon="121.564979">
        <ele>239.0</ele>
      </trkpt>
      <trkpt lat="25.098964" lon="121.565103">
        <ele>239.0</ele>
      </trkpt>
      <trkpt lat="25.099016" lon="121.565328">
        <ele>241.0</ele>
      </trkpt>
      <trkpt lat="25.099119" lon="121.565505">
        <ele>243.0</ele>
      </trkpt>
      <trkpt lat="25.099225" lon="121.565638">
        <ele>243.0</ele>
      </trkpt>
      <trkpt lat="25.099136" lon="121.565738">
        <ele>244.0</ele>
      </trkpt>
      <trkpt lat="25.099046" lon="121.56578">
        <ele>243.0</ele>
      </trkpt>
      <trkpt lat="25.099056" lon="121.566072">
        <ele>248.0</ele>
      </trkpt>
      <trkpt lat="25.099022" lon="121.566225">
        <ele>251.0</ele>
      </trkpt>
      <trkpt lat="25.099021" lon="121.566306">
        <ele>252.0</ele>
      </trkpt>
      <trkpt lat="25.099114" lon="121.566445">
        <ele>257.0</ele>
      </trkpt>
      <trkpt lat="25.099144" lon="121.566619">
        <ele>261.0</ele>
      </trkpt>
      <trkpt lat="25.099128" lon="121.566729">
        <ele>263.0</ele>
      </trkpt>
      <trkpt lat="25.099088" lon="121.566808">
        <ele>262.0</ele>
      </trkpt>
      <trkpt lat="25.099046" lon="121.56699">
        <ele>262.0</ele>
      </trkpt>
      <trkpt lat="25.099103" lon="121.567118">
        <ele>265.0</ele>
      </trkpt>
      <trkpt lat="25.099068" lon="121.56716">
        <ele>264.0</ele>
      </trkpt>
      <trkpt lat="25.098883" lon="121.567275">
        <ele>261.0</ele>
      </trkpt>
      <trkpt lat="25.098695" lon="121.567367">
        <ele>257.0</ele>
      </trkpt>
      <trkpt lat="25.098625" lon="121.567461">
        <ele>256.0</ele>
      </trkpt>
      <trkpt lat="25.098592" lon="121.567547">
        <ele>254.0</ele>
      </trkpt>
      <trkpt lat="25.098556" lon="121.567751">
        <ele>250.0</ele>
      </trkpt>
      <trkpt lat="25.098478" lon="121.567802">
        <ele>247.0</ele>
      </trkpt>
      <trkpt lat="25.098556" lon="121.567751">
        <ele>250.0</ele>
      </trkpt>
      <trkpt lat="25.098675" lon="121.567712">
        <ele>253.0</ele>
      </trkpt>
      <trkpt lat="25.098724" lon="121.567666">
        <ele>255.0</ele>
      </trkpt>
      <trkpt lat="25.098769" lon="121.567654">
        <ele>256.0</ele>
      </trkpt>
      <trkpt lat="25.09896" lon="121.567689">
        <ele>260.0</ele>
      </trkpt>
      <trkpt lat="25.099075" lon="121.567754">
        <ele>261.0</ele>
      </trkpt>
      <trkpt lat="25.099115" lon="121.567847">
        <ele>260.0</ele>
      </trkpt>
      <trkpt lat="25.099157" lon="121.5679">
        <ele>260.0</ele>
      </trkpt>
      <trkpt lat="25.099189" lon="121.567916">
        <ele>260.0</ele>
      </trkpt>
      <trkpt lat="25.099238" lon="121.567988">
        <ele>260.0</ele>
      </trkpt>
      <trkpt lat="25.099266" lon="121.568132">
        <ele>258.0</ele>
      </trkpt>
      <trkpt lat="25.099267" lon="121.56824">
        <ele>255.0</ele>
      </trkpt>
      <trkpt lat="25.099358" lon="121.568398">
        <ele>256.0</ele>
      </trkpt>
      <trkpt lat="25.099398" lon="121.568429">
        <ele>257.0</ele>
      </trkpt>
      <trkpt lat="25.099446" lon="121.568587">
        <ele>258.0</ele>
      </trkpt>
      <trkpt lat="25.099441" lon="121.568656">
        <ele>257.0</ele>
      </trkpt>
      <trkpt lat="25.099404" lon="121.568754">
        <ele>255.0</ele>
      </trkpt>
      <trkpt lat="25.099408" lon="121.568787">
        <ele>255.0</ele>
      </trkpt>
      <trkpt lat="25.099471" lon="121.568893">
        <ele>256.0</ele>
      </trkpt>
      <trkpt lat="25.099565" lon="121.568911">
        <ele>260.0</ele>
      </trkpt>
      <trkpt lat="25.099627" lon="121.568997">
        <ele>262.0</ele>
      </trkpt>
      <trkpt lat="25.09963" lon="121.569385">
        <ele>258.0</ele>
      </trkpt>
      <trkpt lat="25.099673" lon="121.569387">
        <ele>260.0</ele>
      </trkpt>
      <trkpt lat="25.099684" lon="121.569467">
        <ele>259.0</ele>
      </trkpt>
      <trkpt lat="25.099716" lon="121.569559">
        <ele>259.0</ele>
      </trkpt>
      <trkpt lat="25.099811" lon="121.569694">
        <ele>260.0</ele>
      </trkpt>
      <trkpt lat="25.099829" lon="121.569984">
        <ele>256.0</ele>
      </trkpt>
      <trkpt lat="25.099853" lon="121.570014">
        <ele>257.0</ele>
      </trkpt>
      <trkpt lat="25.100119" lon="121.570092">
        <ele>264.0</ele>
      </trkpt>
      <trkpt lat="25.100183" lon="121.570088">
        <ele>266.0</ele>
      </trkpt>
      <trkpt lat="25.10036" lon="121.569956">
        <ele>273.0</ele>
      </trkpt>
      <trkpt lat="25.100462" lon="121.569991">
        <ele>276.0</ele>
      </trkpt>
      <trkpt lat="25.100627" lon="121.570017">
        <ele>280.0</ele>
      </trkpt>
      <trkpt lat="25.100861" lon="121.570197">
        <ele>286.0</ele>
      </trkpt>
      <trkpt lat="25.101002" lon="121.570328">
        <ele>291.0</ele>
      </trkpt>
      <trkpt lat="25.101044" lon="121.570387">
        <ele>292.0</ele>
      </trkpt>
      <trkpt lat="25.101068" lon="121.570518">
        <ele>292.0</ele>
      </trkpt>
      <trkpt lat="25.101072" lon="121.570665">
        <ele>291.0</ele>
      </trkpt>
      <trkpt lat="25.101032" lon="121.570694">
        <ele>289.0</ele>
      </trkpt>
      <trkpt lat="25.101" lon="121.570767">
        <ele>287.0</ele>
      </trkpt>
      <trkpt lat="25.10101" lon="121.570826">
        <ele>287.0</ele>
      </trkpt>
      <trkpt lat="25.100924" lon="121.570967">
        <ele>285.0</ele>
      </trkpt>
      <trkpt lat="25.100982" lon="121.571149">
        <ele>290.0</ele>
      </trkpt>
      <trkpt lat="25.101001" lon="121.571169">
        <ele>291.0</ele>
      </trkpt>
      <trkpt lat="25.101029" lon="121.571273">
        <ele>293.0</ele>
      </trkpt>
      <trkpt lat="25.101104" lon="121.571331">
        <ele>296.0</ele>
      </trkpt>
      <trkpt lat="25.101148" lon="121.571346">
        <ele>298.0</ele>
      </trkpt>
      <trkpt lat="25.101236" lon="121.571517">
        <ele>303.0</ele>
      </trkpt>
      <trkpt lat="25.101333" lon="121.571632">
        <ele>307.0</ele>
      </trkpt>
      <trkpt lat="25.101343" lon="121.57168">
        <ele>307.0</ele>
      </trkpt>
      <trkpt lat="25.101308" lon="121.571739">
        <ele>306.0</ele>
      </trkpt>
      <trkpt lat="25.101308" lon="121.571739">
        <ele>306.0</ele>
      </trkpt>
      <trkpt lat="25.101301" lon="121.571799">
        <ele>306.0</ele>
      </trkpt>
      <trkpt lat="25.101334" lon="121.57195">
        <ele>307.0</ele>
      </trkpt>
      <trkpt lat="25.101431" lon="121.572117">
        <ele>310.0</ele>
      </trkpt>
      <trkpt lat="25.101557" lon="121.572269">
        <ele>314.0</ele>
      </trkpt>
      <trkpt lat="25.101608" lon="121.572377">
        <ele>315.0</ele>
      </trkpt>
      <trkpt lat="25.101757" lon="121.572487">
        <ele>319.0</ele>
      </trkpt>
      <trkpt lat="25.101986" lon="121.572602">
        <ele>325.0</ele>
      </trkpt>
      <trkpt lat="25.102006" lon="121.572658">
        <ele>325.0</ele>
      </trkpt>
      <trkpt lat="25.102047" lon="121.572998">
        <ele>327.0</ele>
      </trkpt>
      <trkpt lat="25.102088" lon="121.573071">
        <ele>328.0</ele>
      </trkpt>
      <trkpt lat="25.102132" lon="121.573245">
        <ele>329.0</ele>
      </trkpt>
      <trkpt lat="25.102156" lon="121.57344">
        <ele>330.0</ele>
      </trkpt>
      <trkpt lat="25.102239" lon="121.573653">
        <ele>332.0</ele>
      </trkpt>
      <trkpt lat="25.102415" lon="121.574251">
        <ele>338.0</ele>
      </trkpt>
      <trkpt lat="25.102494" lon="121.574602">
        <ele>344.0</ele>
      </trkpt>
      <trkpt lat="25.102554" lon="121.574762">
        <ele>347.0</ele>
      </trkpt>
      <trkpt lat="25.102691" lon="121.574983">
        <ele>351.0</ele>
      </trkpt>
      <trkpt lat="25.102752" lon="121.57514">
        <ele>350.0</ele>
      </trkpt>
      <trkpt lat="25.102921" lon="121.575351">
        <ele>349.0</ele>
      </trkpt>
      <trkpt lat="25.102976" lon="121.575396">
        <ele>349.0</ele>
      </trkpt>
      <trkpt lat="25.103146" lon="121.575456">
        <ele>352.0</ele>
      </trkpt>
      <trkpt lat="25.103232" lon="121.575509">
        <ele>353.0</ele>
      </trkpt>
      <trkpt lat="25.103324" lon="121.575625">
        <ele>353.0</ele>
      </trkpt>
      <trkpt lat="25.103359" lon="121.575691">
        <ele>353.0</ele>
      </trkpt>
      <trkpt lat="25.103387" lon="121.575813">
        <ele>351.0</ele>
      </trkpt>
      <trkpt lat="25.103386" lon="121.575813">
        <ele>351.0</ele>
      </trkpt>
      <trkpt lat="25.103625" lon="121.57599">
        <ele>353.0</ele>
      </trkpt>
      <trkpt lat="25.103744" lon="121.576041">
        <ele>354.0</ele>
      </trkpt>
      <trkpt lat="25.103857" lon="121.576133">
        <ele>354.0</ele>
      </trkpt>
      <trkpt lat="25.103951" lon="121.576173">
        <ele>355.0</ele>
      </trkpt>
      <trkpt lat="25.104134" lon="121.576307">
        <ele>355.0</ele>
      </trkpt>
      <trkpt lat="25.104228" lon="121.576351">
        <ele>356.0</ele>
      </trkpt>
      <trkpt lat="25.104353" lon="121.576381">
        <ele>358.0</ele>
      </trkpt>
      <trkpt lat="25.104455" lon="121.576441">
        <ele>359.0</ele>
      </trkpt>
      <trkpt lat="25.104584" lon="121.57648">
        <ele>361.0</ele>
      </trkpt>
      <trkpt lat="25.104737" lon="121.576588">
        <ele>361.0</ele>
      </trkpt>
      <trkpt lat="25.104949" lon="121.576814">
        <ele>365.0</ele>
      </trkpt>
      <trkpt lat="25.105052" lon="121.577089">
        <ele>369.0</ele>
      </trkpt>
      <trkpt lat="25.105345" lon="121.577337">
        <ele>374.0</ele>
      </trkpt>
      <trkpt lat="25.105419" lon="121.577487">
        <ele>375.0</ele>
      </trkpt>
      <trkpt lat="25.105644" lon="121.577715">
        <ele>376.0</ele>
      </trkpt>
      <trkpt lat="25.105644" lon="121.577715">
        <ele>376.0</ele>
      </trkpt>
      <trkpt lat="25.105715" lon="121.577975">
        <ele>375.0</ele>
      </trkpt>
      <trkpt lat="25.105704" lon="121.578416">
        <ele>373.0</ele>
      </trkpt>
      <trkpt lat="25.10585" lon="121.578438">
        <ele>372.0</ele>
      </trkpt>
      <trkpt lat="25.106007" lon="121.578441">
        <ele>371.0</ele>
      </trkpt>
      <trkpt lat="25.106112" lon="121.578477">
        <ele>371.0</ele>
      </trkpt>
      <trkpt lat="25.10621" lon="121.578547">
        <ele>370.0</ele>
      </trkpt>
      <trkpt lat="25.106368" lon="121.578627">
        <ele>369.0</ele>
      </trkpt>
      <trkpt lat="25.106538" lon="121.578643">
        <ele>369.0</ele>
      </trkpt>
      <trkpt lat="25.106709" lon="121.578626">
        <ele>368.0</ele>
      </trkpt>
      <trkpt lat="25.106898" lon="121.578693">
        <ele>366.0</ele>
      </trkpt>
      <trkpt lat="25.107328" lon="121.578748">
        <ele>362.0</ele>
      </trkpt>
      <trkpt lat="25.107438" lon="121.5788">
        <ele>360.0</ele>
      </trkpt>
      <trkpt lat="25.10766" lon="121.579018">
        <ele>352.0</ele>
      </trkpt>
      <trkpt lat="25.107924" lon="121.579306">
        <ele>347.0</ele>
      </trkpt>
      <trkpt lat="25.107979" lon="121.57944">
        <ele>346.0</ele>
      </trkpt>
      <trkpt lat="25.107994" lon="121.579592">
        <ele>345.0</ele>
      </trkpt>
      <trkpt lat="25.107959" lon="121.57971">
        <ele>344.0</ele>
      </trkpt>
      <trkpt lat="25.107962" lon="121.579767">
        <ele>344.0</ele>
      </trkpt>
      <trkpt lat="25.107986" lon="121.57988">
        <ele>343.0</ele>
      </trkpt>
      <trkpt lat="25.108031" lon="121.579978">
        <ele>341.0</ele>
      </trkpt>
      <trkpt lat="25.10818" lon="121.580217">
        <ele>338.0</ele>
      </trkpt>
      <trkpt lat="25.108323" lon="121.580385">
        <ele>334.0</ele>
      </trkpt>
      <trkpt lat="25.108341" lon="121.580524">
        <ele>333.0</ele>
      </trkpt>
      <trkpt lat="25.108451" lon="121.580619">
        <ele>331.0</ele>
      </trkpt>
      <trkpt lat="25.108545" lon="121.580617">
        <ele>329.0</ele>
      </trkpt>
      <trkpt lat="25.10865" lon="121.580662">
        <ele>327.0</ele>
      </trkpt>
      <trkpt lat="25.10865" lon="121.580662">
        <ele>327.0</ele>
      </trkpt>
      <trkpt lat="25.108751" lon="121.580788">
        <ele>324.0</ele>
      </trkpt>
      <trkpt lat="25.108812" lon="121.580807">
        <ele>323.0</ele>
      </trkpt>
      <trkpt lat="25.1089122" lon="121.5808815">
        <ele>322.0</ele>
      </trkpt>
      <trkpt lat="25.108888" lon="121.581021">
        <ele>325.0</ele>
      </trkpt>
      <trkpt lat="25.108887" lon="121.581021">
        <ele>325.0</ele>
      </trkpt>
      <trkpt lat="25.108886" lon="121.581028">
        <ele>325.0</ele>
      </trkpt>
      <trkpt lat="25.108809" lon="121.581028">
        <ele>327.0</ele>
      </trkpt>
      <trkpt lat="25.108696" lon="121.581089">
        <ele>330.0</ele>
      </trkpt>
      <trkpt lat="25.108526" lon="121.581213">
        <ele>336.0</ele>
      </trkpt>
      <trkpt lat="25.108324" lon="121.58142">
        <ele>345.0</ele>
      </trkpt>
      <trkpt lat="25.108394" lon="121.581674">
        <ele>349.0</ele>
      </trkpt>
      <trkpt lat="25.10846" lon="121.582011">
        <ele>358.0</ele>
      </trkpt>
      <trkpt lat="25.108286" lon="121.582165">
        <ele>365.0</ele>
      </trkpt>
      <trkpt lat="25.108417" lon="121.582433">
        <ele>372.0</ele>
      </trkpt>
      <trkpt lat="25.108553" lon="121.582422">
        <ele>369.0</ele>
      </trkpt>
      <trkpt lat="25.108692" lon="121.582548">
        <ele>371.0</ele>
      </trkpt>
      <trkpt lat="25.108748" lon="121.58271">
        <ele>376.0</ele>
      </trkpt>
      <trkpt lat="25.10885" lon="121.582785">
        <ele>378.0</ele>
      </trkpt>
      <trkpt lat="25.108891" lon="121.583021">
        <ele>387.0</ele>
      </trkpt>
      <trkpt lat="25.108805" lon="121.583237">
        <ele>396.0</ele>
      </trkpt>
      <trkpt lat="25.108769" lon="121.583516">
        <ele>405.0</ele>
      </trkpt>
      <trkpt lat="25.108839" lon="121.583711">
        <ele>411.0</ele>
      </trkpt>
      <trkpt lat="25.108928" lon="121.583898">
        <ele>417.0</ele>
      </trkpt>
      <trkpt lat="25.109065" lon="121.584022">
        <ele>421.0</ele>
      </trkpt>
      <trkpt lat="25.109235" lon="121.584085">
        <ele>422.0</ele>
      </trkpt>
      <trkpt lat="25.109391" lon="121.584199">
        <ele>423.0</ele>
      </trkpt>
      <trkpt lat="25.109568" lon="121.584269">
        <ele>423.0</ele>
      </trkpt>
      <trkpt lat="25.109568" lon="121.584269">
        <ele>423.0</ele>
      </trkpt>
      <trkpt lat="25.109658" lon="121.584449">
        <ele>428.0</ele>
      </trkpt>
      <trkpt lat="25.109704" lon="121.584618">
        <ele>433.0</ele>
      </trkpt>
      <trkpt lat="25.109784" lon="121.584795">
        <ele>438.0</ele>
      </trkpt>
      <trkpt lat="25.109787" lon="121.584996">
        <ele>444.0</ele>
      </trkpt>
      <trkpt lat="25.109787" lon="121.584996">
        <ele>444.0</ele>
      </trkpt>
      <trkpt lat="25.109633" lon="121.585322">
        <ele>450.0</ele>
      </trkpt>
      <trkpt lat="25.1095801" lon="121.5854841">
        <ele>453.0</ele>
      </trkpt>
      <trkpt lat="25.1095923" lon="121.5858838">
        <ele>456.0</ele>
      </trkpt>
      <trkpt lat="25.109591" lon="121.5859">
        <ele>456.0</ele>
      </trkpt>
      <trkpt lat="25.1095" lon="121.58585">
        <ele>457.0</ele>
      </trkpt>
      <trkpt lat="25.109418" lon="121.585764">
        <ele>456.0</ele>
      </trkpt>
      <trkpt lat="25.109418" lon="121.585764">
        <ele>456.0</ele>
      </trkpt>
      <trkpt lat="25.109334" lon="121.585675">
        <ele>456.0</ele>
      </trkpt>
      <trkpt lat="25.109334" lon="121.585675">
        <ele>456.0</ele>
      </trkpt>
      <trkpt lat="25.109247" lon="121.585585">
        <ele>455.0</ele>
      </trkpt>
      <trkpt lat="25.109177" lon="121.585544">
        <ele>455.0</ele>
      </trkpt>
      <trkpt lat="25.109177" lon="121.585544">
        <ele>455.0</ele>
      </trkpt>
      <trkpt lat="25.109068" lon="121.585479">
        <ele>454.0</ele>
      </trkpt>
      <trkpt lat="25.109087" lon="121.585398">
        <ele>454.0</ele>
      </trkpt>
      <trkpt lat="25.109065" lon="121.585391">
        <ele>454.0</ele>
      </trkpt>
      <trkpt lat="25.109065" lon="121.585391">
        <ele>454.0</ele>
      </trkpt>
      <trkpt lat="25.108878" lon="121.585332">
        <ele>452.0</ele>
      </trkpt>
      <trkpt lat="25.108878" lon="121.585332">
        <ele>452.0</ele>
      </trkpt>
      <trkpt lat="25.108832" lon="121.585317">
        <ele>452.0</ele>
      </trkpt>
      <trkpt lat="25.108506" lon="121.585334">
        <ele>450.0</ele>
      </trkpt>
      <trkpt lat="25.108506" lon="121.585334">
        <ele>450.0</ele>
      </trkpt>
      <trkpt lat="25.108302" lon="121.585366">
        <ele>448.0</ele>
      </trkpt>
      <trkpt lat="25.10814" lon="121.585356">
        <ele>445.0</ele>
      </trkpt>
      <trkpt lat="25.10814" lon="121.585356">
        <ele>445.0</ele>
      </trkpt>
      <trkpt lat="25.108023" lon="121.585316">
        <ele>444.0</ele>
      </trkpt>
      <trkpt lat="25.107959" lon="121.585244">
        <ele>444.0</ele>
      </trkpt>
      <trkpt lat="25.107853" lon="121.585162">
        <ele>443.0</ele>
      </trkpt>
      <trkpt lat="25.107853" lon="121.585162">
        <ele>443.0</ele>
      </trkpt>
      <trkpt lat="25.107698" lon="121.5851">
        <ele>442.0</ele>
      </trkpt>
      <trkpt lat="25.107354" lon="121.58522">
        <ele>431.0</ele>
      </trkpt>
      <trkpt lat="25.107354" lon="121.58522">
        <ele>431.0</ele>
      </trkpt>
      <trkpt lat="25.10717" lon="121.585251">
        <ele>424.0</ele>
      </trkpt>
      <trkpt lat="25.106883" lon="121.585264">
        <ele>414.0</ele>
      </trkpt>
      <trkpt lat="25.106857" lon="121.58528">
        <ele>413.0</ele>
      </trkpt>
      <trkpt lat="25.106857" lon="121.58528">
        <ele>413.0</ele>
      </trkpt>
      <trkpt lat="25.106671" lon="121.585389">
        <ele>405.0</ele>
      </trkpt>
      <trkpt lat="25.106529" lon="121.585426">
        <ele>399.0</ele>
      </trkpt>
      <trkpt lat="25.106442" lon="121.585366">
        <ele>397.0</ele>
      </trkpt>
      <trkpt lat="25.106419" lon="121.58529">
        <ele>397.0</ele>
      </trkpt>
      <trkpt lat="25.106419" lon="121.58529">
        <ele>397.0</ele>
      </trkpt>
      <trkpt lat="25.106384" lon="121.585173">
        <ele>398.0</ele>
      </trkpt>
      <trkpt lat="25.106319" lon="121.584606">
        <ele>398.0</ele>
      </trkpt>
      <trkpt lat="25.10618" lon="121.584109">
        <ele>394.0</ele>
      </trkpt>
      <trkpt lat="25.106177" lon="121.583923">
        <ele>393.0</ele>
      </trkpt>
      <trkpt lat="25.106112" lon="121.583733">
        <ele>391.0</ele>
      </trkpt>
      <trkpt lat="25.106112" lon="121.583733">
        <ele>391.0</ele>
      </trkpt>
      <trkpt lat="25.106107" lon="121.583719">
        <ele>391.0</ele>
      </trkpt>
      <trkpt lat="25.106508" lon="121.583553">
        <ele>394.0</ele>
      </trkpt>
      <trkpt lat="25.106553" lon="121.583435">
        <ele>392.0</ele>
      </trkpt>
      <trkpt lat="25.106538" lon="121.583258">
        <ele>391.0</ele>
      </trkpt>
      <trkpt lat="25.106563" lon="121.583135">
        <ele>392.0</ele>
      </trkpt>
      <trkpt lat="25.106744" lon="121.582821">
        <ele>392.0</ele>
      </trkpt>
      <trkpt lat="25.106829" lon="121.582597">
        <ele>391.0</ele>
      </trkpt>
      <trkpt lat="25.106784" lon="121.581922">
        <ele>386.0</ele>
      </trkpt>
      <trkpt lat="25.106799" lon="121.581649">
        <ele>383.0</ele>
      </trkpt>
      <trkpt lat="25.106736" lon="121.581724">
        <ele>385.0</ele>
      </trkpt>
      <trkpt lat="25.106668" lon="121.581361">
        <ele>383.0</ele>
      </trkpt>
      <trkpt lat="25.10663" lon="121.581337">
        <ele>383.0</ele>
      </trkpt>
      <trkpt lat="25.106522" lon="121.581344">
        <ele>382.0</ele>
      </trkpt>
      <trkpt lat="25.106316" lon="121.58144">
        <ele>382.0</ele>
      </trkpt>
      <trkpt lat="25.106102" lon="121.581603">
        <ele>384.0</ele>
      </trkpt>
      <trkpt lat="25.105994" lon="121.581621">
        <ele>384.0</ele>
      </trkpt>
      <trkpt lat="25.105816" lon="121.581577">
        <ele>383.0</ele>
      </trkpt>
      <trkpt lat="25.105561" lon="121.581638">
        <ele>379.0</ele>
      </trkpt>
      <trkpt lat="25.105534" lon="121.581689">
        <ele>380.0</ele>
      </trkpt>
      <trkpt lat="25.105469" lon="121.581753">
        <ele>380.0</ele>
      </trkpt>
      <trkpt lat="25.105217" lon="121.581936">
        <ele>380.0</ele>
      </trkpt>
      <trkpt lat="25.104976" lon="121.582006">
        <ele>377.0</ele>
      </trkpt>
      <trkpt lat="25.104738" lon="121.582119">
        <ele>374.0</ele>
      </trkpt>
      <trkpt lat="25.104711" lon="121.582119">
        <ele>373.0</ele>
      </trkpt>
      <trkpt lat="25.104708" lon="121.582098">
        <ele>373.0</ele>
      </trkpt>
      <trkpt lat="25.10483" lon="121.581802">
        <ele>368.0</ele>
      </trkpt>
      <trkpt lat="25.104832" lon="121.581765">
        <ele>367.0</ele>
      </trkpt>
      <trkpt lat="25.104729" lon="121.58183">
        <ele>367.0</ele>
      </trkpt>
      <trkpt lat="25.104646" lon="121.581859">
        <ele>365.0</ele>
      </trkpt>
      <trkpt lat="25.104595" lon="121.581867">
        <ele>364.0</ele>
      </trkpt>
      <trkpt lat="25.104563" lon="121.581852">
        <ele>363.0</ele>
      </trkpt>
      <trkpt lat="25.104625" lon="121.581625">
        <ele>359.0</ele>
      </trkpt>
      <trkpt lat="25.104625" lon="121.581556">
        <ele>358.0</ele>
      </trkpt>
      <trkpt lat="25.104608" lon="121.581521">
        <ele>358.0</ele>
      </trkpt>
      <trkpt lat="25.104538" lon="121.581516">
        <ele>356.0</ele>
      </trkpt>
      <trkpt lat="25.104449" lon="121.581472">
        <ele>353.0</ele>
      </trkpt>
      <trkpt lat="25.104136" lon="121.5815">
        <ele>346.0</ele>
      </trkpt>
      <trkpt lat="25.104135" lon="121.581397">
        <ele>345.0</ele>
      </trkpt>
      <trkpt lat="25.104115" lon="121.581394">
        <ele>344.0</ele>
      </trkpt>
      <trkpt lat="25.104121" lon="121.581188">
        <ele>342.0</ele>
      </trkpt>
      <trkpt lat="25.104101" lon="121.581188">
        <ele>342.0</ele>
      </trkpt>
      <trkpt lat="25.104101" lon="121.581092">
        <ele>341.0</ele>
      </trkpt>
      <trkpt lat="25.104047" lon="121.580904">
        <ele>337.0</ele>
      </trkpt>
      <trkpt lat="25.104025" lon="121.580974">
        <ele>338.0</ele>
      </trkpt>
      <trkpt lat="25.103923" lon="121.581144">
        <ele>337.0</ele>
      </trkpt>
      <trkpt lat="25.103815" lon="121.581299">
        <ele>336.0</ele>
      </trkpt>
      <trkpt lat="25.103726" lon="121.581395">
        <ele>334.0</ele>
      </trkpt>
      <trkpt lat="25.103608" lon="121.581674">
        <ele>332.0</ele>
      </trkpt>
      <trkpt lat="25.103317" lon="121.581927">
        <ele>328.0</ele>
      </trkpt>
      <trkpt lat="25.103218" lon="121.582106">
        <ele>327.0</ele>
      </trkpt>
      <trkpt lat="25.103218" lon="121.582106">
        <ele>327.0</ele>
      </trkpt>
      <trkpt lat="25.103017" lon="121.582614">
        <ele>323.0</ele>
      </trkpt>
      <trkpt lat="25.10289" lon="121.582629">
        <ele>317.0</ele>
      </trkpt>
      <trkpt lat="25.102842" lon="121.582569">
        <ele>315.0</ele>
      </trkpt>
      <trkpt lat="25.102795" lon="121.581849">
        <ele>310.0</ele>
      </trkpt>
      <trkpt lat="25.102845" lon="121.58158">
        <ele>311.0</ele>
      </trkpt>
      <trkpt lat="25.102827" lon="121.581445">
        <ele>312.0</ele>
      </trkpt>
      <trkpt lat="25.102709" lon="121.581351">
        <ele>310.0</ele>
      </trkpt>
      <trkpt lat="25.102709" lon="121.581351">
        <ele>310.0</ele>
      </trkpt>
      <trkpt lat="25.102685" lon="121.581332">
        <ele>310.0</ele>
      </trkpt>
      <trkpt lat="25.10226" lon="121.581362">
        <ele>302.0</ele>
      </trkpt>
      <trkpt lat="25.101935" lon="121.58151">
        <ele>293.0</ele>
      </trkpt>
      <trkpt lat="25.101772" lon="121.581535">
        <ele>290.0</ele>
      </trkpt>
      <trkpt lat="25.101772" lon="121.581535">
        <ele>290.0</ele>
      </trkpt>
      <trkpt lat="25.101638" lon="121.581555">
        <ele>287.0</ele>
      </trkpt>
      <trkpt lat="25.101134" lon="121.581756">
        <ele>278.0</ele>
      </trkpt>
      <trkpt lat="25.100995" lon="121.581688">
        <ele>279.0</ele>
      </trkpt>
      <trkpt lat="25.100585" lon="121.58179">
        <ele>273.0</ele>
      </trkpt>
      <trkpt lat="25.100415" lon="121.582011">
        <ele>270.0</ele>
      </trkpt>
      <trkpt lat="25.100415" lon="121.582011">
        <ele>270.0</ele>
      </trkpt>
      <trkpt lat="25.100423" lon="121.582">
        <ele>270.0</ele>
      </trkpt>
      <trkpt lat="25.100431" lon="121.581752">
        <ele>272.0</ele>
      </trkpt>
      <trkpt lat="25.100418" lon="121.581665">
        <ele>273.0</ele>
      </trkpt>
      <trkpt lat="25.100347" lon="121.581741">
        <ele>271.0</ele>
      </trkpt>
      <trkpt lat="25.100165" lon="121.581823">
        <ele>270.0</ele>
      </trkpt>
      <trkpt lat="25.100087" lon="121.581837">
        <ele>270.0</ele>
      </trkpt>
      <trkpt lat="25.100037" lon="121.581805">
        <ele>269.0</ele>
      </trkpt>
      <trkpt lat="25.099996" lon="121.581809">
        <ele>269.0</ele>
      </trkpt>
      <trkpt lat="25.099923" lon="121.581956">
        <ele>271.0</ele>
      </trkpt>
      <trkpt lat="25.099923" lon="121.581956">
        <ele>271.0</ele>
      </trkpt>
      <trkpt lat="25.099914" lon="121.581975">
        <ele>271.0</ele>
      </trkpt>
      <trkpt lat="25.099717" lon="121.582097">
        <ele>272.0</ele>
      </trkpt>
      <trkpt lat="25.099639" lon="121.582177">
        <ele>274.0</ele>
      </trkpt>
      <trkpt lat="25.099604" lon="121.582254">
        <ele>275.0</ele>
      </trkpt>
      <trkpt lat="25.099584" lon="121.582283">
        <ele>275.0</ele>
      </trkpt>
      <trkpt lat="25.099463" lon="121.582349">
        <ele>277.0</ele>
      </trkpt>
      <trkpt lat="25.099439" lon="121.582377">
        <ele>278.0</ele>
      </trkpt>
      <trkpt lat="25.099433" lon="121.582417">
        <ele>278.0</ele>
      </trkpt>
      <trkpt lat="25.099457" lon="121.582471">
        <ele>279.0</ele>
      </trkpt>
      <trkpt lat="25.099471" lon="121.582568">
        <ele>280.0</ele>
      </trkpt>
      <trkpt lat="25.099511" lon="121.582661">
        <ele>279.0</ele>
      </trkpt>
      <trkpt lat="25.099525" lon="121.582746">
        <ele>279.0</ele>
      </trkpt>
      <trkpt lat="25.099523" lon="121.58282">
        <ele>279.0</ele>
      </trkpt>
      <trkpt lat="25.099474" lon="121.582894">
        <ele>279.0</ele>
      </trkpt>
      <trkpt lat="25.099515" lon="121.583023">
        <ele>278.0</ele>
      </trkpt>
      <trkpt lat="25.099536" lon="121.583144">
        <ele>278.0</ele>
      </trkpt>
      <trkpt lat="25.099523" lon="121.583415">
        <ele>277.0</ele>
      </trkpt>
      <trkpt lat="25.099414" lon="121.583549">
        <ele>279.0</ele>
      </trkpt>
      <trkpt lat="25.099352" lon="121.583673">
        <ele>281.0</ele>
      </trkpt>
      <trkpt lat="25.099151" lon="121.58385">
        <ele>287.0</ele>
      </trkpt>
      <trkpt lat="25.09913" lon="121.583903">
        <ele>287.0</ele>
      </trkpt>
      <trkpt lat="25.099126" lon="121.583987">
        <ele>287.0</ele>
      </trkpt>
      <trkpt lat="25.099117" lon="121.584179">
        <ele>289.0</ele>
      </trkpt>
      <trkpt lat="25.099136" lon="121.584328">
        <ele>287.0</ele>
      </trkpt>
      <trkpt lat="25.099125" lon="121.584393">
        <ele>286.0</ele>
      </trkpt>
      <trkpt lat="25.098931" lon="121.584547">
        <ele>288.0</ele>
      </trkpt>
      <trkpt lat="25.098894" lon="121.584842">
        <ele>289.0</ele>
      </trkpt>
      <trkpt lat="25.099005" lon="121.584954">
        <ele>284.0</ele>
      </trkpt>
      <trkpt lat="25.09897" lon="121.585129">
        <ele>283.0</ele>
      </trkpt>
      <trkpt lat="25.098987" lon="121.585173">
        <ele>282.0</ele>
      </trkpt>
      <trkpt lat="25.098987" lon="121.585173">
        <ele>282.0</ele>
      </trkpt>
      <trkpt lat="25.099046" lon="121.585328">
        <ele>277.0</ele>
      </trkpt>
      <trkpt lat="25.098951" lon="121.585513">
        <ele>278.0</ele>
      </trkpt>
      <trkpt lat="25.099014" lon="121.585691">
        <ele>272.0</ele>
      </trkpt>
      <trkpt lat="25.098932" lon="121.586125">
        <ele>266.0</ele>
      </trkpt>
      <trkpt lat="25.098962" lon="121.586179">
        <ele>263.0</ele>
      </trkpt>
      <trkpt lat="25.098958" lon="121.586222">
        <ele>262.0</ele>
      </trkpt>
      <trkpt lat="25.098845" lon="121.586414">
        <ele>262.0</ele>
      </trkpt>
      <trkpt lat="25.098794" lon="121.586549">
        <ele>260.0</ele>
      </trkpt>
      <trkpt lat="25.098676" lon="121.58673">
        <ele>260.0</ele>
      </trkpt>
      <trkpt lat="25.098701" lon="121.586749">
        <ele>258.0</ele>
      </trkpt>
      <trkpt lat="25.098701" lon="121.586749">
        <ele>258.0</ele>
      </trkpt>
      <trkpt lat="25.098676" lon="121.58673">
        <ele>260.0</ele>
      </trkpt>
      <trkpt lat="25.098593" lon="121.586784">
        <ele>261.0</ele>
      </trkpt>
      <trkpt lat="25.098542" lon="121.586847">
        <ele>261.0</ele>
      </trkpt>
      <trkpt lat="25.098505" lon="121.58694">
        <ele>260.0</ele>
      </trkpt>
      <trkpt lat="25.098502" lon="121.586964">
        <ele>259.0</ele>
      </trkpt>
      <trkpt lat="25.098471" lon="121.587027">
        <ele>258.0</ele>
      </trkpt>
      <trkpt lat="25.098453" lon="121.587062">
        <ele>257.0</ele>
      </trkpt>
      <trkpt lat="25.098392" lon="121.587006">
        <ele>261.0</ele>
      </trkpt>
      <trkpt lat="25.098326" lon="121.587134">
        <ele>259.0</ele>
      </trkpt>
      <trkpt lat="25.098297" lon="121.587169">
        <ele>257.0</ele>
      </trkpt>
      <trkpt lat="25.098257" lon="121.587272">
        <ele>254.0</ele>
      </trkpt>
      <trkpt lat="25.098268" lon="121.587446">
        <ele>248.0</ele>
      </trkpt>
      <trkpt lat="25.098257" lon="121.587496">
        <ele>247.0</ele>
      </trkpt>
      <trkpt lat="25.098228" lon="121.587608">
        <ele>243.0</ele>
      </trkpt>
      <trkpt lat="25.098222" lon="121.587636">
        <ele>242.0</ele>
      </trkpt>
      <trkpt lat="25.098222" lon="121.587636">
        <ele>242.0</ele>
      </trkpt>
      <trkpt lat="25.098228" lon="121.587608">
        <ele>243.0</ele>
      </trkpt>
      <trkpt lat="25.098028" lon="121.587516">
        <ele>248.0</ele>
      </trkpt>
      <trkpt lat="25.097819" lon="121.587517">
        <ele>249.0</ele>
      </trkpt>
      <trkpt lat="25.097759" lon="121.587394">
        <ele>251.0</ele>
      </trkpt>
      <trkpt lat="25.097725" lon="121.587393">
        <ele>251.0</ele>
      </trkpt>
      <trkpt lat="25.097669" lon="121.587513">
        <ele>250.0</ele>
      </trkpt>
      <trkpt lat="25.097576" lon="121.587619">
        <ele>249.0</ele>
      </trkpt>
      <trkpt lat="25.097483" lon="121.587784">
        <ele>245.0</ele>
      </trkpt>
      <trkpt lat="25.097462" lon="121.587874">
        <ele>242.0</ele>
      </trkpt>
      <trkpt lat="25.097367" lon="121.588035">
        <ele>237.0</ele>
      </trkpt>
      <trkpt lat="25.09733" lon="121.588059">
        <ele>235.0</ele>
      </trkpt>
      <trkpt lat="25.097302" lon="121.588073">
        <ele>234.0</ele>
      </trkpt>
      <trkpt lat="25.097266" lon="121.588071">
        <ele>233.0</ele>
      </trkpt>
      <trkpt lat="25.097232" lon="121.588063">
        <ele>233.0</ele>
      </trkpt>
      <trkpt lat="25.097242" lon="121.58825">
        <ele>230.0</ele>
      </trkpt>
      <trkpt lat="25.097198" lon="121.588277">
        <ele>228.0</ele>
      </trkpt>
      <trkpt lat="25.09709" lon="121.588116">
        <ele>229.0</ele>
      </trkpt>
      <trkpt lat="25.09695" lon="121.588042">
        <ele>226.0</ele>
      </trkpt>
      <trkpt lat="25.096869" lon="121.587953">
        <ele>225.0</ele>
      </trkpt>
      <trkpt lat="25.096865" lon="121.587838">
        <ele>226.0</ele>
      </trkpt>
      <trkpt lat="25.096818" lon="121.587763">
        <ele>225.0</ele>
      </trkpt>
      <trkpt lat="25.09672" lon="121.587859">
        <ele>222.0</ele>
      </trkpt>
      <trkpt lat="25.096698" lon="121.588068">
        <ele>220.0</ele>
      </trkpt>
      <trkpt lat="25.096599" lon="121.588311">
        <ele>215.0</ele>
      </trkpt>
      <trkpt lat="25.096144" lon="121.589024">
        <ele>178.0</ele>
      </trkpt>
      <trkpt lat="25.095994" lon="121.58913">
        <ele>172.0</ele>
      </trkpt>
      <trkpt lat="25.09599" lon="121.589175">
        <ele>172.0</ele>
      </trkpt>
    </trkseg>
  </trk>
</gpx>
