<?xml version="1.0" encoding="UTF-8"?>
<gpx xmlns="http://www.topografix.com/GPX/1/1" xmlns:xsi="http://www.w3.org/2001/XMLSchema-instance" xsi:schemaLocation="http://www.topografix.com/GPX/1/1 http://www.topografix.com/GPX/1/1/gpx.xsd" version="1.1" creator="Martin Schneider">
  <wpt lat="25.052171" lon="121.773235">
    <ele>237.0</ele>
    <name>Start</name>
  </wpt>
  <wpt lat="25.076969" lon="121.754899">
    <ele>150.0</ele>
    <name>End</name>
  </wpt>
  <wpt lat="25.062682" lon="121.768793">
    <name>1</name>
    <desc>Fork</desc>
  </wpt>
  <wpt lat="25.071165" lon="121.780033">
    <name>2</name>
    <desc>Fork</desc>
  </wpt>
  <wpt lat="25.070845" lon="121.789428">
    <name>3</name>
    <desc>Lijiazucuo bus stop</desc>
  </wpt>
  <wpt lat="25.07096" lon="121.780688">
    <ele>739.0</ele>
    <name>Summit Wufenshan</name>
  </wpt>
  <trk>
    <name>10_Wufenshan</name>
    <trkseg>
      <trkpt lat="25.052171" lon="121.773235">
        <ele>237.0</ele>
      </trkpt>
      <trkpt lat="25.052182" lon="121.773254">
        <ele>237.0</ele>
      </trkpt>
      <trkpt lat="25.052255" lon="121.773077">
        <ele>237.0</ele>
      </trkpt>
      <trkpt lat="25.052481" lon="121.772985">
        <ele>237.0</ele>
      </trkpt>
      <trkpt lat="25.052939" lon="121.773074">
        <ele>248.0</ele>
      </trkpt>
      <trkpt lat="25.053739" lon="121.772675">
        <ele>258.0</ele>
      </trkpt>
      <trkpt lat="25.054164" lon="121.772607">
        <ele>262.0</ele>
      </trkpt>
      <trkpt lat="25.054423" lon="121.772679">
        <ele>270.0</ele>
      </trkpt>
      <trkpt lat="25.05481" lon="121.772497">
        <ele>275.0</ele>
      </trkpt>
      <trkpt lat="25.054939" lon="121.772284">
        <ele>281.0</ele>
      </trkpt>
      <trkpt lat="25.05514" lon="121.772107">
        <ele>287.0</ele>
      </trkpt>
      <trkpt lat="25.055295" lon="121.772065">
        <ele>291.0</ele>
      </trkpt>
      <trkpt lat="25.055475" lon="121.771929">
        <ele>293.0</ele>
      </trkpt>
      <trkpt lat="25.055645" lon="121.771663">
        <ele>291.0</ele>
      </trkpt>
      <trkpt lat="25.055801" lon="121.771613">
        <ele>294.0</ele>
      </trkpt>
      <trkpt lat="25.055993" lon="121.771424">
        <ele>303.0</ele>
      </trkpt>
      <trkpt lat="25.056408" lon="121.771235">
        <ele>313.0</ele>
      </trkpt>
      <trkpt lat="25.057082" lon="121.771049">
        <ele>328.0</ele>
      </trkpt>
      <trkpt lat="25.057313" lon="121.771181">
        <ele>330.0</ele>
      </trkpt>
      <trkpt lat="25.057639" lon="121.771046">
        <ele>340.0</ele>
      </trkpt>
      <trkpt lat="25.057762" lon="121.770902">
        <ele>344.0</ele>
      </trkpt>
      <trkpt lat="25.057903" lon="121.77068">
        <ele>352.0</ele>
      </trkpt>
      <trkpt lat="25.058037" lon="121.770649">
        <ele>355.0</ele>
      </trkpt>
      <trkpt lat="25.058212" lon="121.770735">
        <ele>356.0</ele>
      </trkpt>
      <trkpt lat="25.058484" lon="121.770741">
        <ele>364.0</ele>
      </trkpt>
      <trkpt lat="25.058829" lon="121.7708">
        <ele>377.0</ele>
      </trkpt>
      <trkpt lat="25.058961" lon="121.770617">
        <ele>385.0</ele>
      </trkpt>
      <trkpt lat="25.059674" lon="121.770363">
        <ele>414.0</ele>
      </trkpt>
      <trkpt lat="25.059854" lon="121.770418">
        <ele>421.0</ele>
      </trkpt>
      <trkpt lat="25.060018" lon="121.770057">
        <ele>420.0</ele>
      </trkpt>
      <trkpt lat="25.060378" lon="121.769921">
        <ele>436.0</ele>
      </trkpt>
      <trkpt lat="25.060461" lon="121.769742">
        <ele>444.0</ele>
      </trkpt>
      <trkpt lat="25.060608" lon="121.769197">
        <ele>460.0</ele>
      </trkpt>
      <trkpt lat="25.060707" lon="121.768684">
        <ele>477.0</ele>
      </trkpt>
      <trkpt lat="25.061063" lon="121.768757">
        <ele>490.0</ele>
      </trkpt>
      <trkpt lat="25.061373" lon="121.768512">
        <ele>508.0</ele>
      </trkpt>
      <trkpt lat="25.061915" lon="121.768503">
        <ele>525.0</ele>
      </trkpt>
      <trkpt lat="25.062149" lon="121.76846">
        <ele>531.0</ele>
      </trkpt>
      <trkpt lat="25.062605" lon="121.76881">
        <ele>536.0</ele>
      </trkpt>
      <trkpt lat="25.062637" lon="121.768858">
        <ele>536.0</ele>
      </trkpt>
      <trkpt lat="25.062889" lon="121.768839">
        <ele>535.0</ele>
      </trkpt>
      <trkpt lat="25.062982" lon="121.76912">
        <ele>537.0</ele>
      </trkpt>
      <trkpt lat="25.063063" lon="121.769271">
        <ele>538.0</ele>
      </trkpt>
      <trkpt lat="25.063216" lon="121.769502">
        <ele>541.0</ele>
      </trkpt>
      <trkpt lat="25.063376" lon="121.769866">
        <ele>545.0</ele>
      </trkpt>
      <trkpt lat="25.063474" lon="121.770422">
        <ele>553.0</ele>
      </trkpt>
      <trkpt lat="25.063404" lon="121.770597">
        <ele>557.0</ele>
      </trkpt>
      <trkpt lat="25.063413" lon="121.770851">
        <ele>562.0</ele>
      </trkpt>
      <trkpt lat="25.063468" lon="121.771381">
        <ele>584.0</ele>
      </trkpt>
      <trkpt lat="25.063613" lon="121.771614">
        <ele>594.0</ele>
      </trkpt>
      <trkpt lat="25.063839" lon="121.771667">
        <ele>597.0</ele>
      </trkpt>
      <trkpt lat="25.063932" lon="121.772008">
        <ele>601.0</ele>
      </trkpt>
      <trkpt lat="25.064128" lon="121.772">
        <ele>605.0</ele>
      </trkpt>
      <trkpt lat="25.064242" lon="121.7721">
        <ele>610.0</ele>
      </trkpt>
      <trkpt lat="25.064314" lon="121.772381">
        <ele>619.0</ele>
      </trkpt>
      <trkpt lat="25.064373" lon="121.772464">
        <ele>623.0</ele>
      </trkpt>
      <trkpt lat="25.064417" lon="121.772592">
        <ele>625.0</ele>
      </trkpt>
      <trkpt lat="25.06481" lon="121.772853">
        <ele>640.0</ele>
      </trkpt>
      <trkpt lat="25.064914" lon="121.772841">
        <ele>645.0</ele>
      </trkpt>
      <trkpt lat="25.064906" lon="121.772731">
        <ele>646.0</ele>
      </trkpt>
      <trkpt lat="25.064773" lon="121.77253">
        <ele>642.0</ele>
      </trkpt>
      <trkpt lat="25.064791" lon="121.772443">
        <ele>641.0</ele>
      </trkpt>
      <trkpt lat="25.064864" lon="121.772491">
        <ele>646.0</ele>
      </trkpt>
      <trkpt lat="25.065191" lon="121.772779">
        <ele>655.0</ele>
      </trkpt>
      <trkpt lat="25.065443" lon="121.772801">
        <ele>662.0</ele>
      </trkpt>
      <trkpt lat="25.065683" lon="121.772941">
        <ele>667.0</ele>
      </trkpt>
      <trkpt lat="25.06596" lon="121.772906">
        <ele>674.0</ele>
      </trkpt>
      <trkpt lat="25.066309" lon="121.772955">
        <ele>681.0</ele>
      </trkpt>
      <trkpt lat="25.066639" lon="121.773189">
        <ele>689.0</ele>
      </trkpt>
      <trkpt lat="25.066994" lon="121.773574">
        <ele>687.0</ele>
      </trkpt>
      <trkpt lat="25.067565" lon="121.773866">
        <ele>691.0</ele>
      </trkpt>
      <trkpt lat="25.068103" lon="121.774346">
        <ele>690.0</ele>
      </trkpt>
      <trkpt lat="25.068585" lon="121.774615">
        <ele>693.0</ele>
      </trkpt>
      <trkpt lat="25.068827" lon="121.774733">
        <ele>696.0</ele>
      </trkpt>
      <trkpt lat="25.069123" lon="121.774975">
        <ele>705.0</ele>
      </trkpt>
      <trkpt lat="25.069283" lon="121.775367">
        <ele>698.0</ele>
      </trkpt>
      <trkpt lat="25.069598" lon="121.775554">
        <ele>701.0</ele>
      </trkpt>
      <trkpt lat="25.069965" lon="121.775841">
        <ele>713.0</ele>
      </trkpt>
      <trkpt lat="25.070247" lon="121.776086">
        <ele>703.0</ele>
      </trkpt>
      <trkpt lat="25.07033" lon="121.776387">
        <ele>696.0</ele>
      </trkpt>
      <trkpt lat="25.070349" lon="121.776615">
        <ele>692.0</ele>
      </trkpt>
      <trkpt lat="25.070489" lon="121.776804">
        <ele>692.0</ele>
      </trkpt>
      <trkpt lat="25.070629" lon="121.776874">
        <ele>695.0</ele>
      </trkpt>
      <trkpt lat="25.07066" lon="121.777083">
        <ele>695.0</ele>
      </trkpt>
      <trkpt lat="25.070755" lon="121.777325">
        <ele>697.0</ele>
      </trkpt>
      <trkpt lat="25.070758" lon="121.777478">
        <ele>697.0</ele>
      </trkpt>
      <trkpt lat="25.071027" lon="121.777719">
        <ele>706.0</ele>
      </trkpt>
      <trkpt lat="25.071117" lon="121.777958">
        <ele>709.0</ele>
      </trkpt>
      <trkpt lat="25.071309" lon="121.778201">
        <ele>714.0</ele>
      </trkpt>
      <trkpt lat="25.071343" lon="121.778333">
        <ele>716.0</ele>
      </trkpt>
      <trkpt lat="25.071036" lon="121.778772">
        <ele>719.0</ele>
      </trkpt>
      <trkpt lat="25.07093" lon="121.77908">
        <ele>724.0</ele>
      </trkpt>
      <trkpt lat="25.070937" lon="121.779345">
        <ele>726.0</ele>
      </trkpt>
      <trkpt lat="25.0711" lon="121.779658">
        <ele>727.0</ele>
      </trkpt>
      <trkpt lat="25.071165" lon="121.780029">
        <ele>729.0</ele>
      </trkpt>
      <trkpt lat="25.071159" lon="121.780196">
        <ele>731.0</ele>
      </trkpt>
      <trkpt lat="25.071033" lon="121.780317">
        <ele>734.0</ele>
      </trkpt>
      <trkpt lat="25.070928" lon="121.780629">
        <ele>738.0</ele>
      </trkpt>
      <trkpt lat="25.07096" lon="121.780688">
        <ele>739.0</ele>
      </trkpt>
      <trkpt lat="25.070928" lon="121.780629">
        <ele>738.0</ele>
      </trkpt>
      <trkpt lat="25.071033" lon="121.780317">
        <ele>734.0</ele>
      </trkpt>
      <trkpt lat="25.071159" lon="121.780196">
        <ele>731.0</ele>
      </trkpt>
      <trkpt lat="25.071165" lon="121.780029">
        <ele>729.0</ele>
      </trkpt>
      <trkpt lat="25.0711" lon="121.779658">
        <ele>727.0</ele>
      </trkpt>
      <trkpt lat="25.070937" lon="121.779345">
        <ele>726.0</ele>
      </trkpt>
      <trkpt lat="25.07093" lon="121.77908">
        <ele>724.0</ele>
      </trkpt>
      <trkpt lat="25.071036" lon="121.778772">
        <ele>719.0</ele>
      </trkpt>
      <trkpt lat="25.071343" lon="121.778333">
        <ele>716.0</ele>
      </trkpt>
      <trkpt lat="25.071309" lon="121.778201">
        <ele>714.0</ele>
      </trkpt>
      <trkpt lat="25.071117" lon="121.777958">
        <ele>709.0</ele>
      </trkpt>
      <trkpt lat="25.071027" lon="121.777719">
        <ele>706.0</ele>
      </trkpt>
      <trkpt lat="25.070758" lon="121.777478">
        <ele>697.0</ele>
      </trkpt>
      <trkpt lat="25.070755" lon="121.777325">
        <ele>697.0</ele>
      </trkpt>
      <trkpt lat="25.07066" lon="121.777083">
        <ele>695.0</ele>
      </trkpt>
      <trkpt lat="25.070629" lon="121.776874">
        <ele>695.0</ele>
      </trkpt>
      <trkpt lat="25.070489" lon="121.776804">
        <ele>692.0</ele>
      </trkpt>
      <trkpt lat="25.070349" lon="121.776615">
        <ele>692.0</ele>
      </trkpt>
      <trkpt lat="25.07033" lon="121.776387">
        <ele>696.0</ele>
      </trkpt>
      <trkpt lat="25.070247" lon="121.776086">
        <ele>703.0</ele>
      </trkpt>
      <trkpt lat="25.069965" lon="121.775841">
        <ele>713.0</ele>
      </trkpt>
      <trkpt lat="25.069598" lon="121.775554">
        <ele>701.0</ele>
      </trkpt>
      <trkpt lat="25.069283" lon="121.775367">
        <ele>698.0</ele>
      </trkpt>
      <trkpt lat="25.069123" lon="121.774975">
        <ele>705.0</ele>
      </trkpt>
      <trkpt lat="25.068827" lon="121.774733">
        <ele>696.0</ele>
      </trkpt>
      <trkpt lat="25.068585" lon="121.774615">
        <ele>693.0</ele>
      </trkpt>
      <trkpt lat="25.068103" lon="121.774346">
        <ele>690.0</ele>
      </trkpt>
      <trkpt lat="25.067565" lon="121.773866">
        <ele>691.0</ele>
      </trkpt>
      <trkpt lat="25.066994" lon="121.773574">
        <ele>687.0</ele>
      </trkpt>
      <trkpt lat="25.066639" lon="121.773189">
        <ele>689.0</ele>
      </trkpt>
      <trkpt lat="25.066309" lon="121.772955">
        <ele>681.0</ele>
      </trkpt>
      <trkpt lat="25.06596" lon="121.772906">
        <ele>674.0</ele>
      </trkpt>
      <trkpt lat="25.065683" lon="121.772941">
        <ele>667.0</ele>
      </trkpt>
      <trkpt lat="25.065443" lon="121.772801">
        <ele>662.0</ele>
      </trkpt>
      <trkpt lat="25.065191" lon="121.772779">
        <ele>655.0</ele>
      </trkpt>
      <trkpt lat="25.064864" lon="121.772491">
        <ele>646.0</ele>
      </trkpt>
      <trkpt lat="25.064791" lon="121.772443">
        <ele>641.0</ele>
      </trkpt>
      <trkpt lat="25.064773" lon="121.77253">
        <ele>642.0</ele>
      </trkpt>
      <trkpt lat="25.064906" lon="121.772731">
        <ele>646.0</ele>
      </trkpt>
      <trkpt lat="25.064914" lon="121.772841">
        <ele>645.0</ele>
      </trkpt>
      <trkpt lat="25.06481" lon="121.772853">
        <ele>640.0</ele>
      </trkpt>
      <trkpt lat="25.064417" lon="121.772592">
        <ele>625.0</ele>
      </trkpt>
      <trkpt lat="25.064373" lon="121.772464">
        <ele>623.0</ele>
      </trkpt>
      <trkpt lat="25.064314" lon="121.772381">
        <ele>619.0</ele>
      </trkpt>
      <trkpt lat="25.064242" lon="121.7721">
        <ele>610.0</ele>
      </trkpt>
      <trkpt lat="25.064128" lon="121.772">
        <ele>605.0</ele>
      </trkpt>
      <trkpt lat="25.063932" lon="121.772008">
        <ele>601.0</ele>
      </trkpt>
      <trkpt lat="25.063839" lon="121.771667">
        <ele>597.0</ele>
      </trkpt>
      <trkpt lat="25.063613" lon="121.771614">
        <ele>594.0</ele>
      </trkpt>
      <trkpt lat="25.063468" lon="121.771381">
        <ele>584.0</ele>
      </trkpt>
      <trkpt lat="25.063413" lon="121.770851">
        <ele>562.0</ele>
      </trkpt>
      <trkpt lat="25.063404" lon="121.770597">
        <ele>557.0</ele>
      </trkpt>
      <trkpt lat="25.063474" lon="121.770422">
        <ele>553.0</ele>
      </trkpt>
      <trkpt lat="25.063376" lon="121.769866">
        <ele>545.0</ele>
      </trkpt>
      <trkpt lat="25.063216" lon="121.769502">
        <ele>541.0</ele>
      </trkpt>
      <trkpt lat="25.063063" lon="121.769271">
        <ele>538.0</ele>
      </trkpt>
      <trkpt lat="25.062982" lon="121.76912">
        <ele>537.0</ele>
      </trkpt>
      <trkpt lat="25.062889" lon="121.768839">
        <ele>535.0</ele>
      </trkpt>
      <trkpt lat="25.063247" lon="121.768762">
        <ele>531.0</ele>
      </trkpt>
      <trkpt lat="25.063295" lon="121.768931">
        <ele>534.0</ele>
      </trkpt>
      <trkpt lat="25.06342" lon="121.768727">
        <ele>526.0</ele>
      </trkpt>
      <trkpt lat="25.063823" lon="121.768577">
        <ele>502.0</ele>
      </trkpt>
      <trkpt lat="25.064173" lon="121.767695">
        <ele>468.0</ele>
      </trkpt>
      <trkpt lat="25.064363" lon="121.766788">
        <ele>448.0</ele>
      </trkpt>
      <trkpt lat="25.064557" lon="121.766853">
        <ele>442.0</ele>
      </trkpt>
      <trkpt lat="25.065257" lon="121.766488">
        <ele>411.0</ele>
      </trkpt>
      <trkpt lat="25.065607" lon="121.766188">
        <ele>395.0</ele>
      </trkpt>
      <trkpt lat="25.065917" lon="121.766263">
        <ele>385.0</ele>
      </trkpt>
      <trkpt lat="25.066248" lon="121.766134">
        <ele>376.0</ele>
      </trkpt>
      <trkpt lat="25.066889" lon="121.764707">
        <ele>344.0</ele>
      </trkpt>
      <trkpt lat="25.066909" lon="121.763977">
        <ele>334.0</ele>
      </trkpt>
      <trkpt lat="25.066889" lon="121.76357">
        <ele>327.0</ele>
      </trkpt>
      <trkpt lat="25.066554" lon="121.763249">
        <ele>319.0</ele>
      </trkpt>
      <trkpt lat="25.066574" lon="121.763105">
        <ele>315.0</ele>
      </trkpt>
      <trkpt lat="25.066853" lon="121.762612">
        <ele>306.0</ele>
      </trkpt>
      <trkpt lat="25.067024" lon="121.762397">
        <ele>305.0</ele>
      </trkpt>
      <trkpt lat="25.067176" lon="121.762255">
        <ele>304.0</ele>
      </trkpt>
      <trkpt lat="25.067141" lon="121.762147">
        <ele>302.0</ele>
      </trkpt>
      <trkpt lat="25.067144" lon="121.761881">
        <ele>297.0</ele>
      </trkpt>
      <trkpt lat="25.067204" lon="121.761648">
        <ele>292.0</ele>
      </trkpt>
      <trkpt lat="25.067293" lon="121.761589">
        <ele>291.0</ele>
      </trkpt>
      <trkpt lat="25.067381" lon="121.761581">
        <ele>289.0</ele>
      </trkpt>
      <trkpt lat="25.067625" lon="121.761308">
        <ele>289.0</ele>
      </trkpt>
      <trkpt lat="25.068246" lon="121.760985">
        <ele>277.0</ele>
      </trkpt>
      <trkpt lat="25.068384" lon="121.760965">
        <ele>274.0</ele>
      </trkpt>
      <trkpt lat="25.06849" lon="121.760973">
        <ele>272.0</ele>
      </trkpt>
      <trkpt lat="25.068666" lon="121.760891">
        <ele>269.0</ele>
      </trkpt>
      <trkpt lat="25.068755" lon="121.760872">
        <ele>267.0</ele>
      </trkpt>
      <trkpt lat="25.069065" lon="121.760751">
        <ele>261.0</ele>
      </trkpt>
      <trkpt lat="25.069348" lon="121.760322">
        <ele>263.0</ele>
      </trkpt>
      <trkpt lat="25.069348" lon="121.760189">
        <ele>262.0</ele>
      </trkpt>
      <trkpt lat="25.069397" lon="121.760018">
        <ele>262.0</ele>
      </trkpt>
      <trkpt lat="25.069429" lon="121.759815">
        <ele>264.0</ele>
      </trkpt>
      <trkpt lat="25.06951" lon="121.759663">
        <ele>265.0</ele>
      </trkpt>
      <trkpt lat="25.069803" lon="121.759382">
        <ele>262.0</ele>
      </trkpt>
      <trkpt lat="25.069835" lon="121.759308">
        <ele>261.0</ele>
      </trkpt>
      <trkpt lat="25.070093" lon="121.759113">
        <ele>257.0</ele>
      </trkpt>
      <trkpt lat="25.070277" lon="121.758957">
        <ele>257.0</ele>
      </trkpt>
      <trkpt lat="25.070323" lon="121.758895">
        <ele>256.0</ele>
      </trkpt>
      <trkpt lat="25.070616" lon="121.758712">
        <ele>250.0</ele>
      </trkpt>
      <trkpt lat="25.070905" lon="121.758497">
        <ele>240.0</ele>
      </trkpt>
      <trkpt lat="25.071048" lon="121.758219">
        <ele>236.0</ele>
      </trkpt>
      <trkpt lat="25.071048" lon="121.757967">
        <ele>235.0</ele>
      </trkpt>
      <trkpt lat="25.071136" lon="121.757837">
        <ele>233.0</ele>
      </trkpt>
      <trkpt lat="25.071276" lon="121.757674">
        <ele>228.0</ele>
      </trkpt>
      <trkpt lat="25.071401" lon="121.757577">
        <ele>224.0</ele>
      </trkpt>
      <trkpt lat="25.071409" lon="121.757455">
        <ele>222.0</ele>
      </trkpt>
      <trkpt lat="25.071372" lon="121.757211">
        <ele>222.0</ele>
      </trkpt>
      <trkpt lat="25.071195" lon="121.756926">
        <ele>225.0</ele>
      </trkpt>
      <trkpt lat="25.071078" lon="121.756415">
        <ele>227.0</ele>
      </trkpt>
      <trkpt lat="25.071108" lon="121.756245">
        <ele>227.0</ele>
      </trkpt>
      <trkpt lat="25.071277" lon="121.756262">
        <ele>223.0</ele>
      </trkpt>
      <trkpt lat="25.071665" lon="121.756335">
        <ele>214.0</ele>
      </trkpt>
      <trkpt lat="25.071868" lon="121.756333">
        <ele>216.0</ele>
      </trkpt>
      <trkpt lat="25.07208" lon="121.756266">
        <ele>218.0</ele>
      </trkpt>
      <trkpt lat="25.072193" lon="121.756173">
        <ele>219.0</ele>
      </trkpt>
      <trkpt lat="25.072265" lon="121.756085">
        <ele>219.0</ele>
      </trkpt>
      <trkpt lat="25.072301" lon="121.756031">
        <ele>219.0</ele>
      </trkpt>
      <trkpt lat="25.072389" lon="121.755914">
        <ele>219.0</ele>
      </trkpt>
      <trkpt lat="25.072506" lon="121.755883">
        <ele>219.0</ele>
      </trkpt>
      <trkpt lat="25.07261" lon="121.75592">
        <ele>221.0</ele>
      </trkpt>
      <trkpt lat="25.072666" lon="121.755825">
        <ele>221.0</ele>
      </trkpt>
      <trkpt lat="25.072838" lon="121.755812">
        <ele>225.0</ele>
      </trkpt>
      <trkpt lat="25.073044" lon="121.755572">
        <ele>226.0</ele>
      </trkpt>
      <trkpt lat="25.07311" lon="121.755427">
        <ele>224.0</ele>
      </trkpt>
      <trkpt lat="25.073118" lon="121.755369">
        <ele>223.0</ele>
      </trkpt>
      <trkpt lat="25.073311" lon="121.755262">
        <ele>217.0</ele>
      </trkpt>
      <trkpt lat="25.073605" lon="121.754972">
        <ele>206.0</ele>
      </trkpt>
      <trkpt lat="25.073797" lon="121.754929">
        <ele>203.0</ele>
      </trkpt>
      <trkpt lat="25.073997" lon="121.754812">
        <ele>198.0</ele>
      </trkpt>
      <trkpt lat="25.074038" lon="121.754816">
        <ele>197.0</ele>
      </trkpt>
      <trkpt lat="25.074132" lon="121.754757">
        <ele>194.0</ele>
      </trkpt>
      <trkpt lat="25.074193" lon="121.754751">
        <ele>193.0</ele>
      </trkpt>
      <trkpt lat="25.07428" lon="121.754698">
        <ele>190.0</ele>
      </trkpt>
      <trkpt lat="25.074646" lon="121.754314">
        <ele>174.0</ele>
      </trkpt>
      <trkpt lat="25.074741" lon="121.754259">
        <ele>171.0</ele>
      </trkpt>
      <trkpt lat="25.074972" lon="121.754007">
        <ele>166.0</ele>
      </trkpt>
      <trkpt lat="25.075243" lon="121.75409">
        <ele>163.0</ele>
      </trkpt>
      <trkpt lat="25.075329" lon="121.754146">
        <ele>162.0</ele>
      </trkpt>
      <trkpt lat="25.075452" lon="121.754151">
        <ele>161.0</ele>
      </trkpt>
      <trkpt lat="25.075445" lon="121.754062">
        <ele>162.0</ele>
      </trkpt>
      <trkpt lat="25.075505" lon="121.75398">
        <ele>164.0</ele>
      </trkpt>
      <trkpt lat="25.075743" lon="121.754028">
        <ele>162.0</ele>
      </trkpt>
      <trkpt lat="25.07594" lon="121.754284">
        <ele>155.0</ele>
      </trkpt>
      <trkpt lat="25.076096" lon="121.754351">
        <ele>153.0</ele>
      </trkpt>
      <trkpt lat="25.076299" lon="121.754398">
        <ele>150.0</ele>
      </trkpt>
      <trkpt lat="25.076409" lon="121.754634">
        <ele>148.0</ele>
      </trkpt>
      <trkpt lat="25.07657" lon="121.754675">
        <ele>146.0</ele>
      </trkpt>
      <trkpt lat="25.076637" lon="121.754677">
        <ele>145.0</ele>
      </trkpt>
      <trkpt lat="25.076878" lon="121.754763">
        <ele>148.0</ele>
      </trkpt>
      <trkpt lat="25.076902" lon="121.754832">
        <ele>148.0</ele>
      </trkpt>
      <trkpt lat="25.076969" lon="121.754899">
        <ele>150.0</ele>
      </trkpt>
    </trkseg>
  </trk>
</gpx>
