<?xml version="1.0" encoding="UTF-8"?>
<gpx xmlns="http://www.topografix.com/GPX/1/1" xmlns:xsi="http://www.w3.org/2001/XMLSchema-instance" xsi:schemaLocation="http://www.topografix.com/GPX/1/1 http://www.topografix.com/GPX/1/1/gpx.xsd" version="1.1" creator="Martin Schneider">
  <wpt lat="25.062711" lon="121.710706">
    <ele>157.0</ele>
    <name>Start</name>
  </wpt>
  <wpt lat="25.062711" lon="121.710706">
    <ele>157.0</ele>
    <name>End</name>
  </wpt>
  <wpt lat="25.057823" lon="121.726251">
    <name>1</name>
    <desc>Fork</desc>
  </wpt>
  <wpt lat="25.071497" lon="121.716561">
    <name>2</name>
    <desc>Trailhead to Taian Waterfall</desc>
  </wpt>
  <wpt lat="25.053274" lon="121.730072">
    <ele>706.0</ele>
    <name>Summit Jiangziliaoshan</name>
  </wpt>
  <trk>
    <name>11_Jiangziliaoshan</name>
    <trkseg>
      <trkpt lat="25.062711" lon="121.710706">
        <ele>157.0</ele>
      </trkpt>
      <trkpt lat="25.062711" lon="121.710706">
        <ele>157.0</ele>
      </trkpt>
      <trkpt lat="25.062768" lon="121.710738">
        <ele>158.0</ele>
      </trkpt>
      <trkpt lat="25.062851" lon="121.710847">
        <ele>161.0</ele>
      </trkpt>
      <trkpt lat="25.062962" lon="121.710906">
        <ele>165.0</ele>
      </trkpt>
      <trkpt lat="25.063084" lon="121.710912">
        <ele>167.0</ele>
      </trkpt>
      <trkpt lat="25.06322" lon="121.711035">
        <ele>173.0</ele>
      </trkpt>
      <trkpt lat="25.063312" lon="121.711083">
        <ele>176.0</ele>
      </trkpt>
      <trkpt lat="25.06339" lon="121.711078">
        <ele>178.0</ele>
      </trkpt>
      <trkpt lat="25.063385" lon="121.711024">
        <ele>177.0</ele>
      </trkpt>
      <trkpt lat="25.063327" lon="121.710939">
        <ele>173.0</ele>
      </trkpt>
      <trkpt lat="25.063317" lon="121.710853">
        <ele>170.0</ele>
      </trkpt>
      <trkpt lat="25.063429" lon="121.710912">
        <ele>175.0</ele>
      </trkpt>
      <trkpt lat="25.063793" lon="121.711306">
        <ele>193.0</ele>
      </trkpt>
      <trkpt lat="25.064026" lon="121.711432">
        <ele>198.0</ele>
      </trkpt>
      <trkpt lat="25.064121" lon="121.711668">
        <ele>202.0</ele>
      </trkpt>
      <trkpt lat="25.064192" lon="121.711802">
        <ele>206.0</ele>
      </trkpt>
      <trkpt lat="25.064422" lon="121.712076">
        <ele>216.0</ele>
      </trkpt>
      <trkpt lat="25.064537" lon="121.712253">
        <ele>220.0</ele>
      </trkpt>
      <trkpt lat="25.064614" lon="121.712458">
        <ele>223.0</ele>
      </trkpt>
      <trkpt lat="25.064663" lon="121.712522">
        <ele>224.0</ele>
      </trkpt>
      <trkpt lat="25.064717" lon="121.712592">
        <ele>227.0</ele>
      </trkpt>
      <trkpt lat="25.064792" lon="121.712758">
        <ele>233.0</ele>
      </trkpt>
      <trkpt lat="25.064826" lon="121.712878">
        <ele>237.0</ele>
      </trkpt>
      <trkpt lat="25.064873" lon="121.712958">
        <ele>240.0</ele>
      </trkpt>
      <trkpt lat="25.065287" lon="121.71301">
        <ele>248.0</ele>
      </trkpt>
      <trkpt lat="25.065416" lon="121.713116">
        <ele>254.0</ele>
      </trkpt>
      <trkpt lat="25.06555" lon="121.713343">
        <ele>263.0</ele>
      </trkpt>
      <trkpt lat="25.065653" lon="121.713428">
        <ele>269.0</ele>
      </trkpt>
      <trkpt lat="25.065839" lon="121.713399">
        <ele>271.0</ele>
      </trkpt>
      <trkpt lat="25.066038" lon="121.713286">
        <ele>273.0</ele>
      </trkpt>
      <trkpt lat="25.066172" lon="121.713286">
        <ele>277.0</ele>
      </trkpt>
      <trkpt lat="25.066204" lon="121.71335">
        <ele>279.0</ele>
      </trkpt>
      <trkpt lat="25.066373" lon="121.713513">
        <ele>289.0</ele>
      </trkpt>
      <trkpt lat="25.066482" lon="121.713582">
        <ele>294.0</ele>
      </trkpt>
      <trkpt lat="25.066502" lon="121.713645">
        <ele>296.0</ele>
      </trkpt>
      <trkpt lat="25.066606" lon="121.713793">
        <ele>302.0</ele>
      </trkpt>
      <trkpt lat="25.066887" lon="121.714089">
        <ele>307.0</ele>
      </trkpt>
      <trkpt lat="25.066862" lon="121.714134">
        <ele>309.0</ele>
      </trkpt>
      <trkpt lat="25.066877" lon="121.714256">
        <ele>310.0</ele>
      </trkpt>
      <trkpt lat="25.066948" lon="121.714401">
        <ele>309.0</ele>
      </trkpt>
      <trkpt lat="25.066839" lon="121.714556">
        <ele>312.0</ele>
      </trkpt>
      <trkpt lat="25.066616" lon="121.714721">
        <ele>319.0</ele>
      </trkpt>
      <trkpt lat="25.066543" lon="121.714818">
        <ele>321.0</ele>
      </trkpt>
      <trkpt lat="25.066293" lon="121.71502">
        <ele>331.0</ele>
      </trkpt>
      <trkpt lat="25.066207" lon="121.715244">
        <ele>335.0</ele>
      </trkpt>
      <trkpt lat="25.066138" lon="121.715358">
        <ele>338.0</ele>
      </trkpt>
      <trkpt lat="25.065656" lon="121.715793">
        <ele>362.0</ele>
      </trkpt>
      <trkpt lat="25.065507" lon="121.715862">
        <ele>366.0</ele>
      </trkpt>
      <trkpt lat="25.065339" lon="121.716003">
        <ele>370.0</ele>
      </trkpt>
      <trkpt lat="25.065293" lon="121.716082">
        <ele>371.0</ele>
      </trkpt>
      <trkpt lat="25.065083" lon="121.716234">
        <ele>379.0</ele>
      </trkpt>
      <trkpt lat="25.064885" lon="121.716473">
        <ele>385.0</ele>
      </trkpt>
      <trkpt lat="25.064885" lon="121.716473">
        <ele>385.0</ele>
      </trkpt>
      <trkpt lat="25.064689" lon="121.716564">
        <ele>386.0</ele>
      </trkpt>
      <trkpt lat="25.064555" lon="121.716685">
        <ele>388.0</ele>
      </trkpt>
      <trkpt lat="25.064351" lon="121.717023">
        <ele>390.0</ele>
      </trkpt>
      <trkpt lat="25.06429" lon="121.717235">
        <ele>393.0</ele>
      </trkpt>
      <trkpt lat="25.064062" lon="121.717546">
        <ele>398.0</ele>
      </trkpt>
      <trkpt lat="25.063721" lon="121.717931">
        <ele>399.0</ele>
      </trkpt>
      <trkpt lat="25.063523" lon="121.718057">
        <ele>405.0</ele>
      </trkpt>
      <trkpt lat="25.063523" lon="121.718057">
        <ele>405.0</ele>
      </trkpt>
      <trkpt lat="25.063301" lon="121.718199">
        <ele>415.0</ele>
      </trkpt>
      <trkpt lat="25.062557" lon="121.718581">
        <ele>433.0</ele>
      </trkpt>
      <trkpt lat="25.062446" lon="121.718784">
        <ele>436.0</ele>
      </trkpt>
      <trkpt lat="25.062292" lon="121.718939">
        <ele>439.0</ele>
      </trkpt>
      <trkpt lat="25.062027" lon="121.719069">
        <ele>444.0</ele>
      </trkpt>
      <trkpt lat="25.061835" lon="121.719053">
        <ele>446.0</ele>
      </trkpt>
      <trkpt lat="25.061592" lon="121.719101">
        <ele>450.0</ele>
      </trkpt>
      <trkpt lat="25.061518" lon="121.719289">
        <ele>454.0</ele>
      </trkpt>
      <trkpt lat="25.061371" lon="121.719581">
        <ele>460.0</ele>
      </trkpt>
      <trkpt lat="25.061084" lon="121.720069">
        <ele>473.0</ele>
      </trkpt>
      <trkpt lat="25.060635" lon="121.720671">
        <ele>489.0</ele>
      </trkpt>
      <trkpt lat="25.060392" lon="121.72085">
        <ele>497.0</ele>
      </trkpt>
      <trkpt lat="25.060097" lon="121.721102">
        <ele>509.0</ele>
      </trkpt>
      <trkpt lat="25.059994" lon="121.721159">
        <ele>513.0</ele>
      </trkpt>
      <trkpt lat="25.059854" lon="121.721833">
        <ele>525.0</ele>
      </trkpt>
      <trkpt lat="25.059707" lon="121.722102">
        <ele>529.0</ele>
      </trkpt>
      <trkpt lat="25.059559" lon="121.722183">
        <ele>533.0</ele>
      </trkpt>
      <trkpt lat="25.059412" lon="121.722159">
        <ele>536.0</ele>
      </trkpt>
      <trkpt lat="25.058867" lon="121.722159">
        <ele>543.0</ele>
      </trkpt>
      <trkpt lat="25.058675" lon="121.722232">
        <ele>545.0</ele>
      </trkpt>
      <trkpt lat="25.058351" lon="121.722866">
        <ele>552.0</ele>
      </trkpt>
      <trkpt lat="25.058285" lon="121.723167">
        <ele>550.0</ele>
      </trkpt>
      <trkpt lat="25.05827" lon="121.723468">
        <ele>551.0</ele>
      </trkpt>
      <trkpt lat="25.05827" lon="121.723695">
        <ele>552.0</ele>
      </trkpt>
      <trkpt lat="25.058344" lon="121.724037">
        <ele>557.0</ele>
      </trkpt>
      <trkpt lat="25.058314" lon="121.724248">
        <ele>557.0</ele>
      </trkpt>
      <trkpt lat="25.058292" lon="121.724671">
        <ele>555.0</ele>
      </trkpt>
      <trkpt lat="25.058307" lon="121.724842">
        <ele>555.0</ele>
      </trkpt>
      <trkpt lat="25.058402" lon="121.724973">
        <ele>556.0</ele>
      </trkpt>
      <trkpt lat="25.058383" lon="121.725472">
        <ele>559.0</ele>
      </trkpt>
      <trkpt lat="25.058333" lon="121.725646">
        <ele>561.0</ele>
      </trkpt>
      <trkpt lat="25.057799" lon="121.72624">
        <ele>561.0</ele>
      </trkpt>
      <trkpt lat="25.057368" lon="121.726462">
        <ele>567.0</ele>
      </trkpt>
      <trkpt lat="25.057084" lon="121.726516">
        <ele>572.0</ele>
      </trkpt>
      <trkpt lat="25.057" lon="121.726593">
        <ele>576.0</ele>
      </trkpt>
      <trkpt lat="25.056865" lon="121.726803">
        <ele>582.0</ele>
      </trkpt>
      <trkpt lat="25.05683" lon="121.726829">
        <ele>583.0</ele>
      </trkpt>
      <trkpt lat="25.056745" lon="121.726864">
        <ele>585.0</ele>
      </trkpt>
      <trkpt lat="25.056697" lon="121.726853">
        <ele>586.0</ele>
      </trkpt>
      <trkpt lat="25.056637" lon="121.726865">
        <ele>587.0</ele>
      </trkpt>
      <trkpt lat="25.056458" lon="121.726981">
        <ele>590.0</ele>
      </trkpt>
      <trkpt lat="25.056358" lon="121.72697">
        <ele>591.0</ele>
      </trkpt>
      <trkpt lat="25.056306" lon="121.726988">
        <ele>592.0</ele>
      </trkpt>
      <trkpt lat="25.056153" lon="121.727157">
        <ele>598.0</ele>
      </trkpt>
      <trkpt lat="25.05599" lon="121.727276">
        <ele>605.0</ele>
      </trkpt>
      <trkpt lat="25.055927" lon="121.727368">
        <ele>609.0</ele>
      </trkpt>
      <trkpt lat="25.055264" lon="121.72791">
        <ele>628.0</ele>
      </trkpt>
      <trkpt lat="25.05483" lon="121.72838">
        <ele>646.0</ele>
      </trkpt>
      <trkpt lat="25.054697" lon="121.728438">
        <ele>649.0</ele>
      </trkpt>
      <trkpt lat="25.054578" lon="121.728441">
        <ele>650.0</ele>
      </trkpt>
      <trkpt lat="25.054478" lon="121.7285">
        <ele>653.0</ele>
      </trkpt>
      <trkpt lat="25.054424" lon="121.728571">
        <ele>655.0</ele>
      </trkpt>
      <trkpt lat="25.054386" lon="121.728692">
        <ele>660.0</ele>
      </trkpt>
      <trkpt lat="25.054332" lon="121.729004">
        <ele>671.0</ele>
      </trkpt>
      <trkpt lat="25.054302" lon="121.729088">
        <ele>675.0</ele>
      </trkpt>
      <trkpt lat="25.054056" lon="121.729385">
        <ele>686.0</ele>
      </trkpt>
      <trkpt lat="25.053997" lon="121.729494">
        <ele>689.0</ele>
      </trkpt>
      <trkpt lat="25.053923" lon="121.729566">
        <ele>691.0</ele>
      </trkpt>
      <trkpt lat="25.053868" lon="121.729651">
        <ele>693.0</ele>
      </trkpt>
      <trkpt lat="25.053805" lon="121.729794">
        <ele>696.0</ele>
      </trkpt>
      <trkpt lat="25.053783" lon="121.729821">
        <ele>697.0</ele>
      </trkpt>
      <trkpt lat="25.053611" lon="121.72986">
        <ele>700.0</ele>
      </trkpt>
      <trkpt lat="25.053523" lon="121.729904">
        <ele>703.0</ele>
      </trkpt>
      <trkpt lat="25.053363" lon="121.729998">
        <ele>707.0</ele>
      </trkpt>
      <trkpt lat="25.053332" lon="121.730039">
        <ele>708.0</ele>
      </trkpt>
      <trkpt lat="25.053274" lon="121.730072">
        <ele>706.0</ele>
      </trkpt>
      <trkpt lat="25.053281" lon="121.730031">
        <ele>706.0</ele>
      </trkpt>
      <trkpt lat="25.053281" lon="121.730031">
        <ele>706.0</ele>
      </trkpt>
      <trkpt lat="25.053274" lon="121.730072">
        <ele>706.0</ele>
      </trkpt>
      <trkpt lat="25.053332" lon="121.730039">
        <ele>708.0</ele>
      </trkpt>
      <trkpt lat="25.053363" lon="121.729998">
        <ele>707.0</ele>
      </trkpt>
      <trkpt lat="25.053523" lon="121.729904">
        <ele>703.0</ele>
      </trkpt>
      <trkpt lat="25.053611" lon="121.72986">
        <ele>700.0</ele>
      </trkpt>
      <trkpt lat="25.053783" lon="121.729821">
        <ele>697.0</ele>
      </trkpt>
      <trkpt lat="25.053805" lon="121.729794">
        <ele>696.0</ele>
      </trkpt>
      <trkpt lat="25.053868" lon="121.729651">
        <ele>693.0</ele>
      </trkpt>
      <trkpt lat="25.053923" lon="121.729566">
        <ele>691.0</ele>
      </trkpt>
      <trkpt lat="25.053997" lon="121.729494">
        <ele>689.0</ele>
      </trkpt>
      <trkpt lat="25.054056" lon="121.729385">
        <ele>686.0</ele>
      </trkpt>
      <trkpt lat="25.054302" lon="121.729088">
        <ele>675.0</ele>
      </trkpt>
      <trkpt lat="25.054332" lon="121.729004">
        <ele>671.0</ele>
      </trkpt>
      <trkpt lat="25.054386" lon="121.728692">
        <ele>660.0</ele>
      </trkpt>
      <trkpt lat="25.054424" lon="121.728571">
        <ele>655.0</ele>
      </trkpt>
      <trkpt lat="25.054478" lon="121.7285">
        <ele>653.0</ele>
      </trkpt>
      <trkpt lat="25.054578" lon="121.728441">
        <ele>650.0</ele>
      </trkpt>
      <trkpt lat="25.054697" lon="121.728438">
        <ele>649.0</ele>
      </trkpt>
      <trkpt lat="25.05483" lon="121.72838">
        <ele>646.0</ele>
      </trkpt>
      <trkpt lat="25.055264" lon="121.72791">
        <ele>628.0</ele>
      </trkpt>
      <trkpt lat="25.055927" lon="121.727368">
        <ele>609.0</ele>
      </trkpt>
      <trkpt lat="25.05599" lon="121.727276">
        <ele>605.0</ele>
      </trkpt>
      <trkpt lat="25.056153" lon="121.727157">
        <ele>598.0</ele>
      </trkpt>
      <trkpt lat="25.056306" lon="121.726988">
        <ele>592.0</ele>
      </trkpt>
      <trkpt lat="25.056358" lon="121.72697">
        <ele>591.0</ele>
      </trkpt>
      <trkpt lat="25.056458" lon="121.726981">
        <ele>590.0</ele>
      </trkpt>
      <trkpt lat="25.056637" lon="121.726865">
        <ele>587.0</ele>
      </trkpt>
      <trkpt lat="25.056697" lon="121.726853">
        <ele>586.0</ele>
      </trkpt>
      <trkpt lat="25.056745" lon="121.726864">
        <ele>585.0</ele>
      </trkpt>
      <trkpt lat="25.05683" lon="121.726829">
        <ele>583.0</ele>
      </trkpt>
      <trkpt lat="25.056865" lon="121.726803">
        <ele>582.0</ele>
      </trkpt>
      <trkpt lat="25.057" lon="121.726593">
        <ele>576.0</ele>
      </trkpt>
      <trkpt lat="25.057084" lon="121.726516">
        <ele>572.0</ele>
      </trkpt>
      <trkpt lat="25.057368" lon="121.726462">
        <ele>567.0</ele>
      </trkpt>
      <trkpt lat="25.057799" lon="121.72624">
        <ele>561.0</ele>
      </trkpt>
      <trkpt lat="25.058333" lon="121.725646">
        <ele>561.0</ele>
      </trkpt>
      <trkpt lat="25.058415" lon="121.725573">
        <ele>559.0</ele>
      </trkpt>
      <trkpt lat="25.058598" lon="121.724889">
        <ele>555.0</ele>
      </trkpt>
      <trkpt lat="25.0587" lon="121.724799">
        <ele>554.0</ele>
      </trkpt>
      <trkpt lat="25.059141" lon="121.724554">
        <ele>551.0</ele>
      </trkpt>
      <trkpt lat="25.05918" lon="121.724551">
        <ele>550.0</ele>
      </trkpt>
      <trkpt lat="25.059228" lon="121.724591">
        <ele>549.0</ele>
      </trkpt>
      <trkpt lat="25.059276" lon="121.724677">
        <ele>548.0</ele>
      </trkpt>
      <trkpt lat="25.059298" lon="121.724679">
        <ele>547.0</ele>
      </trkpt>
      <trkpt lat="25.059324" lon="121.724652">
        <ele>546.0</ele>
      </trkpt>
      <trkpt lat="25.059339" lon="121.7246">
        <ele>546.0</ele>
      </trkpt>
      <trkpt lat="25.059354" lon="121.724478">
        <ele>545.0</ele>
      </trkpt>
      <trkpt lat="25.059412" lon="121.724408">
        <ele>544.0</ele>
      </trkpt>
      <trkpt lat="25.059773" lon="121.724144">
        <ele>535.0</ele>
      </trkpt>
      <trkpt lat="25.059807" lon="121.724143">
        <ele>534.0</ele>
      </trkpt>
      <trkpt lat="25.060002" lon="121.724235">
        <ele>529.0</ele>
      </trkpt>
      <trkpt lat="25.060075" lon="121.72437">
        <ele>526.0</ele>
      </trkpt>
      <trkpt lat="25.060108" lon="121.724355">
        <ele>526.0</ele>
      </trkpt>
      <trkpt lat="25.060167" lon="121.724209">
        <ele>525.0</ele>
      </trkpt>
      <trkpt lat="25.060219" lon="121.724125">
        <ele>524.0</ele>
      </trkpt>
      <trkpt lat="25.060285" lon="121.724084">
        <ele>522.0</ele>
      </trkpt>
      <trkpt lat="25.060326" lon="121.724073">
        <ele>521.0</ele>
      </trkpt>
      <trkpt lat="25.060477" lon="121.724107">
        <ele>517.0</ele>
      </trkpt>
      <trkpt lat="25.060619" lon="121.724099">
        <ele>514.0</ele>
      </trkpt>
      <trkpt lat="25.060751" lon="121.724119">
        <ele>511.0</ele>
      </trkpt>
      <trkpt lat="25.060818" lon="121.72409">
        <ele>509.0</ele>
      </trkpt>
      <trkpt lat="25.061097" lon="121.7239">
        <ele>502.0</ele>
      </trkpt>
      <trkpt lat="25.061168" lon="121.723744">
        <ele>499.0</ele>
      </trkpt>
      <trkpt lat="25.061293" lon="121.723703">
        <ele>496.0</ele>
      </trkpt>
      <trkpt lat="25.061506" lon="121.723573">
        <ele>490.0</ele>
      </trkpt>
      <trkpt lat="25.061554" lon="121.723455">
        <ele>488.0</ele>
      </trkpt>
      <trkpt lat="25.061945" lon="121.722847">
        <ele>469.0</ele>
      </trkpt>
      <trkpt lat="25.062196" lon="121.722856">
        <ele>462.0</ele>
      </trkpt>
      <trkpt lat="25.062396" lon="121.722943">
        <ele>458.0</ele>
      </trkpt>
      <trkpt lat="25.062469" lon="121.723021">
        <ele>457.0</ele>
      </trkpt>
      <trkpt lat="25.0625573" lon="121.7230896">
        <ele>455.0</ele>
      </trkpt>
      <trkpt lat="25.062557" lon="121.72309">
        <ele>455.0</ele>
      </trkpt>
      <trkpt lat="25.062729" lon="121.723223">
        <ele>451.0</ele>
      </trkpt>
      <trkpt lat="25.062791" lon="121.723168">
        <ele>449.0</ele>
      </trkpt>
      <trkpt lat="25.062829" lon="121.723055">
        <ele>447.0</ele>
      </trkpt>
      <trkpt lat="25.062873" lon="121.723054">
        <ele>446.0</ele>
      </trkpt>
      <trkpt lat="25.063003" lon="121.722879">
        <ele>441.0</ele>
      </trkpt>
      <trkpt lat="25.063003" lon="121.722879">
        <ele>441.0</ele>
      </trkpt>
      <trkpt lat="25.063014" lon="121.722812">
        <ele>440.0</ele>
      </trkpt>
      <trkpt lat="25.062999" lon="121.722622">
        <ele>440.0</ele>
      </trkpt>
      <trkpt lat="25.063035" lon="121.722573">
        <ele>439.0</ele>
      </trkpt>
      <trkpt lat="25.063035" lon="121.722573">
        <ele>439.0</ele>
      </trkpt>
      <trkpt lat="25.063053" lon="121.72255">
        <ele>439.0</ele>
      </trkpt>
      <trkpt lat="25.063012" lon="121.722371">
        <ele>438.0</ele>
      </trkpt>
      <trkpt lat="25.063012" lon="121.722371">
        <ele>438.0</ele>
      </trkpt>
      <trkpt lat="25.062975" lon="121.722234">
        <ele>438.0</ele>
      </trkpt>
      <trkpt lat="25.062981" lon="121.722167">
        <ele>437.0</ele>
      </trkpt>
      <trkpt lat="25.062981" lon="121.722167">
        <ele>437.0</ele>
      </trkpt>
      <trkpt lat="25.062988" lon="121.722097">
        <ele>436.0</ele>
      </trkpt>
      <trkpt lat="25.062988" lon="121.722097">
        <ele>436.0</ele>
      </trkpt>
      <trkpt lat="25.06309" lon="121.721902">
        <ele>433.0</ele>
      </trkpt>
      <trkpt lat="25.06309" lon="121.721902">
        <ele>433.0</ele>
      </trkpt>
      <trkpt lat="25.063132" lon="121.721821">
        <ele>431.0</ele>
      </trkpt>
      <trkpt lat="25.063124" lon="121.7218">
        <ele>431.0</ele>
      </trkpt>
      <trkpt lat="25.063124" lon="121.7218">
        <ele>431.0</ele>
      </trkpt>
      <trkpt lat="25.06307" lon="121.721631">
        <ele>430.0</ele>
      </trkpt>
      <trkpt lat="25.06307" lon="121.721631">
        <ele>430.0</ele>
      </trkpt>
      <trkpt lat="25.063055" lon="121.721548">
        <ele>429.0</ele>
      </trkpt>
      <trkpt lat="25.063147" lon="121.721435">
        <ele>424.0</ele>
      </trkpt>
      <trkpt lat="25.063147" lon="121.721252">
        <ele>420.0</ele>
      </trkpt>
      <trkpt lat="25.063113" lon="121.721113">
        <ele>418.0</ele>
      </trkpt>
      <trkpt lat="25.063419" lon="121.720786">
        <ele>399.0</ele>
      </trkpt>
      <trkpt lat="25.06365" lon="121.720746">
        <ele>392.0</ele>
      </trkpt>
      <trkpt lat="25.063869" lon="121.720758">
        <ele>385.0</ele>
      </trkpt>
      <trkpt lat="25.063976" lon="121.720732">
        <ele>381.0</ele>
      </trkpt>
      <trkpt lat="25.063963" lon="121.720554">
        <ele>379.0</ele>
      </trkpt>
      <trkpt lat="25.064247" lon="121.720657">
        <ele>373.0</ele>
      </trkpt>
      <trkpt lat="25.064324" lon="121.720626">
        <ele>371.0</ele>
      </trkpt>
      <trkpt lat="25.065061" lon="121.720132">
        <ele>344.0</ele>
      </trkpt>
      <trkpt lat="25.065289" lon="121.720016">
        <ele>337.0</ele>
      </trkpt>
      <trkpt lat="25.065517" lon="121.720153">
        <ele>336.0</ele>
      </trkpt>
      <trkpt lat="25.065937" lon="121.720502">
        <ele>336.0</ele>
      </trkpt>
      <trkpt lat="25.066061" lon="121.720556">
        <ele>334.0</ele>
      </trkpt>
      <trkpt lat="25.066274" lon="121.720584">
        <ele>330.0</ele>
      </trkpt>
      <trkpt lat="25.066319" lon="121.720626">
        <ele>330.0</ele>
      </trkpt>
      <trkpt lat="25.066402" lon="121.720671">
        <ele>329.0</ele>
      </trkpt>
      <trkpt lat="25.066445" lon="121.720671">
        <ele>328.0</ele>
      </trkpt>
      <trkpt lat="25.066544" lon="121.720708">
        <ele>326.0</ele>
      </trkpt>
      <trkpt lat="25.066637" lon="121.720574">
        <ele>321.0</ele>
      </trkpt>
      <trkpt lat="25.0668" lon="121.720528">
        <ele>316.0</ele>
      </trkpt>
      <trkpt lat="25.066808" lon="121.720435">
        <ele>314.0</ele>
      </trkpt>
      <trkpt lat="25.066925" lon="121.720237">
        <ele>306.0</ele>
      </trkpt>
      <trkpt lat="25.067013" lon="121.720146">
        <ele>302.0</ele>
      </trkpt>
      <trkpt lat="25.067038" lon="121.720075">
        <ele>299.0</ele>
      </trkpt>
      <trkpt lat="25.067123" lon="121.720056">
        <ele>296.0</ele>
      </trkpt>
      <trkpt lat="25.067166" lon="121.719861">
        <ele>293.0</ele>
      </trkpt>
      <trkpt lat="25.067197" lon="121.719829">
        <ele>292.0</ele>
      </trkpt>
      <trkpt lat="25.067187" lon="121.719777">
        <ele>291.0</ele>
      </trkpt>
      <trkpt lat="25.067213" lon="121.719648">
        <ele>289.0</ele>
      </trkpt>
      <trkpt lat="25.067272" lon="121.719652">
        <ele>288.0</ele>
      </trkpt>
      <trkpt lat="25.067446" lon="121.719581">
        <ele>282.0</ele>
      </trkpt>
      <trkpt lat="25.067454" lon="121.719282">
        <ele>280.0</ele>
      </trkpt>
      <trkpt lat="25.067471" lon="121.719174">
        <ele>279.0</ele>
      </trkpt>
      <trkpt lat="25.06762" lon="121.719153">
        <ele>275.0</ele>
      </trkpt>
      <trkpt lat="25.0678" lon="121.719203">
        <ele>271.0</ele>
      </trkpt>
      <trkpt lat="25.067839" lon="121.719121">
        <ele>270.0</ele>
      </trkpt>
      <trkpt lat="25.067907" lon="121.719037">
        <ele>268.0</ele>
      </trkpt>
      <trkpt lat="25.068017" lon="121.718994">
        <ele>265.0</ele>
      </trkpt>
      <trkpt lat="25.06815" lon="121.718996">
        <ele>262.0</ele>
      </trkpt>
      <trkpt lat="25.068216" lon="121.718969">
        <ele>260.0</ele>
      </trkpt>
      <trkpt lat="25.068217" lon="121.719013">
        <ele>260.0</ele>
      </trkpt>
      <trkpt lat="25.068191" lon="121.719058">
        <ele>261.0</ele>
      </trkpt>
      <trkpt lat="25.068021" lon="121.71915">
        <ele>266.0</ele>
      </trkpt>
      <trkpt lat="25.067995" lon="121.719172">
        <ele>267.0</ele>
      </trkpt>
      <trkpt lat="25.067974" lon="121.719235">
        <ele>267.0</ele>
      </trkpt>
      <trkpt lat="25.068008" lon="121.719593">
        <ele>267.0</ele>
      </trkpt>
      <trkpt lat="25.067995" lon="121.719658">
        <ele>267.0</ele>
      </trkpt>
      <trkpt lat="25.067916" lon="121.719848">
        <ele>270.0</ele>
      </trkpt>
      <trkpt lat="25.067916" lon="121.719934">
        <ele>270.0</ele>
      </trkpt>
      <trkpt lat="25.067963" lon="121.720112">
        <ele>271.0</ele>
      </trkpt>
      <trkpt lat="25.068021" lon="121.720192">
        <ele>270.0</ele>
      </trkpt>
      <trkpt lat="25.06808" lon="121.720237">
        <ele>269.0</ele>
      </trkpt>
      <trkpt lat="25.068141" lon="121.720245">
        <ele>267.0</ele>
      </trkpt>
      <trkpt lat="25.068222" lon="121.720233">
        <ele>264.0</ele>
      </trkpt>
      <trkpt lat="25.068481" lon="121.720055">
        <ele>254.0</ele>
      </trkpt>
      <trkpt lat="25.06855" lon="121.720033">
        <ele>253.0</ele>
      </trkpt>
      <trkpt lat="25.068596" lon="121.720047">
        <ele>252.0</ele>
      </trkpt>
      <trkpt lat="25.068645" lon="121.72009">
        <ele>251.0</ele>
      </trkpt>
      <trkpt lat="25.068839" lon="121.720303">
        <ele>247.0</ele>
      </trkpt>
      <trkpt lat="25.068904" lon="121.720334">
        <ele>245.0</ele>
      </trkpt>
      <trkpt lat="25.068974" lon="121.720345">
        <ele>243.0</ele>
      </trkpt>
      <trkpt lat="25.06903" lon="121.72033">
        <ele>241.0</ele>
      </trkpt>
      <trkpt lat="25.069128" lon="121.720273">
        <ele>238.0</ele>
      </trkpt>
      <trkpt lat="25.069164" lon="121.720225">
        <ele>238.0</ele>
      </trkpt>
      <trkpt lat="25.069148" lon="121.720062">
        <ele>239.0</ele>
      </trkpt>
      <trkpt lat="25.069049" lon="121.719779">
        <ele>242.0</ele>
      </trkpt>
      <trkpt lat="25.069036" lon="121.719689">
        <ele>242.0</ele>
      </trkpt>
      <trkpt lat="25.069038" lon="121.719573">
        <ele>242.0</ele>
      </trkpt>
      <trkpt lat="25.069059" lon="121.719483">
        <ele>241.0</ele>
      </trkpt>
      <trkpt lat="25.069094" lon="121.719433">
        <ele>241.0</ele>
      </trkpt>
      <trkpt lat="25.069835" lon="121.718924">
        <ele>227.0</ele>
      </trkpt>
      <trkpt lat="25.0699" lon="121.718912">
        <ele>225.0</ele>
      </trkpt>
      <trkpt lat="25.069994" lon="121.718978">
        <ele>224.0</ele>
      </trkpt>
      <trkpt lat="25.070084" lon="121.719189">
        <ele>223.0</ele>
      </trkpt>
      <trkpt lat="25.070068" lon="121.719298">
        <ele>223.0</ele>
      </trkpt>
      <trkpt lat="25.069925" lon="121.719497">
        <ele>225.0</ele>
      </trkpt>
      <trkpt lat="25.069921" lon="121.719624">
        <ele>225.0</ele>
      </trkpt>
      <trkpt lat="25.070031" lon="121.720066">
        <ele>221.0</ele>
      </trkpt>
      <trkpt lat="25.070028" lon="121.720207">
        <ele>219.0</ele>
      </trkpt>
      <trkpt lat="25.069988" lon="121.720314">
        <ele>219.0</ele>
      </trkpt>
      <trkpt lat="25.069943" lon="121.720373">
        <ele>219.0</ele>
      </trkpt>
      <trkpt lat="25.069943" lon="121.720373">
        <ele>219.0</ele>
      </trkpt>
      <trkpt lat="25.069676" lon="121.720647">
        <ele>222.0</ele>
      </trkpt>
      <trkpt lat="25.069604" lon="121.720766">
        <ele>223.0</ele>
      </trkpt>
      <trkpt lat="25.069516" lon="121.72112">
        <ele>223.0</ele>
      </trkpt>
      <trkpt lat="25.069389" lon="121.721489">
        <ele>224.0</ele>
      </trkpt>
      <trkpt lat="25.069386" lon="121.721564">
        <ele>223.0</ele>
      </trkpt>
      <trkpt lat="25.069382" lon="121.721666">
        <ele>222.0</ele>
      </trkpt>
      <trkpt lat="25.069394" lon="121.721806">
        <ele>225.0</ele>
      </trkpt>
      <trkpt lat="25.069475" lon="121.721908">
        <ele>226.0</ele>
      </trkpt>
      <trkpt lat="25.069584" lon="121.721985">
        <ele>226.0</ele>
      </trkpt>
      <trkpt lat="25.069824" lon="121.722011">
        <ele>223.0</ele>
      </trkpt>
      <trkpt lat="25.070004" lon="121.721989">
        <ele>221.0</ele>
      </trkpt>
      <trkpt lat="25.070167" lon="121.721917">
        <ele>218.0</ele>
      </trkpt>
      <trkpt lat="25.070408" lon="121.721722">
        <ele>211.0</ele>
      </trkpt>
      <trkpt lat="25.070581" lon="121.721651">
        <ele>208.0</ele>
      </trkpt>
      <trkpt lat="25.071007" lon="121.721614">
        <ele>208.0</ele>
      </trkpt>
      <trkpt lat="25.071103" lon="121.721551">
        <ele>208.0</ele>
      </trkpt>
      <trkpt lat="25.071224" lon="121.721337">
        <ele>205.0</ele>
      </trkpt>
      <trkpt lat="25.071301" lon="121.721255">
        <ele>204.0</ele>
      </trkpt>
      <trkpt lat="25.07142" lon="121.721214">
        <ele>203.0</ele>
      </trkpt>
      <trkpt lat="25.071948" lon="121.721173">
        <ele>201.0</ele>
      </trkpt>
      <trkpt lat="25.072076" lon="121.721203">
        <ele>202.0</ele>
      </trkpt>
      <trkpt lat="25.072349" lon="121.721325">
        <ele>206.0</ele>
      </trkpt>
      <trkpt lat="25.072439" lon="121.721336">
        <ele>206.0</ele>
      </trkpt>
      <trkpt lat="25.072511" lon="121.721295">
        <ele>205.0</ele>
      </trkpt>
      <trkpt lat="25.072737" lon="121.721066">
        <ele>200.0</ele>
      </trkpt>
      <trkpt lat="25.072767" lon="121.720983">
        <ele>197.0</ele>
      </trkpt>
      <trkpt lat="25.072762" lon="121.720905">
        <ele>194.0</ele>
      </trkpt>
      <trkpt lat="25.072722" lon="121.720873">
        <ele>193.0</ele>
      </trkpt>
      <trkpt lat="25.072389" lon="121.72088">
        <ele>192.0</ele>
      </trkpt>
      <trkpt lat="25.072303" lon="121.720865">
        <ele>192.0</ele>
      </trkpt>
      <trkpt lat="25.072224" lon="121.72083">
        <ele>191.0</ele>
      </trkpt>
      <trkpt lat="25.072199" lon="121.720795">
        <ele>190.0</ele>
      </trkpt>
      <trkpt lat="25.072158" lon="121.720715">
        <ele>189.0</ele>
      </trkpt>
      <trkpt lat="25.072146" lon="121.720678">
        <ele>189.0</ele>
      </trkpt>
      <trkpt lat="25.072162" lon="121.720607">
        <ele>188.0</ele>
      </trkpt>
      <trkpt lat="25.072282" lon="121.720378">
        <ele>183.0</ele>
      </trkpt>
      <trkpt lat="25.072374" lon="121.720146">
        <ele>178.0</ele>
      </trkpt>
      <trkpt lat="25.072381" lon="121.72006">
        <ele>176.0</ele>
      </trkpt>
      <trkpt lat="25.07237" lon="121.719988">
        <ele>175.0</ele>
      </trkpt>
      <trkpt lat="25.072316" lon="121.719928">
        <ele>175.0</ele>
      </trkpt>
      <trkpt lat="25.071934" lon="121.719732">
        <ele>181.0</ele>
      </trkpt>
      <trkpt lat="25.07188" lon="121.71965">
        <ele>182.0</ele>
      </trkpt>
      <trkpt lat="25.071903" lon="121.719562">
        <ele>182.0</ele>
      </trkpt>
      <trkpt lat="25.071964" lon="121.719447">
        <ele>180.0</ele>
      </trkpt>
      <trkpt lat="25.071983" lon="121.719378">
        <ele>179.0</ele>
      </trkpt>
      <trkpt lat="25.07196" lon="121.719275">
        <ele>179.0</ele>
      </trkpt>
      <trkpt lat="25.071873" lon="121.719116">
        <ele>181.0</ele>
      </trkpt>
      <trkpt lat="25.071852" lon="121.719026">
        <ele>181.0</ele>
      </trkpt>
      <trkpt lat="25.071849" lon="121.71892">
        <ele>181.0</ele>
      </trkpt>
      <trkpt lat="25.07192" lon="121.718594">
        <ele>178.0</ele>
      </trkpt>
      <trkpt lat="25.07192" lon="121.718346">
        <ele>177.0</ele>
      </trkpt>
      <trkpt lat="25.071948" lon="121.71822">
        <ele>175.0</ele>
      </trkpt>
      <trkpt lat="25.072085" lon="121.718082">
        <ele>169.0</ele>
      </trkpt>
      <trkpt lat="25.072085" lon="121.718082">
        <ele>169.0</ele>
      </trkpt>
      <trkpt lat="25.072173" lon="121.717993">
        <ele>165.0</ele>
      </trkpt>
      <trkpt lat="25.072308" lon="121.717599">
        <ele>158.0</ele>
      </trkpt>
      <trkpt lat="25.072399" lon="121.717478">
        <ele>155.0</ele>
      </trkpt>
      <trkpt lat="25.07246" lon="121.717444">
        <ele>153.0</ele>
      </trkpt>
      <trkpt lat="25.072567" lon="121.717425">
        <ele>151.0</ele>
      </trkpt>
      <trkpt lat="25.072843" lon="121.717497">
        <ele>148.0</ele>
      </trkpt>
      <trkpt lat="25.072927" lon="121.717499">
        <ele>146.0</ele>
      </trkpt>
      <trkpt lat="25.072969" lon="121.717464">
        <ele>145.0</ele>
      </trkpt>
      <trkpt lat="25.072976" lon="121.717377">
        <ele>143.0</ele>
      </trkpt>
      <trkpt lat="25.072928" lon="121.717308">
        <ele>143.0</ele>
      </trkpt>
      <trkpt lat="25.0725" lon="121.716938">
        <ele>144.0</ele>
      </trkpt>
      <trkpt lat="25.072362" lon="121.71688">
        <ele>145.0</ele>
      </trkpt>
      <trkpt lat="25.071703" lon="121.716817">
        <ele>155.0</ele>
      </trkpt>
      <trkpt lat="25.071618" lon="121.716775">
        <ele>155.0</ele>
      </trkpt>
      <trkpt lat="25.071529" lon="121.716695">
        <ele>156.0</ele>
      </trkpt>
      <trkpt lat="25.071517" lon="121.716648">
        <ele>156.0</ele>
      </trkpt>
      <trkpt lat="25.071517" lon="121.716648">
        <ele>156.0</ele>
      </trkpt>
      <trkpt lat="25.071494" lon="121.716561">
        <ele>158.0</ele>
      </trkpt>
      <trkpt lat="25.071258" lon="121.716591">
        <ele>164.0</ele>
      </trkpt>
      <trkpt lat="25.071102" lon="121.716646">
        <ele>167.0</ele>
      </trkpt>
      <trkpt lat="25.071014" lon="121.716771">
        <ele>172.0</ele>
      </trkpt>
      <trkpt lat="25.070952" lon="121.716798">
        <ele>174.0</ele>
      </trkpt>
      <trkpt lat="25.070676" lon="121.716799">
        <ele>180.0</ele>
      </trkpt>
      <trkpt lat="25.070479" lon="121.716781">
        <ele>184.0</ele>
      </trkpt>
      <trkpt lat="25.070354" lon="121.716728">
        <ele>185.0</ele>
      </trkpt>
      <trkpt lat="25.070301" lon="121.716734">
        <ele>186.0</ele>
      </trkpt>
      <trkpt lat="25.070119" lon="121.716763">
        <ele>190.0</ele>
      </trkpt>
      <trkpt lat="25.070082" lon="121.716822">
        <ele>192.0</ele>
      </trkpt>
      <trkpt lat="25.070075" lon="121.716913">
        <ele>193.0</ele>
      </trkpt>
      <trkpt lat="25.070087" lon="121.716926">
        <ele>193.0</ele>
      </trkpt>
      <trkpt lat="25.070087" lon="121.716926">
        <ele>193.0</ele>
      </trkpt>
      <trkpt lat="25.070091" lon="121.71693">
        <ele>193.0</ele>
      </trkpt>
      <trkpt lat="25.070279" lon="121.717132">
        <ele>194.0</ele>
      </trkpt>
      <trkpt lat="25.070245" lon="121.717272">
        <ele>197.0</ele>
      </trkpt>
      <trkpt lat="25.070124" lon="121.717406">
        <ele>200.0</ele>
      </trkpt>
      <trkpt lat="25.070012" lon="121.7174">
        <ele>201.0</ele>
      </trkpt>
      <trkpt lat="25.069866" lon="121.717298">
        <ele>203.0</ele>
      </trkpt>
      <trkpt lat="25.069834" lon="121.717239">
        <ele>203.0</ele>
      </trkpt>
      <trkpt lat="25.069834" lon="121.717239">
        <ele>203.0</ele>
      </trkpt>
      <trkpt lat="25.069798" lon="121.717175">
        <ele>203.0</ele>
      </trkpt>
      <trkpt lat="25.069701" lon="121.7171">
        <ele>205.0</ele>
      </trkpt>
      <trkpt lat="25.06955" lon="121.717057">
        <ele>208.0</ele>
      </trkpt>
      <trkpt lat="25.069483" lon="121.716982">
        <ele>209.0</ele>
      </trkpt>
      <trkpt lat="25.069536" lon="121.716735">
        <ele>206.0</ele>
      </trkpt>
      <trkpt lat="25.069628" lon="121.716703">
        <ele>203.0</ele>
      </trkpt>
      <trkpt lat="25.069745" lon="121.716767">
        <ele>200.0</ele>
      </trkpt>
      <trkpt lat="25.069798" lon="121.716746">
        <ele>198.0</ele>
      </trkpt>
      <trkpt lat="25.069798" lon="121.716746">
        <ele>198.0</ele>
      </trkpt>
      <trkpt lat="25.069876" lon="121.716714">
        <ele>195.0</ele>
      </trkpt>
      <trkpt lat="25.070119" lon="121.716763">
        <ele>190.0</ele>
      </trkpt>
      <trkpt lat="25.070301" lon="121.716734">
        <ele>186.0</ele>
      </trkpt>
      <trkpt lat="25.070313" lon="121.716644">
        <ele>185.0</ele>
      </trkpt>
      <trkpt lat="25.070401" lon="121.71657">
        <ele>185.0</ele>
      </trkpt>
      <trkpt lat="25.070514" lon="121.716243">
        <ele>191.0</ele>
      </trkpt>
      <trkpt lat="25.070569" lon="121.716173">
        <ele>192.0</ele>
      </trkpt>
      <trkpt lat="25.070518" lon="121.716124">
        <ele>194.0</ele>
      </trkpt>
      <trkpt lat="25.070367" lon="121.716048">
        <ele>198.0</ele>
      </trkpt>
      <trkpt lat="25.070084" lon="121.716068">
        <ele>203.0</ele>
      </trkpt>
      <trkpt lat="25.070084" lon="121.716068">
        <ele>203.0</ele>
      </trkpt>
      <trkpt lat="25.06991" lon="121.716081">
        <ele>206.0</ele>
      </trkpt>
      <trkpt lat="25.069657" lon="121.715952">
        <ele>215.0</ele>
      </trkpt>
      <trkpt lat="25.069541" lon="121.715662">
        <ele>222.0</ele>
      </trkpt>
      <trkpt lat="25.069203" lon="121.715369">
        <ele>233.0</ele>
      </trkpt>
      <trkpt lat="25.068256" lon="121.714734">
        <ele>269.0</ele>
      </trkpt>
      <trkpt lat="25.067833" lon="121.714472">
        <ele>284.0</ele>
      </trkpt>
      <trkpt lat="25.067477" lon="121.71436">
        <ele>297.0</ele>
      </trkpt>
      <trkpt lat="25.067368" lon="121.714181">
        <ele>300.0</ele>
      </trkpt>
      <trkpt lat="25.067371" lon="121.71408">
        <ele>299.0</ele>
      </trkpt>
      <trkpt lat="25.067342" lon="121.714007">
        <ele>300.0</ele>
      </trkpt>
      <trkpt lat="25.067179" lon="121.713898">
        <ele>301.0</ele>
      </trkpt>
      <trkpt lat="25.066972" lon="121.713762">
        <ele>301.0</ele>
      </trkpt>
      <trkpt lat="25.066704" lon="121.713614">
        <ele>299.0</ele>
      </trkpt>
      <trkpt lat="25.066482" lon="121.713582">
        <ele>294.0</ele>
      </trkpt>
      <trkpt lat="25.066373" lon="121.713513">
        <ele>289.0</ele>
      </trkpt>
      <trkpt lat="25.066204" lon="121.71335">
        <ele>279.0</ele>
      </trkpt>
      <trkpt lat="25.066172" lon="121.713286">
        <ele>277.0</ele>
      </trkpt>
      <trkpt lat="25.066038" lon="121.713286">
        <ele>273.0</ele>
      </trkpt>
      <trkpt lat="25.065839" lon="121.713399">
        <ele>271.0</ele>
      </trkpt>
      <trkpt lat="25.065653" lon="121.713428">
        <ele>269.0</ele>
      </trkpt>
      <trkpt lat="25.06555" lon="121.713343">
        <ele>263.0</ele>
      </trkpt>
      <trkpt lat="25.065518" lon="121.713288">
        <ele>261.0</ele>
      </trkpt>
      <trkpt lat="25.065416" lon="121.713116">
        <ele>254.0</ele>
      </trkpt>
      <trkpt lat="25.065287" lon="121.71301">
        <ele>248.0</ele>
      </trkpt>
      <trkpt lat="25.064873" lon="121.712958">
        <ele>240.0</ele>
      </trkpt>
      <trkpt lat="25.064826" lon="121.712878">
        <ele>237.0</ele>
      </trkpt>
      <trkpt lat="25.064792" lon="121.712758">
        <ele>233.0</ele>
      </trkpt>
      <trkpt lat="25.064594" lon="121.71275">
        <ele>232.0</ele>
      </trkpt>
      <trkpt lat="25.064343" lon="121.712804">
        <ele>232.0</ele>
      </trkpt>
      <trkpt lat="25.064286" lon="121.712839">
        <ele>233.0</ele>
      </trkpt>
      <trkpt lat="25.064245" lon="121.712964">
        <ele>237.0</ele>
      </trkpt>
      <trkpt lat="25.064214" lon="121.713003">
        <ele>239.0</ele>
      </trkpt>
      <trkpt lat="25.064191" lon="121.713001">
        <ele>239.0</ele>
      </trkpt>
      <trkpt lat="25.064035" lon="121.712943">
        <ele>237.0</ele>
      </trkpt>
      <trkpt lat="25.063932" lon="121.712843">
        <ele>234.0</ele>
      </trkpt>
      <trkpt lat="25.063795" lon="121.712598">
        <ele>228.0</ele>
      </trkpt>
      <trkpt lat="25.063479" lon="121.712455">
        <ele>227.0</ele>
      </trkpt>
      <trkpt lat="25.063177" lon="121.712371">
        <ele>222.0</ele>
      </trkpt>
      <trkpt lat="25.063026" lon="121.712378">
        <ele>219.0</ele>
      </trkpt>
      <trkpt lat="25.062839" lon="121.712577">
        <ele>222.0</ele>
      </trkpt>
      <trkpt lat="25.062761" lon="121.712583">
        <ele>220.0</ele>
      </trkpt>
      <trkpt lat="25.062736" lon="121.712557">
        <ele>219.0</ele>
      </trkpt>
      <trkpt lat="25.062745" lon="121.71235">
        <ele>211.0</ele>
      </trkpt>
      <trkpt lat="25.062697" lon="121.712382">
        <ele>211.0</ele>
      </trkpt>
      <trkpt lat="25.062502" lon="121.712586">
        <ele>215.0</ele>
      </trkpt>
      <trkpt lat="25.062466" lon="121.712606">
        <ele>214.0</ele>
      </trkpt>
      <trkpt lat="25.062466" lon="121.712606">
        <ele>214.0</ele>
      </trkpt>
      <trkpt lat="25.062414" lon="121.712634">
        <ele>214.0</ele>
      </trkpt>
      <trkpt lat="25.062252" lon="121.712605">
        <ele>209.0</ele>
      </trkpt>
      <trkpt lat="25.062196" lon="121.712529">
        <ele>206.0</ele>
      </trkpt>
      <trkpt lat="25.062121" lon="121.712465">
        <ele>202.0</ele>
      </trkpt>
      <trkpt lat="25.061994" lon="121.712425">
        <ele>198.0</ele>
      </trkpt>
      <trkpt lat="25.061866" lon="121.712527">
        <ele>198.0</ele>
      </trkpt>
      <trkpt lat="25.061729" lon="121.712521">
        <ele>195.0</ele>
      </trkpt>
      <trkpt lat="25.061618" lon="121.712495">
        <ele>193.0</ele>
      </trkpt>
      <trkpt lat="25.061492" lon="121.712514">
        <ele>193.0</ele>
      </trkpt>
      <trkpt lat="25.0614" lon="121.712479">
        <ele>191.0</ele>
      </trkpt>
      <trkpt lat="25.061433" lon="121.71238">
        <ele>189.0</ele>
      </trkpt>
      <trkpt lat="25.061503" lon="121.712322">
        <ele>188.0</ele>
      </trkpt>
      <trkpt lat="25.061521" lon="121.712256">
        <ele>187.0</ele>
      </trkpt>
      <trkpt lat="25.061499" lon="121.712112">
        <ele>183.0</ele>
      </trkpt>
      <trkpt lat="25.061516" lon="121.712079">
        <ele>182.0</ele>
      </trkpt>
      <trkpt lat="25.061516" lon="121.712079">
        <ele>182.0</ele>
      </trkpt>
      <trkpt lat="25.061897" lon="121.711315">
        <ele>168.0</ele>
      </trkpt>
      <trkpt lat="25.062087" lon="121.710787">
        <ele>160.0</ele>
      </trkpt>
      <trkpt lat="25.062245" lon="121.710504">
        <ele>157.0</ele>
      </trkpt>
      <trkpt lat="25.062324" lon="121.710396">
        <ele>154.0</ele>
      </trkpt>
      <trkpt lat="25.062478" lon="121.710573">
        <ele>152.0</ele>
      </trkpt>
      <trkpt lat="25.062711" lon="121.710706">
        <ele>157.0</ele>
      </trkpt>
    </trkseg>
  </trk>
</gpx>
