<?xml version="1.0" encoding="UTF-8"?>
<gpx xmlns="http://www.topografix.com/GPX/1/1" xmlns:xsi="http://www.w3.org/2001/XMLSchema-instance" xsi:schemaLocation="http://www.topografix.com/GPX/1/1 http://www.topografix.com/GPX/1/1/gpx.xsd" version="1.1" creator="Martin Schneider">
  <wpt lat="25.057827" lon="121.662214">
    <ele>77.0</ele>
    <name>Start</name>
  </wpt>
  <wpt lat="25.057827" lon="121.662214">
    <ele>77.0</ele>
    <name>End</name>
  </wpt>
  <wpt lat="25.052851" lon="121.663019">
    <name>1</name>
    <desc>Tianxiu Temple</desc>
  </wpt>
  <wpt lat="25.050567" lon="121.665342">
    <name>2</name>
    <desc>Trailhead to Xiufeng Waterfall</desc>
  </wpt>
  <wpt lat="25.048407" lon="121.6661004">
    <name>3</name>
    <desc>Xiufeng Waterfall</desc>
  </wpt>
  <wpt lat="25.047889" lon="121.669799">
    <name>4</name>
    <desc>Trailhead</desc>
  </wpt>
  <wpt lat="25.0411682" lon="121.680667">
    <name>5</name>
    <desc>Summit Sifenweishan</desc>
  </wpt>
  <wpt lat="25.0430554" lon="121.6778024">
    <name>6</name>
    <desc>Fork</desc>
  </wpt>
  <wpt lat="25.0529591" lon="121.6764836">
    <name>7</name>
    <desc>Qiedong Waterfalls</desc>
  </wpt>
  <wpt lat="25.055196" lon="121.673171">
    <name>8</name>
    <desc>Trailhead to Dajianshan Waterfalls</desc>
  </wpt>
  <wpt lat="25.050023" lon="121.67062">
    <name>9</name>
    <desc>Fork</desc>
  </wpt>
  <wpt lat="25.050894" lon="121.6682">
    <ele>439.0</ele>
    <name>Summit Xizhidajianshan</name>
  </wpt>
  <trk>
    <name>12_Xizhidajianshan</name>
    <trkseg>
      <trkpt lat="25.057827" lon="121.662214">
        <ele>77.0</ele>
      </trkpt>
      <trkpt lat="25.057827" lon="121.662214">
        <ele>77.0</ele>
      </trkpt>
      <trkpt lat="25.05765" lon="121.662314">
        <ele>80.0</ele>
      </trkpt>
      <trkpt lat="25.057591" lon="121.6623">
        <ele>81.0</ele>
      </trkpt>
      <trkpt lat="25.057524" lon="121.662306">
        <ele>82.0</ele>
      </trkpt>
      <trkpt lat="25.057479" lon="121.662345">
        <ele>83.0</ele>
      </trkpt>
      <trkpt lat="25.05728" lon="121.662435">
        <ele>89.0</ele>
      </trkpt>
      <trkpt lat="25.05726" lon="121.662447">
        <ele>90.0</ele>
      </trkpt>
      <trkpt lat="25.057212" lon="121.662474">
        <ele>92.0</ele>
      </trkpt>
      <trkpt lat="25.057162" lon="121.662541">
        <ele>94.0</ele>
      </trkpt>
      <trkpt lat="25.057064" lon="121.662608">
        <ele>98.0</ele>
      </trkpt>
      <trkpt lat="25.056876" lon="121.662791">
        <ele>105.0</ele>
      </trkpt>
      <trkpt lat="25.056778" lon="121.662847">
        <ele>108.0</ele>
      </trkpt>
      <trkpt lat="25.056767" lon="121.662901">
        <ele>109.0</ele>
      </trkpt>
      <trkpt lat="25.056705" lon="121.662955">
        <ele>112.0</ele>
      </trkpt>
      <trkpt lat="25.056682" lon="121.663017">
        <ele>113.0</ele>
      </trkpt>
      <trkpt lat="25.056626" lon="121.663048">
        <ele>114.0</ele>
      </trkpt>
      <trkpt lat="25.056504" lon="121.663196">
        <ele>119.0</ele>
      </trkpt>
      <trkpt lat="25.056421" lon="121.663257">
        <ele>122.0</ele>
      </trkpt>
      <trkpt lat="25.056166" lon="121.6633">
        <ele>128.0</ele>
      </trkpt>
      <trkpt lat="25.055799" lon="121.663515">
        <ele>141.0</ele>
      </trkpt>
      <trkpt lat="25.055631" lon="121.663579">
        <ele>148.0</ele>
      </trkpt>
      <trkpt lat="25.055512" lon="121.663557">
        <ele>152.0</ele>
      </trkpt>
      <trkpt lat="25.055442" lon="121.66353">
        <ele>154.0</ele>
      </trkpt>
      <trkpt lat="25.055366" lon="121.663522">
        <ele>157.0</ele>
      </trkpt>
      <trkpt lat="25.055326" lon="121.663537">
        <ele>158.0</ele>
      </trkpt>
      <trkpt lat="25.055136" lon="121.66366">
        <ele>167.0</ele>
      </trkpt>
      <trkpt lat="25.055015" lon="121.663764">
        <ele>173.0</ele>
      </trkpt>
      <trkpt lat="25.054837" lon="121.663835">
        <ele>178.0</ele>
      </trkpt>
      <trkpt lat="25.054831" lon="121.663831">
        <ele>178.0</ele>
      </trkpt>
      <trkpt lat="25.054831" lon="121.663831">
        <ele>178.0</ele>
      </trkpt>
      <trkpt lat="25.054522" lon="121.663632">
        <ele>182.0</ele>
      </trkpt>
      <trkpt lat="25.053935" lon="121.663318">
        <ele>198.0</ele>
      </trkpt>
      <trkpt lat="25.053814" lon="121.663168">
        <ele>200.0</ele>
      </trkpt>
      <trkpt lat="25.053758" lon="121.663125">
        <ele>201.0</ele>
      </trkpt>
      <trkpt lat="25.053642" lon="121.663062">
        <ele>205.0</ele>
      </trkpt>
      <trkpt lat="25.053572" lon="121.663061">
        <ele>208.0</ele>
      </trkpt>
      <trkpt lat="25.053487" lon="121.663034">
        <ele>212.0</ele>
      </trkpt>
      <trkpt lat="25.053307" lon="121.662904">
        <ele>216.0</ele>
      </trkpt>
      <trkpt lat="25.053259" lon="121.66289">
        <ele>217.0</ele>
      </trkpt>
      <trkpt lat="25.053239" lon="121.662846">
        <ele>216.0</ele>
      </trkpt>
      <trkpt lat="25.053239" lon="121.662846">
        <ele>216.0</ele>
      </trkpt>
      <trkpt lat="25.053212" lon="121.662788">
        <ele>214.0</ele>
      </trkpt>
      <trkpt lat="25.053167" lon="121.662775">
        <ele>215.0</ele>
      </trkpt>
      <trkpt lat="25.052998" lon="121.66278">
        <ele>218.0</ele>
      </trkpt>
      <trkpt lat="25.052721" lon="121.662754">
        <ele>223.0</ele>
      </trkpt>
      <trkpt lat="25.052636" lon="121.66273">
        <ele>224.0</ele>
      </trkpt>
      <trkpt lat="25.052438" lon="121.662594">
        <ele>223.0</ele>
      </trkpt>
      <trkpt lat="25.052299" lon="121.662417">
        <ele>217.0</ele>
      </trkpt>
      <trkpt lat="25.052256" lon="121.66239">
        <ele>217.0</ele>
      </trkpt>
      <trkpt lat="25.052153" lon="121.66241">
        <ele>218.0</ele>
      </trkpt>
      <trkpt lat="25.052072" lon="121.662525">
        <ele>222.0</ele>
      </trkpt>
      <trkpt lat="25.052066" lon="121.662594">
        <ele>223.0</ele>
      </trkpt>
      <trkpt lat="25.052086" lon="121.662743">
        <ele>226.0</ele>
      </trkpt>
      <trkpt lat="25.052059" lon="121.663037">
        <ele>232.0</ele>
      </trkpt>
      <trkpt lat="25.05203" lon="121.663145">
        <ele>233.0</ele>
      </trkpt>
      <trkpt lat="25.052014" lon="121.663319">
        <ele>236.0</ele>
      </trkpt>
      <trkpt lat="25.052025" lon="121.663537">
        <ele>240.0</ele>
      </trkpt>
      <trkpt lat="25.052096" lon="121.663801">
        <ele>246.0</ele>
      </trkpt>
      <trkpt lat="25.052095" lon="121.663904">
        <ele>248.0</ele>
      </trkpt>
      <trkpt lat="25.051819" lon="121.664658">
        <ele>258.0</ele>
      </trkpt>
      <trkpt lat="25.051742" lon="121.664806">
        <ele>260.0</ele>
      </trkpt>
      <trkpt lat="25.051615" lon="121.664938">
        <ele>261.0</ele>
      </trkpt>
      <trkpt lat="25.05152" lon="121.66501">
        <ele>263.0</ele>
      </trkpt>
      <trkpt lat="25.05118" lon="121.665179">
        <ele>270.0</ele>
      </trkpt>
      <trkpt lat="25.050953" lon="121.665282">
        <ele>275.0</ele>
      </trkpt>
      <trkpt lat="25.050855" lon="121.665305">
        <ele>275.0</ele>
      </trkpt>
      <trkpt lat="25.050609" lon="121.665298">
        <ele>278.0</ele>
      </trkpt>
      <trkpt lat="25.050579" lon="121.665348">
        <ele>281.0</ele>
      </trkpt>
      <trkpt lat="25.050579" lon="121.665348">
        <ele>281.0</ele>
      </trkpt>
      <trkpt lat="25.050355" lon="121.665293">
        <ele>280.0</ele>
      </trkpt>
      <trkpt lat="25.050188" lon="121.665182">
        <ele>276.0</ele>
      </trkpt>
      <trkpt lat="25.049875" lon="121.665137">
        <ele>273.0</ele>
      </trkpt>
      <trkpt lat="25.049829" lon="121.665159">
        <ele>274.0</ele>
      </trkpt>
      <trkpt lat="25.049829" lon="121.665159">
        <ele>274.0</ele>
      </trkpt>
      <trkpt lat="25.049678" lon="121.665231">
        <ele>276.0</ele>
      </trkpt>
      <trkpt lat="25.049656" lon="121.665347">
        <ele>283.0</ele>
      </trkpt>
      <trkpt lat="25.049557" lon="121.665324">
        <ele>280.0</ele>
      </trkpt>
      <trkpt lat="25.049468" lon="121.665478">
        <ele>288.0</ele>
      </trkpt>
      <trkpt lat="25.049302" lon="121.665609">
        <ele>294.0</ele>
      </trkpt>
      <trkpt lat="25.049273" lon="121.665606">
        <ele>294.0</ele>
      </trkpt>
      <trkpt lat="25.049273" lon="121.665606">
        <ele>294.0</ele>
      </trkpt>
      <trkpt lat="25.049088" lon="121.665589">
        <ele>292.0</ele>
      </trkpt>
      <trkpt lat="25.049041" lon="121.665611">
        <ele>294.0</ele>
      </trkpt>
      <trkpt lat="25.04872" lon="121.665774">
        <ele>305.0</ele>
      </trkpt>
      <trkpt lat="25.048543" lon="121.665949">
        <ele>313.0</ele>
      </trkpt>
      <trkpt lat="25.048456" lon="121.665947">
        <ele>313.0</ele>
      </trkpt>
      <trkpt lat="25.048407" lon="121.6661">
        <ele>318.0</ele>
      </trkpt>
      <trkpt lat="25.048407" lon="121.6661">
        <ele>318.0</ele>
      </trkpt>
      <trkpt lat="25.048456" lon="121.665947">
        <ele>313.0</ele>
      </trkpt>
      <trkpt lat="25.048543" lon="121.665949">
        <ele>313.0</ele>
      </trkpt>
      <trkpt lat="25.04872" lon="121.665774">
        <ele>305.0</ele>
      </trkpt>
      <trkpt lat="25.049041" lon="121.665611">
        <ele>294.0</ele>
      </trkpt>
      <trkpt lat="25.049103" lon="121.665509">
        <ele>287.0</ele>
      </trkpt>
      <trkpt lat="25.049198" lon="121.66545">
        <ele>283.0</ele>
      </trkpt>
      <trkpt lat="25.049336" lon="121.665441">
        <ele>284.0</ele>
      </trkpt>
      <trkpt lat="25.049468" lon="121.665478">
        <ele>288.0</ele>
      </trkpt>
      <trkpt lat="25.049557" lon="121.665324">
        <ele>280.0</ele>
      </trkpt>
      <trkpt lat="25.049656" lon="121.665347">
        <ele>283.0</ele>
      </trkpt>
      <trkpt lat="25.049724" lon="121.665474">
        <ele>292.0</ele>
      </trkpt>
      <trkpt lat="25.050136" lon="121.665482">
        <ele>294.0</ele>
      </trkpt>
      <trkpt lat="25.050239" lon="121.665498">
        <ele>294.0</ele>
      </trkpt>
      <trkpt lat="25.05039" lon="121.665565">
        <ele>295.0</ele>
      </trkpt>
      <trkpt lat="25.050287" lon="121.665624">
        <ele>300.0</ele>
      </trkpt>
      <trkpt lat="25.050234" lon="121.665694">
        <ele>305.0</ele>
      </trkpt>
      <trkpt lat="25.050154" lon="121.66586">
        <ele>316.0</ele>
      </trkpt>
      <trkpt lat="25.050147" lon="121.665967">
        <ele>322.0</ele>
      </trkpt>
      <trkpt lat="25.050147" lon="121.665967">
        <ele>322.0</ele>
      </trkpt>
      <trkpt lat="25.050129" lon="121.666261">
        <ele>338.0</ele>
      </trkpt>
      <trkpt lat="25.050001" lon="121.66625">
        <ele>339.0</ele>
      </trkpt>
      <trkpt lat="25.049909" lon="121.666328">
        <ele>342.0</ele>
      </trkpt>
      <trkpt lat="25.049701" lon="121.666445">
        <ele>346.0</ele>
      </trkpt>
      <trkpt lat="25.049558" lon="121.666485">
        <ele>346.0</ele>
      </trkpt>
      <trkpt lat="25.049477" lon="121.666534">
        <ele>347.0</ele>
      </trkpt>
      <trkpt lat="25.049287" lon="121.666747">
        <ele>354.0</ele>
      </trkpt>
      <trkpt lat="25.049182" lon="121.666756">
        <ele>353.0</ele>
      </trkpt>
      <trkpt lat="25.049136" lon="121.666803">
        <ele>354.0</ele>
      </trkpt>
      <trkpt lat="25.049109" lon="121.666875">
        <ele>357.0</ele>
      </trkpt>
      <trkpt lat="25.049084" lon="121.667142">
        <ele>368.0</ele>
      </trkpt>
      <trkpt lat="25.049035" lon="121.667242">
        <ele>371.0</ele>
      </trkpt>
      <trkpt lat="25.04892" lon="121.667401">
        <ele>374.0</ele>
      </trkpt>
      <trkpt lat="25.048814" lon="121.667737">
        <ele>383.0</ele>
      </trkpt>
      <trkpt lat="25.048581" lon="121.668325">
        <ele>395.0</ele>
      </trkpt>
      <trkpt lat="25.048517" lon="121.668585">
        <ele>397.0</ele>
      </trkpt>
      <trkpt lat="25.048517" lon="121.668585">
        <ele>397.0</ele>
      </trkpt>
      <trkpt lat="25.04847" lon="121.668777">
        <ele>398.0</ele>
      </trkpt>
      <trkpt lat="25.048451" lon="121.669062">
        <ele>402.0</ele>
      </trkpt>
      <trkpt lat="25.048349" lon="121.669244">
        <ele>401.0</ele>
      </trkpt>
      <trkpt lat="25.048213" lon="121.669432">
        <ele>405.0</ele>
      </trkpt>
      <trkpt lat="25.047948" lon="121.669709">
        <ele>411.0</ele>
      </trkpt>
      <trkpt lat="25.047864" lon="121.669763">
        <ele>411.0</ele>
      </trkpt>
      <trkpt lat="25.047871" lon="121.669838">
        <ele>412.0</ele>
      </trkpt>
      <trkpt lat="25.047799" lon="121.669883">
        <ele>413.0</ele>
      </trkpt>
      <trkpt lat="25.047822" lon="121.670053">
        <ele>416.0</ele>
      </trkpt>
      <trkpt lat="25.04788" lon="121.670181">
        <ele>419.0</ele>
      </trkpt>
      <trkpt lat="25.048036" lon="121.670241">
        <ele>423.0</ele>
      </trkpt>
      <trkpt lat="25.048165" lon="121.670268">
        <ele>425.0</ele>
      </trkpt>
      <trkpt lat="25.048103" lon="121.670319">
        <ele>425.0</ele>
      </trkpt>
      <trkpt lat="25.047832" lon="121.67033">
        <ele>423.0</ele>
      </trkpt>
      <trkpt lat="25.047901" lon="121.670353">
        <ele>424.0</ele>
      </trkpt>
      <trkpt lat="25.047853" lon="121.670373">
        <ele>424.0</ele>
      </trkpt>
      <trkpt lat="25.047701" lon="121.670569">
        <ele>427.0</ele>
      </trkpt>
      <trkpt lat="25.047724" lon="121.670623">
        <ele>429.0</ele>
      </trkpt>
      <trkpt lat="25.04797" lon="121.670681">
        <ele>434.0</ele>
      </trkpt>
      <trkpt lat="25.048078" lon="121.670666">
        <ele>435.0</ele>
      </trkpt>
      <trkpt lat="25.048035" lon="121.670729">
        <ele>436.0</ele>
      </trkpt>
      <trkpt lat="25.048003" lon="121.670819">
        <ele>438.0</ele>
      </trkpt>
      <trkpt lat="25.047926" lon="121.67088">
        <ele>439.0</ele>
      </trkpt>
      <trkpt lat="25.047889" lon="121.670949">
        <ele>440.0</ele>
      </trkpt>
      <trkpt lat="25.047879" lon="121.671045">
        <ele>443.0</ele>
      </trkpt>
      <trkpt lat="25.047936" lon="121.671358">
        <ele>454.0</ele>
      </trkpt>
      <trkpt lat="25.048054" lon="121.671419">
        <ele>458.0</ele>
      </trkpt>
      <trkpt lat="25.048162" lon="121.671402">
        <ele>459.0</ele>
      </trkpt>
      <trkpt lat="25.048243" lon="121.671431">
        <ele>461.0</ele>
      </trkpt>
      <trkpt lat="25.048315" lon="121.671433">
        <ele>462.0</ele>
      </trkpt>
      <trkpt lat="25.048548" lon="121.671328">
        <ele>458.0</ele>
      </trkpt>
      <trkpt lat="25.048627" lon="121.671328">
        <ele>457.0</ele>
      </trkpt>
      <trkpt lat="25.048686" lon="121.671373">
        <ele>458.0</ele>
      </trkpt>
      <trkpt lat="25.048477" lon="121.671609">
        <ele>465.0</ele>
      </trkpt>
      <trkpt lat="25.048187" lon="121.671773">
        <ele>470.0</ele>
      </trkpt>
      <trkpt lat="25.048187" lon="121.671773">
        <ele>470.0</ele>
      </trkpt>
      <trkpt lat="25.048033" lon="121.671906">
        <ele>472.0</ele>
      </trkpt>
      <trkpt lat="25.048005" lon="121.672014">
        <ele>475.0</ele>
      </trkpt>
      <trkpt lat="25.047853" lon="121.672239">
        <ele>483.0</ele>
      </trkpt>
      <trkpt lat="25.047761" lon="121.672314">
        <ele>486.0</ele>
      </trkpt>
      <trkpt lat="25.04761" lon="121.672401">
        <ele>492.0</ele>
      </trkpt>
      <trkpt lat="25.047474" lon="121.672513">
        <ele>498.0</ele>
      </trkpt>
      <trkpt lat="25.047458" lon="121.67266">
        <ele>501.0</ele>
      </trkpt>
      <trkpt lat="25.047171" lon="121.673036">
        <ele>511.0</ele>
      </trkpt>
      <trkpt lat="25.047077" lon="121.673129">
        <ele>515.0</ele>
      </trkpt>
      <trkpt lat="25.046906" lon="121.67324">
        <ele>521.0</ele>
      </trkpt>
      <trkpt lat="25.046857" lon="121.673343">
        <ele>525.0</ele>
      </trkpt>
      <trkpt lat="25.046829" lon="121.673478">
        <ele>527.0</ele>
      </trkpt>
      <trkpt lat="25.046647" lon="121.673915">
        <ele>534.0</ele>
      </trkpt>
      <trkpt lat="25.046551" lon="121.674029">
        <ele>536.0</ele>
      </trkpt>
      <trkpt lat="25.046384" lon="121.674131">
        <ele>537.0</ele>
      </trkpt>
      <trkpt lat="25.046137" lon="121.674328">
        <ele>538.0</ele>
      </trkpt>
      <trkpt lat="25.045994" lon="121.674355">
        <ele>539.0</ele>
      </trkpt>
      <trkpt lat="25.045941" lon="121.674449">
        <ele>539.0</ele>
      </trkpt>
      <trkpt lat="25.045871" lon="121.674511">
        <ele>540.0</ele>
      </trkpt>
      <trkpt lat="25.045705" lon="121.674594">
        <ele>543.0</ele>
      </trkpt>
      <trkpt lat="25.045568" lon="121.674784">
        <ele>546.0</ele>
      </trkpt>
      <trkpt lat="25.045051" lon="121.675319">
        <ele>552.0</ele>
      </trkpt>
      <trkpt lat="25.044844" lon="121.675433">
        <ele>553.0</ele>
      </trkpt>
      <trkpt lat="25.044693" lon="121.675445">
        <ele>555.0</ele>
      </trkpt>
      <trkpt lat="25.044501" lon="121.675368">
        <ele>558.0</ele>
      </trkpt>
      <trkpt lat="25.044323" lon="121.675238">
        <ele>561.0</ele>
      </trkpt>
      <trkpt lat="25.044195" lon="121.675204">
        <ele>563.0</ele>
      </trkpt>
      <trkpt lat="25.04403" lon="121.675255">
        <ele>563.0</ele>
      </trkpt>
      <trkpt lat="25.043882" lon="121.67527">
        <ele>564.0</ele>
      </trkpt>
      <trkpt lat="25.043695" lon="121.675338">
        <ele>565.0</ele>
      </trkpt>
      <trkpt lat="25.043517" lon="121.67558">
        <ele>565.0</ele>
      </trkpt>
      <trkpt lat="25.043402" lon="121.676094">
        <ele>565.0</ele>
      </trkpt>
      <trkpt lat="25.043398" lon="121.676342">
        <ele>564.0</ele>
      </trkpt>
      <trkpt lat="25.043326" lon="121.676616">
        <ele>565.0</ele>
      </trkpt>
      <trkpt lat="25.043317" lon="121.676881">
        <ele>563.0</ele>
      </trkpt>
      <trkpt lat="25.043209" lon="121.677239">
        <ele>559.0</ele>
      </trkpt>
      <trkpt lat="25.0431568" lon="121.677386">
        <ele>558.0</ele>
      </trkpt>
      <trkpt lat="25.043157" lon="121.677386">
        <ele>558.0</ele>
      </trkpt>
      <trkpt lat="25.043068" lon="121.677636">
        <ele>557.0</ele>
      </trkpt>
      <trkpt lat="25.04303" lon="121.677841">
        <ele>558.0</ele>
      </trkpt>
      <trkpt lat="25.042796" lon="121.678136">
        <ele>563.0</ele>
      </trkpt>
      <trkpt lat="25.042194" lon="121.678657">
        <ele>575.0</ele>
      </trkpt>
      <trkpt lat="25.042019" lon="121.678752">
        <ele>577.0</ele>
      </trkpt>
      <trkpt lat="25.041709" lon="121.678876">
        <ele>583.0</ele>
      </trkpt>
      <trkpt lat="25.041488" lon="121.678877">
        <ele>582.0</ele>
      </trkpt>
      <trkpt lat="25.041345" lon="121.678964">
        <ele>583.0</ele>
      </trkpt>
      <trkpt lat="25.041268" lon="121.679064">
        <ele>585.0</ele>
      </trkpt>
      <trkpt lat="25.041277" lon="121.679217">
        <ele>589.0</ele>
      </trkpt>
      <trkpt lat="25.04139" lon="121.679338">
        <ele>592.0</ele>
      </trkpt>
      <trkpt lat="25.041433" lon="121.679418">
        <ele>594.0</ele>
      </trkpt>
      <trkpt lat="25.041332" lon="121.679962">
        <ele>607.0</ele>
      </trkpt>
      <trkpt lat="25.041214" lon="121.680217">
        <ele>611.0</ele>
      </trkpt>
      <trkpt lat="25.041236" lon="121.680343">
        <ele>613.0</ele>
      </trkpt>
      <trkpt lat="25.041177" lon="121.680674">
        <ele>619.0</ele>
      </trkpt>
      <trkpt lat="25.041177" lon="121.680674">
        <ele>619.0</ele>
      </trkpt>
      <trkpt lat="25.041236" lon="121.680343">
        <ele>613.0</ele>
      </trkpt>
      <trkpt lat="25.041214" lon="121.680217">
        <ele>611.0</ele>
      </trkpt>
      <trkpt lat="25.041332" lon="121.679962">
        <ele>607.0</ele>
      </trkpt>
      <trkpt lat="25.041433" lon="121.679418">
        <ele>594.0</ele>
      </trkpt>
      <trkpt lat="25.04139" lon="121.679338">
        <ele>592.0</ele>
      </trkpt>
      <trkpt lat="25.041277" lon="121.679217">
        <ele>589.0</ele>
      </trkpt>
      <trkpt lat="25.041268" lon="121.679064">
        <ele>585.0</ele>
      </trkpt>
      <trkpt lat="25.041345" lon="121.678964">
        <ele>583.0</ele>
      </trkpt>
      <trkpt lat="25.041488" lon="121.678877">
        <ele>582.0</ele>
      </trkpt>
      <trkpt lat="25.041709" lon="121.678876">
        <ele>583.0</ele>
      </trkpt>
      <trkpt lat="25.042019" lon="121.678752">
        <ele>577.0</ele>
      </trkpt>
      <trkpt lat="25.042194" lon="121.678657">
        <ele>575.0</ele>
      </trkpt>
      <trkpt lat="25.042796" lon="121.678136">
        <ele>563.0</ele>
      </trkpt>
      <trkpt lat="25.04303" lon="121.677841">
        <ele>558.0</ele>
      </trkpt>
      <trkpt lat="25.043038" lon="121.677814">
        <ele>558.0</ele>
      </trkpt>
      <trkpt lat="25.04317" lon="121.677812">
        <ele>558.0</ele>
      </trkpt>
      <trkpt lat="25.043282" lon="121.67786">
        <ele>558.0</ele>
      </trkpt>
      <trkpt lat="25.0434612" lon="121.6782775">
        <ele>551.0</ele>
      </trkpt>
      <trkpt lat="25.043472" lon="121.678382">
        <ele>550.0</ele>
      </trkpt>
      <trkpt lat="25.043557" lon="121.678478">
        <ele>547.0</ele>
      </trkpt>
      <trkpt lat="25.043929" lon="121.678595">
        <ele>534.0</ele>
      </trkpt>
      <trkpt lat="25.0442" lon="121.678831">
        <ele>523.0</ele>
      </trkpt>
      <trkpt lat="25.044337" lon="121.679007">
        <ele>518.0</ele>
      </trkpt>
      <trkpt lat="25.04432" lon="121.67915">
        <ele>517.0</ele>
      </trkpt>
      <trkpt lat="25.044351" lon="121.679238">
        <ele>517.0</ele>
      </trkpt>
      <trkpt lat="25.044507" lon="121.679348">
        <ele>514.0</ele>
      </trkpt>
      <trkpt lat="25.044657" lon="121.679493">
        <ele>511.0</ele>
      </trkpt>
      <trkpt lat="25.04473" lon="121.679619">
        <ele>510.0</ele>
      </trkpt>
      <trkpt lat="25.045103" lon="121.679625">
        <ele>502.0</ele>
      </trkpt>
      <trkpt lat="25.045496" lon="121.679566">
        <ele>499.0</ele>
      </trkpt>
      <trkpt lat="25.045586" lon="121.679536">
        <ele>498.0</ele>
      </trkpt>
      <trkpt lat="25.045586" lon="121.679536">
        <ele>498.0</ele>
      </trkpt>
      <trkpt lat="25.045732" lon="121.679488">
        <ele>497.0</ele>
      </trkpt>
      <trkpt lat="25.046332" lon="121.679464">
        <ele>482.0</ele>
      </trkpt>
      <trkpt lat="25.047374" lon="121.679573">
        <ele>447.0</ele>
      </trkpt>
      <trkpt lat="25.047516" lon="121.679724">
        <ele>442.0</ele>
      </trkpt>
      <trkpt lat="25.047991" lon="121.679928">
        <ele>430.0</ele>
      </trkpt>
      <trkpt lat="25.048166" lon="121.679976">
        <ele>425.0</ele>
      </trkpt>
      <trkpt lat="25.048927" lon="121.679764">
        <ele>408.0</ele>
      </trkpt>
      <trkpt lat="25.049352" lon="121.679554">
        <ele>395.0</ele>
      </trkpt>
      <trkpt lat="25.049352" lon="121.679554">
        <ele>395.0</ele>
      </trkpt>
      <trkpt lat="25.049431" lon="121.679515">
        <ele>393.0</ele>
      </trkpt>
      <trkpt lat="25.049705" lon="121.67924">
        <ele>381.0</ele>
      </trkpt>
      <trkpt lat="25.049801" lon="121.679094">
        <ele>376.0</ele>
      </trkpt>
      <trkpt lat="25.050014" lon="121.678891">
        <ele>368.0</ele>
      </trkpt>
      <trkpt lat="25.050139" lon="121.678853">
        <ele>366.0</ele>
      </trkpt>
      <trkpt lat="25.05027" lon="121.67884">
        <ele>364.0</ele>
      </trkpt>
      <trkpt lat="25.050423" lon="121.678852">
        <ele>363.0</ele>
      </trkpt>
      <trkpt lat="25.050585" lon="121.678918">
        <ele>364.0</ele>
      </trkpt>
      <trkpt lat="25.050713" lon="121.67892">
        <ele>363.0</ele>
      </trkpt>
      <trkpt lat="25.050842" lon="121.678879">
        <ele>360.0</ele>
      </trkpt>
      <trkpt lat="25.05094" lon="121.678875">
        <ele>359.0</ele>
      </trkpt>
      <trkpt lat="25.051073" lon="121.678943">
        <ele>360.0</ele>
      </trkpt>
      <trkpt lat="25.051175" lon="121.678946">
        <ele>359.0</ele>
      </trkpt>
      <trkpt lat="25.051223" lon="121.678931">
        <ele>358.0</ele>
      </trkpt>
      <trkpt lat="25.05129" lon="121.678803">
        <ele>353.0</ele>
      </trkpt>
      <trkpt lat="25.051363" lon="121.678821">
        <ele>353.0</ele>
      </trkpt>
      <trkpt lat="25.051427" lon="121.678867">
        <ele>354.0</ele>
      </trkpt>
      <trkpt lat="25.051475" lon="121.678868">
        <ele>354.0</ele>
      </trkpt>
      <trkpt lat="25.05154" lon="121.678837">
        <ele>352.0</ele>
      </trkpt>
      <trkpt lat="25.051748" lon="121.678976">
        <ele>354.0</ele>
      </trkpt>
      <trkpt lat="25.051939" lon="121.67897">
        <ele>351.0</ele>
      </trkpt>
      <trkpt lat="25.051985" lon="121.678937">
        <ele>349.0</ele>
      </trkpt>
      <trkpt lat="25.051954" lon="121.678823">
        <ele>346.0</ele>
      </trkpt>
      <trkpt lat="25.051983" lon="121.678741">
        <ele>342.0</ele>
      </trkpt>
      <trkpt lat="25.052034" lon="121.678695">
        <ele>340.0</ele>
      </trkpt>
      <trkpt lat="25.052015" lon="121.678667">
        <ele>339.0</ele>
      </trkpt>
      <trkpt lat="25.051949" lon="121.678645">
        <ele>339.0</ele>
      </trkpt>
      <trkpt lat="25.051907" lon="121.678595">
        <ele>338.0</ele>
      </trkpt>
      <trkpt lat="25.05174" lon="121.678476">
        <ele>337.0</ele>
      </trkpt>
      <trkpt lat="25.051691" lon="121.6784">
        <ele>335.0</ele>
      </trkpt>
      <trkpt lat="25.051698" lon="121.678336">
        <ele>333.0</ele>
      </trkpt>
      <trkpt lat="25.051675" lon="121.678271">
        <ele>332.0</ele>
      </trkpt>
      <trkpt lat="25.051631" lon="121.678228">
        <ele>331.0</ele>
      </trkpt>
      <trkpt lat="25.051693" lon="121.678227">
        <ele>330.0</ele>
      </trkpt>
      <trkpt lat="25.051738" lon="121.678164">
        <ele>328.0</ele>
      </trkpt>
      <trkpt lat="25.051812" lon="121.678135">
        <ele>326.0</ele>
      </trkpt>
      <trkpt lat="25.051968" lon="121.678132">
        <ele>324.0</ele>
      </trkpt>
      <trkpt lat="25.051915" lon="121.677973">
        <ele>321.0</ele>
      </trkpt>
      <trkpt lat="25.051808" lon="121.677861">
        <ele>321.0</ele>
      </trkpt>
      <trkpt lat="25.051787" lon="121.677784">
        <ele>319.0</ele>
      </trkpt>
      <trkpt lat="25.051774" lon="121.677625">
        <ele>316.0</ele>
      </trkpt>
      <trkpt lat="25.051737" lon="121.677559">
        <ele>315.0</ele>
      </trkpt>
      <trkpt lat="25.051667" lon="121.677523">
        <ele>315.0</ele>
      </trkpt>
      <trkpt lat="25.051611" lon="121.677432">
        <ele>314.0</ele>
      </trkpt>
      <trkpt lat="25.0516" lon="121.677315">
        <ele>311.0</ele>
      </trkpt>
      <trkpt lat="25.051616" lon="121.677253">
        <ele>309.0</ele>
      </trkpt>
      <trkpt lat="25.051589" lon="121.677192">
        <ele>308.0</ele>
      </trkpt>
      <trkpt lat="25.051458" lon="121.677144">
        <ele>308.0</ele>
      </trkpt>
      <trkpt lat="25.051239" lon="121.67714">
        <ele>310.0</ele>
      </trkpt>
      <trkpt lat="25.051141" lon="121.677175">
        <ele>312.0</ele>
      </trkpt>
      <trkpt lat="25.050881" lon="121.677231">
        <ele>316.0</ele>
      </trkpt>
      <trkpt lat="25.050803" lon="121.677012">
        <ele>314.0</ele>
      </trkpt>
      <trkpt lat="25.050804" lon="121.676949">
        <ele>313.0</ele>
      </trkpt>
      <trkpt lat="25.050827" lon="121.676902">
        <ele>312.0</ele>
      </trkpt>
      <trkpt lat="25.050882" lon="121.676819">
        <ele>309.0</ele>
      </trkpt>
      <trkpt lat="25.05097" lon="121.676725">
        <ele>307.0</ele>
      </trkpt>
      <trkpt lat="25.051073" lon="121.676671">
        <ele>304.0</ele>
      </trkpt>
      <trkpt lat="25.0511" lon="121.676561">
        <ele>306.0</ele>
      </trkpt>
      <trkpt lat="25.051188" lon="121.676552">
        <ele>305.0</ele>
      </trkpt>
      <trkpt lat="25.051249" lon="121.676504">
        <ele>305.0</ele>
      </trkpt>
      <trkpt lat="25.051275" lon="121.676437">
        <ele>306.0</ele>
      </trkpt>
      <trkpt lat="25.051435" lon="121.676374">
        <ele>304.0</ele>
      </trkpt>
      <trkpt lat="25.051517" lon="121.676403">
        <ele>302.0</ele>
      </trkpt>
      <trkpt lat="25.05158" lon="121.676403">
        <ele>301.0</ele>
      </trkpt>
      <trkpt lat="25.051783" lon="121.676337">
        <ele>296.0</ele>
      </trkpt>
      <trkpt lat="25.051837" lon="121.67628">
        <ele>295.0</ele>
      </trkpt>
      <trkpt lat="25.051998" lon="121.676215">
        <ele>289.0</ele>
      </trkpt>
      <trkpt lat="25.052153" lon="121.676233">
        <ele>283.0</ele>
      </trkpt>
      <trkpt lat="25.052189" lon="121.676286">
        <ele>280.0</ele>
      </trkpt>
      <trkpt lat="25.052281" lon="121.676277">
        <ele>277.0</ele>
      </trkpt>
      <trkpt lat="25.052313" lon="121.676227">
        <ele>276.0</ele>
      </trkpt>
      <trkpt lat="25.05225" lon="121.67617">
        <ele>280.0</ele>
      </trkpt>
      <trkpt lat="25.052301" lon="121.67616">
        <ele>278.0</ele>
      </trkpt>
      <trkpt lat="25.052435" lon="121.676187">
        <ele>272.0</ele>
      </trkpt>
      <trkpt lat="25.052465" lon="121.676164">
        <ele>271.0</ele>
      </trkpt>
      <trkpt lat="25.05255" lon="121.676202">
        <ele>267.0</ele>
      </trkpt>
      <trkpt lat="25.05255" lon="121.676202">
        <ele>267.0</ele>
      </trkpt>
      <trkpt lat="25.052578" lon="121.676222">
        <ele>265.0</ele>
      </trkpt>
      <trkpt lat="25.052621" lon="121.676198">
        <ele>264.0</ele>
      </trkpt>
      <trkpt lat="25.052674" lon="121.676231">
        <ele>261.0</ele>
      </trkpt>
      <trkpt lat="25.052701" lon="121.676283">
        <ele>260.0</ele>
      </trkpt>
      <trkpt lat="25.052788" lon="121.676343">
        <ele>256.0</ele>
      </trkpt>
      <trkpt lat="25.052801" lon="121.676407">
        <ele>255.0</ele>
      </trkpt>
      <trkpt lat="25.052782" lon="121.676482">
        <ele>256.0</ele>
      </trkpt>
      <trkpt lat="25.052865" lon="121.676497">
        <ele>254.0</ele>
      </trkpt>
      <trkpt lat="25.052907" lon="121.676537">
        <ele>252.0</ele>
      </trkpt>
      <trkpt lat="25.052974" lon="121.676619">
        <ele>251.0</ele>
      </trkpt>
      <trkpt lat="25.053023" lon="121.676744">
        <ele>253.0</ele>
      </trkpt>
      <trkpt lat="25.053064" lon="121.676781">
        <ele>254.0</ele>
      </trkpt>
      <trkpt lat="25.05313" lon="121.676796">
        <ele>253.0</ele>
      </trkpt>
      <trkpt lat="25.053263" lon="121.676795">
        <ele>249.0</ele>
      </trkpt>
      <trkpt lat="25.053362" lon="121.676923">
        <ele>251.0</ele>
      </trkpt>
      <trkpt lat="25.053431" lon="121.67689">
        <ele>249.0</ele>
      </trkpt>
      <trkpt lat="25.053427" lon="121.67685">
        <ele>248.0</ele>
      </trkpt>
      <trkpt lat="25.053371" lon="121.676797">
        <ele>247.0</ele>
      </trkpt>
      <trkpt lat="25.053364" lon="121.676757">
        <ele>246.0</ele>
      </trkpt>
      <trkpt lat="25.053416" lon="121.676721">
        <ele>243.0</ele>
      </trkpt>
      <trkpt lat="25.053468" lon="121.676626">
        <ele>239.0</ele>
      </trkpt>
      <trkpt lat="25.053441" lon="121.676593">
        <ele>239.0</ele>
      </trkpt>
      <trkpt lat="25.053365" lon="121.676566">
        <ele>240.0</ele>
      </trkpt>
      <trkpt lat="25.053296" lon="121.676577">
        <ele>242.0</ele>
      </trkpt>
      <trkpt lat="25.053241" lon="121.676623">
        <ele>244.0</ele>
      </trkpt>
      <trkpt lat="25.053173" lon="121.676384">
        <ele>242.0</ele>
      </trkpt>
      <trkpt lat="25.053248" lon="121.676341">
        <ele>238.0</ele>
      </trkpt>
      <trkpt lat="25.053312" lon="121.676236">
        <ele>233.0</ele>
      </trkpt>
      <trkpt lat="25.053457" lon="121.676154">
        <ele>226.0</ele>
      </trkpt>
      <trkpt lat="25.053408" lon="121.676078">
        <ele>225.0</ele>
      </trkpt>
      <trkpt lat="25.053369" lon="121.675938">
        <ele>223.0</ele>
      </trkpt>
      <trkpt lat="25.05354" lon="121.67561">
        <ele>220.0</ele>
      </trkpt>
      <trkpt lat="25.054148" lon="121.674826">
        <ele>201.0</ele>
      </trkpt>
      <trkpt lat="25.054747" lon="121.674191">
        <ele>188.0</ele>
      </trkpt>
      <trkpt lat="25.055387" lon="121.674012">
        <ele>163.0</ele>
      </trkpt>
      <trkpt lat="25.055439" lon="121.673922">
        <ele>163.0</ele>
      </trkpt>
      <trkpt lat="25.055457" lon="121.673812">
        <ele>163.0</ele>
      </trkpt>
      <trkpt lat="25.055353" lon="121.673619">
        <ele>168.0</ele>
      </trkpt>
      <trkpt lat="25.055144" lon="121.673289">
        <ele>178.0</ele>
      </trkpt>
      <trkpt lat="25.055172" lon="121.673178">
        <ele>180.0</ele>
      </trkpt>
      <trkpt lat="25.055091" lon="121.673139">
        <ele>182.0</ele>
      </trkpt>
      <trkpt lat="25.055039" lon="121.673146">
        <ele>183.0</ele>
      </trkpt>
      <trkpt lat="25.054768" lon="121.673071">
        <ele>202.0</ele>
      </trkpt>
      <trkpt lat="25.054436" lon="121.673001">
        <ele>225.0</ele>
      </trkpt>
      <trkpt lat="25.054436" lon="121.673001">
        <ele>225.0</ele>
      </trkpt>
      <trkpt lat="25.054333" lon="121.672953">
        <ele>232.0</ele>
      </trkpt>
      <trkpt lat="25.054254" lon="121.67285">
        <ele>237.0</ele>
      </trkpt>
      <trkpt lat="25.053973" lon="121.672883">
        <ele>255.0</ele>
      </trkpt>
      <trkpt lat="25.053814" lon="121.672714">
        <ele>264.0</ele>
      </trkpt>
      <trkpt lat="25.053713" lon="121.672893">
        <ele>271.0</ele>
      </trkpt>
      <trkpt lat="25.053441" lon="121.672874">
        <ele>288.0</ele>
      </trkpt>
      <trkpt lat="25.053349" lon="121.672701">
        <ele>294.0</ele>
      </trkpt>
      <trkpt lat="25.053193" lon="121.672872">
        <ele>300.0</ele>
      </trkpt>
      <trkpt lat="25.053028" lon="121.672707">
        <ele>306.0</ele>
      </trkpt>
      <trkpt lat="25.052978" lon="121.67269">
        <ele>308.0</ele>
      </trkpt>
      <trkpt lat="25.053046" lon="121.672506">
        <ele>306.0</ele>
      </trkpt>
      <trkpt lat="25.053171" lon="121.672485">
        <ele>302.0</ele>
      </trkpt>
      <trkpt lat="25.053346" lon="121.672411">
        <ele>297.0</ele>
      </trkpt>
      <trkpt lat="25.053201" lon="121.672289">
        <ele>307.0</ele>
      </trkpt>
      <trkpt lat="25.052999" lon="121.672246">
        <ele>317.0</ele>
      </trkpt>
      <trkpt lat="25.052673" lon="121.67251">
        <ele>320.0</ele>
      </trkpt>
      <trkpt lat="25.052563" lon="121.67267">
        <ele>323.0</ele>
      </trkpt>
      <trkpt lat="25.052325" lon="121.672697">
        <ele>331.0</ele>
      </trkpt>
      <trkpt lat="25.052154" lon="121.672778">
        <ele>336.0</ele>
      </trkpt>
      <trkpt lat="25.052084" lon="121.673201">
        <ele>336.0</ele>
      </trkpt>
      <trkpt lat="25.051804" lon="121.672864">
        <ele>348.0</ele>
      </trkpt>
      <trkpt lat="25.051655" lon="121.672752">
        <ele>353.0</ele>
      </trkpt>
      <trkpt lat="25.05154" lon="121.672912">
        <ele>357.0</ele>
      </trkpt>
      <trkpt lat="25.051234" lon="121.672639">
        <ele>368.0</ele>
      </trkpt>
      <trkpt lat="25.051238" lon="121.672437">
        <ele>370.0</ele>
      </trkpt>
      <trkpt lat="25.051278" lon="121.672416">
        <ele>370.0</ele>
      </trkpt>
      <trkpt lat="25.051165" lon="121.672232">
        <ele>380.0</ele>
      </trkpt>
      <trkpt lat="25.051234" lon="121.672012">
        <ele>388.0</ele>
      </trkpt>
      <trkpt lat="25.051234" lon="121.672012">
        <ele>388.0</ele>
      </trkpt>
      <trkpt lat="25.051259" lon="121.671933">
        <ele>390.0</ele>
      </trkpt>
      <trkpt lat="25.051086" lon="121.671569">
        <ele>406.0</ele>
      </trkpt>
      <trkpt lat="25.051096" lon="121.6715">
        <ele>407.0</ele>
      </trkpt>
      <trkpt lat="25.051024" lon="121.671376">
        <ele>411.0</ele>
      </trkpt>
      <trkpt lat="25.050948" lon="121.67118">
        <ele>417.0</ele>
      </trkpt>
      <trkpt lat="25.050681" lon="121.671074">
        <ele>426.0</ele>
      </trkpt>
      <trkpt lat="25.050529" lon="121.671185">
        <ele>428.0</ele>
      </trkpt>
      <trkpt lat="25.050365" lon="121.671006">
        <ele>437.0</ele>
      </trkpt>
      <trkpt lat="25.050321" lon="121.670794">
        <ele>442.0</ele>
      </trkpt>
      <trkpt lat="25.050134" lon="121.67074">
        <ele>447.0</ele>
      </trkpt>
      <trkpt lat="25.050002" lon="121.670632">
        <ele>451.0</ele>
      </trkpt>
      <trkpt lat="25.049958" lon="121.670013">
        <ele>449.0</ele>
      </trkpt>
      <trkpt lat="25.049711" lon="121.669423">
        <ele>445.0</ele>
      </trkpt>
      <trkpt lat="25.049681" lon="121.669324">
        <ele>444.0</ele>
      </trkpt>
      <trkpt lat="25.049677" lon="121.669206">
        <ele>444.0</ele>
      </trkpt>
      <trkpt lat="25.049782" lon="121.669122">
        <ele>445.0</ele>
      </trkpt>
      <trkpt lat="25.049736" lon="121.669022">
        <ele>444.0</ele>
      </trkpt>
      <trkpt lat="25.049837" lon="121.668813">
        <ele>444.0</ele>
      </trkpt>
      <trkpt lat="25.050214" lon="121.668643">
        <ele>444.0</ele>
      </trkpt>
      <trkpt lat="25.050214" lon="121.668643">
        <ele>444.0</ele>
      </trkpt>
      <trkpt lat="25.050441" lon="121.66854">
        <ele>443.0</ele>
      </trkpt>
      <trkpt lat="25.050894" lon="121.6682">
        <ele>439.0</ele>
      </trkpt>
      <trkpt lat="25.051045" lon="121.668124">
        <ele>432.0</ele>
      </trkpt>
      <trkpt lat="25.05114" lon="121.668097">
        <ele>429.0</ele>
      </trkpt>
      <trkpt lat="25.051214" lon="121.667996">
        <ele>424.0</ele>
      </trkpt>
      <trkpt lat="25.051229" lon="121.667943">
        <ele>422.0</ele>
      </trkpt>
      <trkpt lat="25.051258" lon="121.667931">
        <ele>421.0</ele>
      </trkpt>
      <trkpt lat="25.051342" lon="121.66794">
        <ele>420.0</ele>
      </trkpt>
      <trkpt lat="25.051433" lon="121.667914">
        <ele>417.0</ele>
      </trkpt>
      <trkpt lat="25.051504" lon="121.667975">
        <ele>418.0</ele>
      </trkpt>
      <trkpt lat="25.051573" lon="121.667817">
        <ele>413.0</ele>
      </trkpt>
      <trkpt lat="25.051646" lon="121.667699">
        <ele>409.0</ele>
      </trkpt>
      <trkpt lat="25.051719" lon="121.667525">
        <ele>403.0</ele>
      </trkpt>
      <trkpt lat="25.052162" lon="121.666906">
        <ele>368.0</ele>
      </trkpt>
      <trkpt lat="25.052252" lon="121.666758">
        <ele>362.0</ele>
      </trkpt>
      <trkpt lat="25.052329" lon="121.666554">
        <ele>353.0</ele>
      </trkpt>
      <trkpt lat="25.052425" lon="121.666359">
        <ele>343.0</ele>
      </trkpt>
      <trkpt lat="25.052484" lon="121.66615">
        <ele>333.0</ele>
      </trkpt>
      <trkpt lat="25.052609" lon="121.66592">
        <ele>319.0</ele>
      </trkpt>
      <trkpt lat="25.052609" lon="121.66592">
        <ele>319.0</ele>
      </trkpt>
      <trkpt lat="25.052805" lon="121.665564">
        <ele>299.0</ele>
      </trkpt>
      <trkpt lat="25.052897" lon="121.665316">
        <ele>287.0</ele>
      </trkpt>
      <trkpt lat="25.052861" lon="121.664969">
        <ele>277.0</ele>
      </trkpt>
      <trkpt lat="25.052877" lon="121.664783">
        <ele>272.0</ele>
      </trkpt>
      <trkpt lat="25.052895" lon="121.664631">
        <ele>267.0</ele>
      </trkpt>
      <trkpt lat="25.05295" lon="121.664472">
        <ele>261.0</ele>
      </trkpt>
      <trkpt lat="25.053003" lon="121.664378">
        <ele>257.0</ele>
      </trkpt>
      <trkpt lat="25.052991" lon="121.663976">
        <ele>248.0</ele>
      </trkpt>
      <trkpt lat="25.053047" lon="121.663832">
        <ele>244.0</ele>
      </trkpt>
      <trkpt lat="25.053071" lon="121.663684">
        <ele>241.0</ele>
      </trkpt>
      <trkpt lat="25.053072" lon="121.663636">
        <ele>240.0</ele>
      </trkpt>
      <trkpt lat="25.053007" lon="121.66348">
        <ele>239.0</ele>
      </trkpt>
      <trkpt lat="25.052996" lon="121.663364">
        <ele>237.0</ele>
      </trkpt>
      <trkpt lat="25.05304" lon="121.663138">
        <ele>229.0</ele>
      </trkpt>
      <trkpt lat="25.053012" lon="121.663046">
        <ele>227.0</ele>
      </trkpt>
      <trkpt lat="25.052897" lon="121.662928">
        <ele>225.0</ele>
      </trkpt>
      <trkpt lat="25.05293" lon="121.662832">
        <ele>221.0</ele>
      </trkpt>
      <trkpt lat="25.053085" lon="121.662824">
        <ele>218.0</ele>
      </trkpt>
      <trkpt lat="25.053126" lon="121.662814">
        <ele>217.0</ele>
      </trkpt>
      <trkpt lat="25.053167" lon="121.662775">
        <ele>215.0</ele>
      </trkpt>
      <trkpt lat="25.053212" lon="121.662788">
        <ele>214.0</ele>
      </trkpt>
      <trkpt lat="25.053259" lon="121.66289">
        <ele>217.0</ele>
      </trkpt>
      <trkpt lat="25.053307" lon="121.662904">
        <ele>216.0</ele>
      </trkpt>
      <trkpt lat="25.053487" lon="121.663034">
        <ele>212.0</ele>
      </trkpt>
      <trkpt lat="25.053572" lon="121.663061">
        <ele>208.0</ele>
      </trkpt>
      <trkpt lat="25.053642" lon="121.663062">
        <ele>205.0</ele>
      </trkpt>
      <trkpt lat="25.053758" lon="121.663125">
        <ele>201.0</ele>
      </trkpt>
      <trkpt lat="25.053814" lon="121.663168">
        <ele>200.0</ele>
      </trkpt>
      <trkpt lat="25.053935" lon="121.663318">
        <ele>198.0</ele>
      </trkpt>
      <trkpt lat="25.054522" lon="121.663632">
        <ele>182.0</ele>
      </trkpt>
      <trkpt lat="25.054837" lon="121.663835">
        <ele>178.0</ele>
      </trkpt>
      <trkpt lat="25.055015" lon="121.663764">
        <ele>173.0</ele>
      </trkpt>
      <trkpt lat="25.055136" lon="121.66366">
        <ele>167.0</ele>
      </trkpt>
      <trkpt lat="25.055326" lon="121.663537">
        <ele>158.0</ele>
      </trkpt>
      <trkpt lat="25.055366" lon="121.663522">
        <ele>157.0</ele>
      </trkpt>
      <trkpt lat="25.055442" lon="121.66353">
        <ele>154.0</ele>
      </trkpt>
      <trkpt lat="25.055512" lon="121.663557">
        <ele>152.0</ele>
      </trkpt>
      <trkpt lat="25.055631" lon="121.663579">
        <ele>148.0</ele>
      </trkpt>
      <trkpt lat="25.055799" lon="121.663515">
        <ele>141.0</ele>
      </trkpt>
      <trkpt lat="25.056166" lon="121.6633">
        <ele>128.0</ele>
      </trkpt>
      <trkpt lat="25.056421" lon="121.663257">
        <ele>122.0</ele>
      </trkpt>
      <trkpt lat="25.056504" lon="121.663196">
        <ele>119.0</ele>
      </trkpt>
      <trkpt lat="25.056626" lon="121.663048">
        <ele>114.0</ele>
      </trkpt>
      <trkpt lat="25.056682" lon="121.663017">
        <ele>113.0</ele>
      </trkpt>
      <trkpt lat="25.056705" lon="121.662955">
        <ele>112.0</ele>
      </trkpt>
      <trkpt lat="25.056767" lon="121.662901">
        <ele>109.0</ele>
      </trkpt>
      <trkpt lat="25.056778" lon="121.662847">
        <ele>108.0</ele>
      </trkpt>
      <trkpt lat="25.056876" lon="121.662791">
        <ele>105.0</ele>
      </trkpt>
      <trkpt lat="25.057064" lon="121.662608">
        <ele>98.0</ele>
      </trkpt>
      <trkpt lat="25.057162" lon="121.662541">
        <ele>94.0</ele>
      </trkpt>
      <trkpt lat="25.057212" lon="121.662474">
        <ele>92.0</ele>
      </trkpt>
      <trkpt lat="25.05726" lon="121.662447">
        <ele>90.0</ele>
      </trkpt>
      <trkpt lat="25.05728" lon="121.662435">
        <ele>89.0</ele>
      </trkpt>
      <trkpt lat="25.057479" lon="121.662345">
        <ele>83.0</ele>
      </trkpt>
      <trkpt lat="25.057524" lon="121.662306">
        <ele>82.0</ele>
      </trkpt>
      <trkpt lat="25.057591" lon="121.6623">
        <ele>81.0</ele>
      </trkpt>
      <trkpt lat="25.05765" lon="121.662314">
        <ele>80.0</ele>
      </trkpt>
      <trkpt lat="25.057827" lon="121.662214">
        <ele>77.0</ele>
      </trkpt>
    </trkseg>
  </trk>
</gpx>
