<?xml version="1.0" encoding="UTF-8"?>
<gpx xmlns="http://www.topografix.com/GPX/1/1" xmlns:xsi="http://www.w3.org/2001/XMLSchema-instance" xsi:schemaLocation="http://www.topografix.com/GPX/1/1 http://www.topografix.com/GPX/1/1/gpx.xsd" version="1.1" creator="Martin Schneider">
  <wpt lat="25.040822" lon="121.576588">
    <ele>15.0</ele>
    <name>Start</name>
  </wpt>
  <wpt lat="25.032256" lon="121.569997">
    <ele>17.0</ele>
    <name>End</name>
  </wpt>
  <wpt lat="25.0362172" lon="121.5814446">
    <name>1</name>
    <desc>Trailhead</desc>
  </wpt>
  <wpt lat="25.0362172" lon="121.5814446">
    <name>1</name>
    <desc>Trailhead</desc>
  </wpt>
  <wpt lat="25.0313013" lon="121.5836136">
    <name>2</name>
    <desc>Summit Hushan (Tiger Mountain)</desc>
  </wpt>
  <wpt lat="25.0292842" lon="121.5826441">
    <name>3</name>
    <desc>Summit Baoshan (Leopard Mountain)</desc>
  </wpt>
  <wpt lat="25.03216" lon="121.59095">
    <name>4</name>
    <desc>Fork</desc>
  </wpt>
  <wpt lat="25.0315541" lon="121.5925889">
    <name>5</name>
    <desc>Fork</desc>
  </wpt>
  <wpt lat="25.0262261" lon="121.5864497">
    <name>6</name>
    <desc>Summit Jiuwushan (9-5 Mountain)</desc>
  </wpt>
  <wpt lat="25.020531" lon="121.584356">
    <name>7</name>
    <desc>Summit Muzhishan</desc>
  </wpt>
  <wpt lat="25.0265411" lon="121.575542">
    <name>8</name>
    <desc>Summit Xiangshan (Elephant Mountain)</desc>
  </wpt>
  <wpt lat="25.0264083" lon="121.5806063">
    <name>9</name>
    <desc>Summit Shishan (Lion Mountain)</desc>
  </wpt>
  <wpt lat="25.0264083" lon="121.5806063">
    <name>9</name>
    <desc>Summit Shishan (Lion Mountain)</desc>
  </wpt>
  <wpt lat="25.0273435" lon="121.5707637">
    <name>10</name>
    <desc>Trailhead Jingzong Temple</desc>
  </wpt>
  <wpt lat="25.025583" lon="121.586202">
    <ele>338.0</ele>
    <name>Summit Nangangshan</name>
  </wpt>
  <trk>
    <name>13_Nangangshan</name>
    <trkseg>
      <trkpt lat="25.040822" lon="121.576588">
        <ele>15.0</ele>
      </trkpt>
      <trkpt lat="25.040822" lon="121.576588">
        <ele>15.0</ele>
      </trkpt>
      <trkpt lat="25.040815" lon="121.576951">
        <ele>16.0</ele>
      </trkpt>
      <trkpt lat="25.040298" lon="121.576911">
        <ele>19.0</ele>
      </trkpt>
      <trkpt lat="25.040297" lon="121.576928">
        <ele>19.0</ele>
      </trkpt>
      <trkpt lat="25.040297" lon="121.576928">
        <ele>19.0</ele>
      </trkpt>
      <trkpt lat="25.040281" lon="121.577273">
        <ele>19.0</ele>
      </trkpt>
      <trkpt lat="25.040276" lon="121.577273">
        <ele>19.0</ele>
      </trkpt>
      <trkpt lat="25.040276" lon="121.577273">
        <ele>19.0</ele>
      </trkpt>
      <trkpt lat="25.040281" lon="121.577273">
        <ele>19.0</ele>
      </trkpt>
      <trkpt lat="25.04027" lon="121.577707">
        <ele>22.0</ele>
      </trkpt>
      <trkpt lat="25.04027" lon="121.577707">
        <ele>22.0</ele>
      </trkpt>
      <trkpt lat="25.040268" lon="121.57777">
        <ele>23.0</ele>
      </trkpt>
      <trkpt lat="25.039699" lon="121.577753">
        <ele>23.0</ele>
      </trkpt>
      <trkpt lat="25.039615" lon="121.577721">
        <ele>23.0</ele>
      </trkpt>
      <trkpt lat="25.03957" lon="121.577816">
        <ele>24.0</ele>
      </trkpt>
      <trkpt lat="25.039521" lon="121.577826">
        <ele>24.0</ele>
      </trkpt>
      <trkpt lat="25.039521" lon="121.577826">
        <ele>24.0</ele>
      </trkpt>
      <trkpt lat="25.039045" lon="121.577928">
        <ele>25.0</ele>
      </trkpt>
      <trkpt lat="25.038495" lon="121.578012">
        <ele>25.0</ele>
      </trkpt>
      <trkpt lat="25.03811" lon="121.578106">
        <ele>23.0</ele>
      </trkpt>
      <trkpt lat="25.03811" lon="121.578106">
        <ele>23.0</ele>
      </trkpt>
      <trkpt lat="25.037721" lon="121.578201">
        <ele>21.0</ele>
      </trkpt>
      <trkpt lat="25.036272" lon="121.578442">
        <ele>18.0</ele>
      </trkpt>
      <trkpt lat="25.036251" lon="121.578452">
        <ele>18.0</ele>
      </trkpt>
      <trkpt lat="25.036251" lon="121.578452">
        <ele>18.0</ele>
      </trkpt>
      <trkpt lat="25.036194" lon="121.578478">
        <ele>18.0</ele>
      </trkpt>
      <trkpt lat="25.036305" lon="121.579032">
        <ele>18.0</ele>
      </trkpt>
      <trkpt lat="25.036267" lon="121.579086">
        <ele>18.0</ele>
      </trkpt>
      <trkpt lat="25.036264" lon="121.579308">
        <ele>18.0</ele>
      </trkpt>
      <trkpt lat="25.03665" lon="121.580366">
        <ele>17.0</ele>
      </trkpt>
      <trkpt lat="25.036756" lon="121.580601">
        <ele>18.0</ele>
      </trkpt>
      <trkpt lat="25.037041" lon="121.581317">
        <ele>18.0</ele>
      </trkpt>
      <trkpt lat="25.037041" lon="121.581317">
        <ele>18.0</ele>
      </trkpt>
      <trkpt lat="25.037117" lon="121.581507">
        <ele>18.0</ele>
      </trkpt>
      <trkpt lat="25.036896" lon="121.581606">
        <ele>20.0</ele>
      </trkpt>
      <trkpt lat="25.036896" lon="121.581606">
        <ele>20.0</ele>
      </trkpt>
      <trkpt lat="25.036737" lon="121.581661">
        <ele>21.0</ele>
      </trkpt>
      <trkpt lat="25.036661" lon="121.581634">
        <ele>22.0</ele>
      </trkpt>
      <trkpt lat="25.036564" lon="121.581517">
        <ele>22.0</ele>
      </trkpt>
      <trkpt lat="25.036455" lon="121.581479">
        <ele>23.0</ele>
      </trkpt>
      <trkpt lat="25.036223" lon="121.581434">
        <ele>24.0</ele>
      </trkpt>
      <trkpt lat="25.036143" lon="121.58149">
        <ele>25.0</ele>
      </trkpt>
      <trkpt lat="25.036143" lon="121.58149">
        <ele>25.0</ele>
      </trkpt>
      <trkpt lat="25.036093" lon="121.581588">
        <ele>27.0</ele>
      </trkpt>
      <trkpt lat="25.035811" lon="121.581642">
        <ele>30.0</ele>
      </trkpt>
      <trkpt lat="25.035705" lon="121.58161">
        <ele>31.0</ele>
      </trkpt>
      <trkpt lat="25.035474" lon="121.581771">
        <ele>36.0</ele>
      </trkpt>
      <trkpt lat="25.035474" lon="121.581771">
        <ele>36.0</ele>
      </trkpt>
      <trkpt lat="25.035359" lon="121.581993">
        <ele>41.0</ele>
      </trkpt>
      <trkpt lat="25.03518" lon="121.582041">
        <ele>45.0</ele>
      </trkpt>
      <trkpt lat="25.035159" lon="121.582094">
        <ele>46.0</ele>
      </trkpt>
      <trkpt lat="25.03507" lon="121.582137">
        <ele>48.0</ele>
      </trkpt>
      <trkpt lat="25.035014" lon="121.582235">
        <ele>51.0</ele>
      </trkpt>
      <trkpt lat="25.034932" lon="121.582252">
        <ele>52.0</ele>
      </trkpt>
      <trkpt lat="25.034932" lon="121.582252">
        <ele>52.0</ele>
      </trkpt>
      <trkpt lat="25.034827" lon="121.582273">
        <ele>54.0</ele>
      </trkpt>
      <trkpt lat="25.034804" lon="121.582319">
        <ele>55.0</ele>
      </trkpt>
      <trkpt lat="25.034575" lon="121.582344">
        <ele>59.0</ele>
      </trkpt>
      <trkpt lat="25.034278" lon="121.582348">
        <ele>63.0</ele>
      </trkpt>
      <trkpt lat="25.034278" lon="121.582348">
        <ele>63.0</ele>
      </trkpt>
      <trkpt lat="25.033754" lon="121.582354">
        <ele>72.0</ele>
      </trkpt>
      <trkpt lat="25.033611" lon="121.582505">
        <ele>81.0</ele>
      </trkpt>
      <trkpt lat="25.033611" lon="121.582505">
        <ele>81.0</ele>
      </trkpt>
      <trkpt lat="25.033573" lon="121.582545">
        <ele>83.0</ele>
      </trkpt>
      <trkpt lat="25.033394" lon="121.582558">
        <ele>87.0</ele>
      </trkpt>
      <trkpt lat="25.033312" lon="121.58275">
        <ele>90.0</ele>
      </trkpt>
      <trkpt lat="25.033145" lon="121.582861">
        <ele>91.0</ele>
      </trkpt>
      <trkpt lat="25.033067" lon="121.582903">
        <ele>92.0</ele>
      </trkpt>
      <trkpt lat="25.033067" lon="121.582903">
        <ele>92.0</ele>
      </trkpt>
      <trkpt lat="25.032847" lon="121.583003">
        <ele>94.0</ele>
      </trkpt>
      <trkpt lat="25.0327133" lon="121.5830221">
        <ele>94.0</ele>
      </trkpt>
      <trkpt lat="25.03244" lon="121.583061">
        <ele>95.0</ele>
      </trkpt>
      <trkpt lat="25.032368" lon="121.583179">
        <ele>100.0</ele>
      </trkpt>
      <trkpt lat="25.032071" lon="121.583419">
        <ele>105.0</ele>
      </trkpt>
      <trkpt lat="25.031717" lon="121.58339">
        <ele>106.0</ele>
      </trkpt>
      <trkpt lat="25.031663" lon="121.583338">
        <ele>107.0</ele>
      </trkpt>
      <trkpt lat="25.031604" lon="121.583346">
        <ele>107.0</ele>
      </trkpt>
      <trkpt lat="25.031518" lon="121.583447">
        <ele>107.0</ele>
      </trkpt>
      <trkpt lat="25.031392" lon="121.583739">
        <ele>108.0</ele>
      </trkpt>
      <trkpt lat="25.031249" lon="121.58382">
        <ele>110.0</ele>
      </trkpt>
      <trkpt lat="25.031041" lon="121.583842">
        <ele>113.0</ele>
      </trkpt>
      <trkpt lat="25.031041" lon="121.583842">
        <ele>113.0</ele>
      </trkpt>
      <trkpt lat="25.030906" lon="121.583857">
        <ele>116.0</ele>
      </trkpt>
      <trkpt lat="25.030759" lon="121.583937">
        <ele>119.0</ele>
      </trkpt>
      <trkpt lat="25.0304341" lon="121.5839854">
        <ele>123.0</ele>
      </trkpt>
      <trkpt lat="25.030434" lon="121.583986">
        <ele>123.0</ele>
      </trkpt>
      <trkpt lat="25.030403" lon="121.58399">
        <ele>124.0</ele>
      </trkpt>
      <trkpt lat="25.030218" lon="121.583908">
        <ele>125.0</ele>
      </trkpt>
      <trkpt lat="25.03011" lon="121.58395">
        <ele>127.0</ele>
      </trkpt>
      <trkpt lat="25.030008" lon="121.583877">
        <ele>127.0</ele>
      </trkpt>
      <trkpt lat="25.029349" lon="121.583775">
        <ele>137.0</ele>
      </trkpt>
      <trkpt lat="25.029261" lon="121.583754">
        <ele>138.0</ele>
      </trkpt>
      <trkpt lat="25.029199" lon="121.583586">
        <ele>136.0</ele>
      </trkpt>
      <trkpt lat="25.029005" lon="121.583258">
        <ele>130.0</ele>
      </trkpt>
      <trkpt lat="25.029289" lon="121.582988">
        <ele>120.0</ele>
      </trkpt>
      <trkpt lat="25.029353" lon="121.582857">
        <ele>115.0</ele>
      </trkpt>
      <trkpt lat="25.029313" lon="121.582682">
        <ele>110.0</ele>
      </trkpt>
      <trkpt lat="25.02932" lon="121.582664">
        <ele>110.0</ele>
      </trkpt>
      <trkpt lat="25.02932" lon="121.582664">
        <ele>110.0</ele>
      </trkpt>
      <trkpt lat="25.029313" lon="121.582682">
        <ele>110.0</ele>
      </trkpt>
      <trkpt lat="25.029353" lon="121.582857">
        <ele>115.0</ele>
      </trkpt>
      <trkpt lat="25.029289" lon="121.582988">
        <ele>120.0</ele>
      </trkpt>
      <trkpt lat="25.029005" lon="121.583258">
        <ele>130.0</ele>
      </trkpt>
      <trkpt lat="25.029199" lon="121.583586">
        <ele>136.0</ele>
      </trkpt>
      <trkpt lat="25.029261" lon="121.583754">
        <ele>138.0</ele>
      </trkpt>
      <trkpt lat="25.029349" lon="121.583775">
        <ele>137.0</ele>
      </trkpt>
      <trkpt lat="25.030008" lon="121.583877">
        <ele>127.0</ele>
      </trkpt>
      <trkpt lat="25.03011" lon="121.58395">
        <ele>127.0</ele>
      </trkpt>
      <trkpt lat="25.03024" lon="121.58414">
        <ele>128.0</ele>
      </trkpt>
      <trkpt lat="25.03024" lon="121.58414">
        <ele>128.0</ele>
      </trkpt>
      <trkpt lat="25.0304481" lon="121.5844704">
        <ele>118.0</ele>
      </trkpt>
      <trkpt lat="25.030494" lon="121.584557">
        <ele>114.0</ele>
      </trkpt>
      <trkpt lat="25.030494" lon="121.584557">
        <ele>114.0</ele>
      </trkpt>
      <trkpt lat="25.030513" lon="121.584646">
        <ele>111.0</ele>
      </trkpt>
      <trkpt lat="25.030469" lon="121.584696">
        <ele>111.0</ele>
      </trkpt>
      <trkpt lat="25.030142" lon="121.584903">
        <ele>115.0</ele>
      </trkpt>
      <trkpt lat="25.030088" lon="121.585014">
        <ele>115.0</ele>
      </trkpt>
      <trkpt lat="25.030084" lon="121.585082">
        <ele>116.0</ele>
      </trkpt>
      <trkpt lat="25.03009" lon="121.585146">
        <ele>116.0</ele>
      </trkpt>
      <trkpt lat="25.030126" lon="121.585245">
        <ele>116.0</ele>
      </trkpt>
      <trkpt lat="25.030195" lon="121.585378">
        <ele>115.0</ele>
      </trkpt>
      <trkpt lat="25.030504" lon="121.585694">
        <ele>110.0</ele>
      </trkpt>
      <trkpt lat="25.030504" lon="121.585694">
        <ele>110.0</ele>
      </trkpt>
      <trkpt lat="25.030576" lon="121.585705">
        <ele>109.0</ele>
      </trkpt>
      <trkpt lat="25.030659" lon="121.585669">
        <ele>106.0</ele>
      </trkpt>
      <trkpt lat="25.03073" lon="121.585704">
        <ele>105.0</ele>
      </trkpt>
      <trkpt lat="25.031034" lon="121.585779">
        <ele>101.0</ele>
      </trkpt>
      <trkpt lat="25.031367" lon="121.585929">
        <ele>98.0</ele>
      </trkpt>
      <trkpt lat="25.031456" lon="121.585954">
        <ele>97.0</ele>
      </trkpt>
      <trkpt lat="25.031566" lon="121.586057">
        <ele>96.0</ele>
      </trkpt>
      <trkpt lat="25.031466" lon="121.586263">
        <ele>103.0</ele>
      </trkpt>
      <trkpt lat="25.031389" lon="121.58636">
        <ele>107.0</ele>
      </trkpt>
      <trkpt lat="25.031287" lon="121.586406">
        <ele>111.0</ele>
      </trkpt>
      <trkpt lat="25.031259" lon="121.586403">
        <ele>111.0</ele>
      </trkpt>
      <trkpt lat="25.031218" lon="121.58639">
        <ele>112.0</ele>
      </trkpt>
      <trkpt lat="25.031218" lon="121.58639">
        <ele>112.0</ele>
      </trkpt>
      <trkpt lat="25.031259" lon="121.586403">
        <ele>111.0</ele>
      </trkpt>
      <trkpt lat="25.031066" lon="121.586546">
        <ele>121.0</ele>
      </trkpt>
      <trkpt lat="25.030994" lon="121.586648">
        <ele>127.0</ele>
      </trkpt>
      <trkpt lat="25.031007" lon="121.586713">
        <ele>127.0</ele>
      </trkpt>
      <trkpt lat="25.030934" lon="121.586737">
        <ele>130.0</ele>
      </trkpt>
      <trkpt lat="25.030942" lon="121.58675">
        <ele>129.0</ele>
      </trkpt>
      <trkpt lat="25.030971" lon="121.586803">
        <ele>129.0</ele>
      </trkpt>
      <trkpt lat="25.030998" lon="121.587046">
        <ele>129.0</ele>
      </trkpt>
      <trkpt lat="25.0308347" lon="121.5872913">
        <ele>135.0</ele>
      </trkpt>
      <trkpt lat="25.030784" lon="121.587494">
        <ele>138.0</ele>
      </trkpt>
      <trkpt lat="25.030651" lon="121.58761">
        <ele>144.0</ele>
      </trkpt>
      <trkpt lat="25.030604" lon="121.587692">
        <ele>147.0</ele>
      </trkpt>
      <trkpt lat="25.030635" lon="121.587866">
        <ele>147.0</ele>
      </trkpt>
      <trkpt lat="25.030661" lon="121.588262">
        <ele>148.0</ele>
      </trkpt>
      <trkpt lat="25.030931" lon="121.588595">
        <ele>138.0</ele>
      </trkpt>
      <trkpt lat="25.030978" lon="121.589299">
        <ele>148.0</ele>
      </trkpt>
      <trkpt lat="25.03113" lon="121.589645">
        <ele>149.0</ele>
      </trkpt>
      <trkpt lat="25.031375" lon="121.589793">
        <ele>139.0</ele>
      </trkpt>
      <trkpt lat="25.0314178" lon="121.589826">
        <ele>137.0</ele>
      </trkpt>
      <trkpt lat="25.031418" lon="121.589826">
        <ele>137.0</ele>
      </trkpt>
      <trkpt lat="25.031529" lon="121.589912">
        <ele>133.0</ele>
      </trkpt>
      <trkpt lat="25.031509" lon="121.589947">
        <ele>134.0</ele>
      </trkpt>
      <trkpt lat="25.031556" lon="121.589931">
        <ele>131.0</ele>
      </trkpt>
      <trkpt lat="25.031574" lon="121.589964">
        <ele>131.0</ele>
      </trkpt>
      <trkpt lat="25.031603" lon="121.59049">
        <ele>147.0</ele>
      </trkpt>
      <trkpt lat="25.03171" lon="121.590541">
        <ele>143.0</ele>
      </trkpt>
      <trkpt lat="25.031776" lon="121.590707">
        <ele>146.0</ele>
      </trkpt>
      <trkpt lat="25.031846" lon="121.590746">
        <ele>144.0</ele>
      </trkpt>
      <trkpt lat="25.03191" lon="121.59081">
        <ele>144.0</ele>
      </trkpt>
      <trkpt lat="25.032019" lon="121.590848">
        <ele>141.0</ele>
      </trkpt>
      <trkpt lat="25.032113" lon="121.590927">
        <ele>139.0</ele>
      </trkpt>
      <trkpt lat="25.032165" lon="121.590953">
        <ele>138.0</ele>
      </trkpt>
      <trkpt lat="25.032112" lon="121.590999">
        <ele>141.0</ele>
      </trkpt>
      <trkpt lat="25.032145" lon="121.591119">
        <ele>143.0</ele>
      </trkpt>
      <trkpt lat="25.032125" lon="121.591222">
        <ele>147.0</ele>
      </trkpt>
      <trkpt lat="25.032066" lon="121.591334">
        <ele>154.0</ele>
      </trkpt>
      <trkpt lat="25.032041" lon="121.591369">
        <ele>156.0</ele>
      </trkpt>
      <trkpt lat="25.032009" lon="121.591379">
        <ele>158.0</ele>
      </trkpt>
      <trkpt lat="25.031992" lon="121.591416">
        <ele>160.0</ele>
      </trkpt>
      <trkpt lat="25.032001" lon="121.591446">
        <ele>160.0</ele>
      </trkpt>
      <trkpt lat="25.032027" lon="121.59147">
        <ele>160.0</ele>
      </trkpt>
      <trkpt lat="25.032027" lon="121.591501">
        <ele>161.0</ele>
      </trkpt>
      <trkpt lat="25.032101" lon="121.591568">
        <ele>159.0</ele>
      </trkpt>
      <trkpt lat="25.032138" lon="121.591582">
        <ele>158.0</ele>
      </trkpt>
      <trkpt lat="25.032195" lon="121.591659">
        <ele>157.0</ele>
      </trkpt>
      <trkpt lat="25.032187" lon="121.591699">
        <ele>159.0</ele>
      </trkpt>
      <trkpt lat="25.032161" lon="121.591723">
        <ele>161.0</ele>
      </trkpt>
      <trkpt lat="25.0321" lon="121.591684">
        <ele>163.0</ele>
      </trkpt>
      <trkpt lat="25.032072" lon="121.591628">
        <ele>162.0</ele>
      </trkpt>
      <trkpt lat="25.031977" lon="121.591677">
        <ele>169.0</ele>
      </trkpt>
      <trkpt lat="25.03197" lon="121.59175">
        <ele>171.0</ele>
      </trkpt>
      <trkpt lat="25.03194" lon="121.591777">
        <ele>173.0</ele>
      </trkpt>
      <trkpt lat="25.031852" lon="121.591763">
        <ele>177.0</ele>
      </trkpt>
      <trkpt lat="25.031803" lon="121.591779">
        <ele>180.0</ele>
      </trkpt>
      <trkpt lat="25.031809" lon="121.591812">
        <ele>181.0</ele>
      </trkpt>
      <trkpt lat="25.031864" lon="121.591828">
        <ele>179.0</ele>
      </trkpt>
      <trkpt lat="25.03185" lon="121.591868">
        <ele>181.0</ele>
      </trkpt>
      <trkpt lat="25.03185" lon="121.591868">
        <ele>181.0</ele>
      </trkpt>
      <trkpt lat="25.031704" lon="121.591973">
        <ele>191.0</ele>
      </trkpt>
      <trkpt lat="25.031717" lon="121.592003">
        <ele>191.0</ele>
      </trkpt>
      <trkpt lat="25.031555" lon="121.592106">
        <ele>202.0</ele>
      </trkpt>
      <trkpt lat="25.031539" lon="121.592139">
        <ele>203.0</ele>
      </trkpt>
      <trkpt lat="25.031537" lon="121.592388">
        <ele>210.0</ele>
      </trkpt>
      <trkpt lat="25.031554" lon="121.592504">
        <ele>212.0</ele>
      </trkpt>
      <trkpt lat="25.031535" lon="121.592559">
        <ele>213.0</ele>
      </trkpt>
      <trkpt lat="25.031518" lon="121.592558">
        <ele>213.0</ele>
      </trkpt>
      <trkpt lat="25.031477" lon="121.592523">
        <ele>215.0</ele>
      </trkpt>
      <trkpt lat="25.031466" lon="121.592402">
        <ele>213.0</ele>
      </trkpt>
      <trkpt lat="25.031442" lon="121.592371">
        <ele>213.0</ele>
      </trkpt>
      <trkpt lat="25.031238" lon="121.592226">
        <ele>217.0</ele>
      </trkpt>
      <trkpt lat="25.031153" lon="121.592118">
        <ele>219.0</ele>
      </trkpt>
      <trkpt lat="25.031046" lon="121.592076">
        <ele>223.0</ele>
      </trkpt>
      <trkpt lat="25.030998" lon="121.592028">
        <ele>225.0</ele>
      </trkpt>
      <trkpt lat="25.030938" lon="121.591948">
        <ele>227.0</ele>
      </trkpt>
      <trkpt lat="25.030938" lon="121.591948">
        <ele>227.0</ele>
      </trkpt>
      <trkpt lat="25.030779" lon="121.591738">
        <ele>233.0</ele>
      </trkpt>
      <trkpt lat="25.030554" lon="121.59168">
        <ele>239.0</ele>
      </trkpt>
      <trkpt lat="25.030425" lon="121.591679">
        <ele>243.0</ele>
      </trkpt>
      <trkpt lat="25.030369" lon="121.591639">
        <ele>244.0</ele>
      </trkpt>
      <trkpt lat="25.030029" lon="121.591281">
        <ele>256.0</ele>
      </trkpt>
      <trkpt lat="25.02997" lon="121.59127">
        <ele>257.0</ele>
      </trkpt>
      <trkpt lat="25.029797" lon="121.59117">
        <ele>259.0</ele>
      </trkpt>
      <trkpt lat="25.029869" lon="121.591036">
        <ele>259.0</ele>
      </trkpt>
      <trkpt lat="25.029888" lon="121.59081">
        <ele>260.0</ele>
      </trkpt>
      <trkpt lat="25.029827" lon="121.590644">
        <ele>258.0</ele>
      </trkpt>
      <trkpt lat="25.029875" lon="121.590544">
        <ele>255.0</ele>
      </trkpt>
      <trkpt lat="25.029885" lon="121.590484">
        <ele>254.0</ele>
      </trkpt>
      <trkpt lat="25.029854" lon="121.590449">
        <ele>254.0</ele>
      </trkpt>
      <trkpt lat="25.029836" lon="121.590396">
        <ele>254.0</ele>
      </trkpt>
      <trkpt lat="25.02979" lon="121.590303">
        <ele>254.0</ele>
      </trkpt>
      <trkpt lat="25.029729" lon="121.590279">
        <ele>257.0</ele>
      </trkpt>
      <trkpt lat="25.029598" lon="121.590192">
        <ele>261.0</ele>
      </trkpt>
      <trkpt lat="25.029494" lon="121.590068">
        <ele>266.0</ele>
      </trkpt>
      <trkpt lat="25.029343" lon="121.589769">
        <ele>270.0</ele>
      </trkpt>
      <trkpt lat="25.029309" lon="121.589586">
        <ele>269.0</ele>
      </trkpt>
      <trkpt lat="25.029202" lon="121.589481">
        <ele>274.0</ele>
      </trkpt>
      <trkpt lat="25.029115" lon="121.589471">
        <ele>278.0</ele>
      </trkpt>
      <trkpt lat="25.029072" lon="121.589429">
        <ele>279.0</ele>
      </trkpt>
      <trkpt lat="25.029019" lon="121.589278">
        <ele>279.0</ele>
      </trkpt>
      <trkpt lat="25.028961" lon="121.589185">
        <ele>281.0</ele>
      </trkpt>
      <trkpt lat="25.028853" lon="121.589095">
        <ele>285.0</ele>
      </trkpt>
      <trkpt lat="25.028734" lon="121.588987">
        <ele>288.0</ele>
      </trkpt>
      <trkpt lat="25.02866" lon="121.588744">
        <ele>287.0</ele>
      </trkpt>
      <trkpt lat="25.02862" lon="121.588702">
        <ele>289.0</ele>
      </trkpt>
      <trkpt lat="25.02857" lon="121.588581">
        <ele>290.0</ele>
      </trkpt>
      <trkpt lat="25.028609" lon="121.588405">
        <ele>285.0</ele>
      </trkpt>
      <trkpt lat="25.02846" lon="121.588298">
        <ele>293.0</ele>
      </trkpt>
      <trkpt lat="25.028234" lon="121.588241">
        <ele>303.0</ele>
      </trkpt>
      <trkpt lat="25.028066" lon="121.588158">
        <ele>305.0</ele>
      </trkpt>
      <trkpt lat="25.028029" lon="121.588095">
        <ele>304.0</ele>
      </trkpt>
      <trkpt lat="25.027967" lon="121.588059">
        <ele>306.0</ele>
      </trkpt>
      <trkpt lat="25.027917" lon="121.587979">
        <ele>306.0</ele>
      </trkpt>
      <trkpt lat="25.027837" lon="121.587924">
        <ele>308.0</ele>
      </trkpt>
      <trkpt lat="25.027801" lon="121.587855">
        <ele>308.0</ele>
      </trkpt>
      <trkpt lat="25.027734" lon="121.587811">
        <ele>311.0</ele>
      </trkpt>
      <trkpt lat="25.027675" lon="121.587739">
        <ele>313.0</ele>
      </trkpt>
      <trkpt lat="25.027617" lon="121.58771">
        <ele>316.0</ele>
      </trkpt>
      <trkpt lat="25.02751" lon="121.587578">
        <ele>322.0</ele>
      </trkpt>
      <trkpt lat="25.027316" lon="121.587347">
        <ele>320.0</ele>
      </trkpt>
      <trkpt lat="25.027262" lon="121.587252">
        <ele>319.0</ele>
      </trkpt>
      <trkpt lat="25.02725" lon="121.587155">
        <ele>316.0</ele>
      </trkpt>
      <trkpt lat="25.027191" lon="121.587072">
        <ele>316.0</ele>
      </trkpt>
      <trkpt lat="25.027112" lon="121.586901">
        <ele>315.0</ele>
      </trkpt>
      <trkpt lat="25.026958" lon="121.586823">
        <ele>321.0</ele>
      </trkpt>
      <trkpt lat="25.026745" lon="121.586582">
        <ele>325.0</ele>
      </trkpt>
      <trkpt lat="25.026633" lon="121.586565">
        <ele>329.0</ele>
      </trkpt>
      <trkpt lat="25.0266" lon="121.586531">
        <ele>328.0</ele>
      </trkpt>
      <trkpt lat="25.026536" lon="121.586505">
        <ele>329.0</ele>
      </trkpt>
      <trkpt lat="25.026487" lon="121.586507">
        <ele>330.0</ele>
      </trkpt>
      <trkpt lat="25.02644" lon="121.586489">
        <ele>330.0</ele>
      </trkpt>
      <trkpt lat="25.026313" lon="121.586511">
        <ele>335.0</ele>
      </trkpt>
      <trkpt lat="25.026287" lon="121.586485">
        <ele>334.0</ele>
      </trkpt>
      <trkpt lat="25.026229" lon="121.586484">
        <ele>336.0</ele>
      </trkpt>
      <trkpt lat="25.026212" lon="121.586469">
        <ele>336.0</ele>
      </trkpt>
      <trkpt lat="25.026212" lon="121.586469">
        <ele>336.0</ele>
      </trkpt>
      <trkpt lat="25.026193" lon="121.586453">
        <ele>335.0</ele>
      </trkpt>
      <trkpt lat="25.026183" lon="121.586479">
        <ele>337.0</ele>
      </trkpt>
      <trkpt lat="25.026112" lon="121.58644">
        <ele>337.0</ele>
      </trkpt>
      <trkpt lat="25.025987" lon="121.586375">
        <ele>337.0</ele>
      </trkpt>
      <trkpt lat="25.025837" lon="121.586338">
        <ele>340.0</ele>
      </trkpt>
      <trkpt lat="25.025809" lon="121.586347">
        <ele>341.0</ele>
      </trkpt>
      <trkpt lat="25.025621" lon="121.58616">
        <ele>336.0</ele>
      </trkpt>
      <trkpt lat="25.025583" lon="121.586202">
        <ele>338.0</ele>
      </trkpt>
      <trkpt lat="25.025583" lon="121.586202">
        <ele>338.0</ele>
      </trkpt>
      <trkpt lat="25.025621" lon="121.58616">
        <ele>336.0</ele>
      </trkpt>
      <trkpt lat="25.025535" lon="121.586049">
        <ele>334.0</ele>
      </trkpt>
      <trkpt lat="25.025432" lon="121.585995">
        <ele>336.0</ele>
      </trkpt>
      <trkpt lat="25.025274" lon="121.585981">
        <ele>340.0</ele>
      </trkpt>
      <trkpt lat="25.025109" lon="121.585926">
        <ele>344.0</ele>
      </trkpt>
      <trkpt lat="25.024979" lon="121.585862">
        <ele>347.0</ele>
      </trkpt>
      <trkpt lat="25.024886" lon="121.585681">
        <ele>335.0</ele>
      </trkpt>
      <trkpt lat="25.024775" lon="121.585607">
        <ele>330.0</ele>
      </trkpt>
      <trkpt lat="25.024678" lon="121.585492">
        <ele>322.0</ele>
      </trkpt>
      <trkpt lat="25.024594" lon="121.585453">
        <ele>320.0</ele>
      </trkpt>
      <trkpt lat="25.024485" lon="121.585372">
        <ele>315.0</ele>
      </trkpt>
      <trkpt lat="25.024422" lon="121.585357">
        <ele>314.0</ele>
      </trkpt>
      <trkpt lat="25.024329" lon="121.585363">
        <ele>315.0</ele>
      </trkpt>
      <trkpt lat="25.024196" lon="121.585321">
        <ele>313.0</ele>
      </trkpt>
      <trkpt lat="25.024121" lon="121.585254">
        <ele>311.0</ele>
      </trkpt>
      <trkpt lat="25.023997" lon="121.585206">
        <ele>311.0</ele>
      </trkpt>
      <trkpt lat="25.023905" lon="121.585208">
        <ele>313.0</ele>
      </trkpt>
      <trkpt lat="25.023803" lon="121.585153">
        <ele>313.0</ele>
      </trkpt>
      <trkpt lat="25.023769" lon="121.585109">
        <ele>313.0</ele>
      </trkpt>
      <trkpt lat="25.023733" lon="121.585091">
        <ele>313.0</ele>
      </trkpt>
      <trkpt lat="25.023652" lon="121.585093">
        <ele>314.0</ele>
      </trkpt>
      <trkpt lat="25.023637" lon="121.585065">
        <ele>314.0</ele>
      </trkpt>
      <trkpt lat="25.023511" lon="121.585018">
        <ele>316.0</ele>
      </trkpt>
      <trkpt lat="25.023447" lon="121.585014">
        <ele>318.0</ele>
      </trkpt>
      <trkpt lat="25.023364" lon="121.584929">
        <ele>316.0</ele>
      </trkpt>
      <trkpt lat="25.023269" lon="121.584778">
        <ele>310.0</ele>
      </trkpt>
      <trkpt lat="25.023182" lon="121.58469">
        <ele>306.0</ele>
      </trkpt>
      <trkpt lat="25.02315" lon="121.5847">
        <ele>307.0</ele>
      </trkpt>
      <trkpt lat="25.023081" lon="121.58472">
        <ele>308.0</ele>
      </trkpt>
      <trkpt lat="25.023013" lon="121.584798">
        <ele>313.0</ele>
      </trkpt>
      <trkpt lat="25.022891" lon="121.584842">
        <ele>317.0</ele>
      </trkpt>
      <trkpt lat="25.02277" lon="121.584855">
        <ele>319.0</ele>
      </trkpt>
      <trkpt lat="25.022496" lon="121.584749">
        <ele>315.0</ele>
      </trkpt>
      <trkpt lat="25.022114" lon="121.584775">
        <ele>309.0</ele>
      </trkpt>
      <trkpt lat="25.021897" lon="121.584813">
        <ele>306.0</ele>
      </trkpt>
      <trkpt lat="25.021803" lon="121.584883">
        <ele>307.0</ele>
      </trkpt>
      <trkpt lat="25.021702" lon="121.584878">
        <ele>304.0</ele>
      </trkpt>
      <trkpt lat="25.021617" lon="121.584925">
        <ele>304.0</ele>
      </trkpt>
      <trkpt lat="25.021468" lon="121.584829">
        <ele>296.0</ele>
      </trkpt>
      <trkpt lat="25.021389" lon="121.584806">
        <ele>293.0</ele>
      </trkpt>
      <trkpt lat="25.021315" lon="121.58476">
        <ele>290.0</ele>
      </trkpt>
      <trkpt lat="25.021244" lon="121.584647">
        <ele>285.0</ele>
      </trkpt>
      <trkpt lat="25.021124" lon="121.584603">
        <ele>282.0</ele>
      </trkpt>
      <trkpt lat="25.021052" lon="121.584523">
        <ele>279.0</ele>
      </trkpt>
      <trkpt lat="25.021008" lon="121.584508">
        <ele>279.0</ele>
      </trkpt>
      <trkpt lat="25.020945" lon="121.584432">
        <ele>277.0</ele>
      </trkpt>
      <trkpt lat="25.020862" lon="121.584366">
        <ele>276.0</ele>
      </trkpt>
      <trkpt lat="25.02084" lon="121.584355">
        <ele>275.0</ele>
      </trkpt>
      <trkpt lat="25.020712" lon="121.584368">
        <ele>277.0</ele>
      </trkpt>
      <trkpt lat="25.020596" lon="121.584272">
        <ele>278.0</ele>
      </trkpt>
      <trkpt lat="25.020525" lon="121.58418">
        <ele>278.0</ele>
      </trkpt>
      <trkpt lat="25.020462" lon="121.584152">
        <ele>279.0</ele>
      </trkpt>
      <trkpt lat="25.020432" lon="121.584139">
        <ele>278.0</ele>
      </trkpt>
      <trkpt lat="25.020347" lon="121.584052">
        <ele>275.0</ele>
      </trkpt>
      <trkpt lat="25.02035" lon="121.58409">
        <ele>277.0</ele>
      </trkpt>
      <trkpt lat="25.02026" lon="121.584232">
        <ele>282.0</ele>
      </trkpt>
      <trkpt lat="25.020331" lon="121.584374">
        <ele>281.0</ele>
      </trkpt>
      <trkpt lat="25.020378" lon="121.584436">
        <ele>281.0</ele>
      </trkpt>
      <trkpt lat="25.020397" lon="121.58453">
        <ele>280.0</ele>
      </trkpt>
      <trkpt lat="25.020435" lon="121.584548">
        <ele>280.0</ele>
      </trkpt>
      <trkpt lat="25.020508" lon="121.58437">
        <ele>279.0</ele>
      </trkpt>
      <trkpt lat="25.020531" lon="121.584362">
        <ele>279.0</ele>
      </trkpt>
      <trkpt lat="25.020531" lon="121.584362">
        <ele>279.0</ele>
      </trkpt>
      <trkpt lat="25.020508" lon="121.58437">
        <ele>279.0</ele>
      </trkpt>
      <trkpt lat="25.020435" lon="121.584548">
        <ele>280.0</ele>
      </trkpt>
      <trkpt lat="25.020397" lon="121.58453">
        <ele>280.0</ele>
      </trkpt>
      <trkpt lat="25.020378" lon="121.584436">
        <ele>281.0</ele>
      </trkpt>
      <trkpt lat="25.020331" lon="121.584374">
        <ele>281.0</ele>
      </trkpt>
      <trkpt lat="25.02026" lon="121.584232">
        <ele>282.0</ele>
      </trkpt>
      <trkpt lat="25.02035" lon="121.58409">
        <ele>277.0</ele>
      </trkpt>
      <trkpt lat="25.020347" lon="121.584052">
        <ele>275.0</ele>
      </trkpt>
      <trkpt lat="25.020315" lon="121.584017">
        <ele>274.0</ele>
      </trkpt>
      <trkpt lat="25.020229" lon="121.583982">
        <ele>273.0</ele>
      </trkpt>
      <trkpt lat="25.020194" lon="121.583955">
        <ele>272.0</ele>
      </trkpt>
      <trkpt lat="25.020178" lon="121.583919">
        <ele>271.0</ele>
      </trkpt>
      <trkpt lat="25.020231" lon="121.583825">
        <ele>265.0</ele>
      </trkpt>
      <trkpt lat="25.020259" lon="121.583806">
        <ele>263.0</ele>
      </trkpt>
      <trkpt lat="25.020295" lon="121.58381">
        <ele>263.0</ele>
      </trkpt>
      <trkpt lat="25.020292" lon="121.583848">
        <ele>265.0</ele>
      </trkpt>
      <trkpt lat="25.020322" lon="121.583864">
        <ele>265.0</ele>
      </trkpt>
      <trkpt lat="25.020347" lon="121.583856">
        <ele>265.0</ele>
      </trkpt>
      <trkpt lat="25.020368" lon="121.583823">
        <ele>263.0</ele>
      </trkpt>
      <trkpt lat="25.020364" lon="121.583802">
        <ele>262.0</ele>
      </trkpt>
      <trkpt lat="25.020469" lon="121.583811">
        <ele>260.0</ele>
      </trkpt>
      <trkpt lat="25.020489" lon="121.583801">
        <ele>260.0</ele>
      </trkpt>
      <trkpt lat="25.020583" lon="121.583665">
        <ele>251.0</ele>
      </trkpt>
      <trkpt lat="25.020623" lon="121.583553">
        <ele>244.0</ele>
      </trkpt>
      <trkpt lat="25.020645" lon="121.583394">
        <ele>235.0</ele>
      </trkpt>
      <trkpt lat="25.020626" lon="121.583333">
        <ele>232.0</ele>
      </trkpt>
      <trkpt lat="25.020715" lon="121.583168">
        <ele>222.0</ele>
      </trkpt>
      <trkpt lat="25.020707" lon="121.583112">
        <ele>219.0</ele>
      </trkpt>
      <trkpt lat="25.020682" lon="121.583094">
        <ele>218.0</ele>
      </trkpt>
      <trkpt lat="25.020582" lon="121.583082">
        <ele>218.0</ele>
      </trkpt>
      <trkpt lat="25.020576" lon="121.583057">
        <ele>217.0</ele>
      </trkpt>
      <trkpt lat="25.02062" lon="121.583008">
        <ele>214.0</ele>
      </trkpt>
      <trkpt lat="25.020766" lon="121.582949">
        <ele>209.0</ele>
      </trkpt>
      <trkpt lat="25.020821" lon="121.582953">
        <ele>209.0</ele>
      </trkpt>
      <trkpt lat="25.020847" lon="121.582975">
        <ele>209.0</ele>
      </trkpt>
      <trkpt lat="25.021008" lon="121.583168">
        <ele>217.0</ele>
      </trkpt>
      <trkpt lat="25.021186" lon="121.583182">
        <ele>215.0</ele>
      </trkpt>
      <trkpt lat="25.021307" lon="121.583133">
        <ele>210.0</ele>
      </trkpt>
      <trkpt lat="25.021467" lon="121.583064">
        <ele>204.0</ele>
      </trkpt>
      <trkpt lat="25.021518" lon="121.582976">
        <ele>199.0</ele>
      </trkpt>
      <trkpt lat="25.021641" lon="121.582895">
        <ele>192.0</ele>
      </trkpt>
      <trkpt lat="25.02191" lon="121.582916">
        <ele>193.0</ele>
      </trkpt>
      <trkpt lat="25.022081" lon="121.582972">
        <ele>197.0</ele>
      </trkpt>
      <trkpt lat="25.022151" lon="121.582965">
        <ele>197.0</ele>
      </trkpt>
      <trkpt lat="25.022192" lon="121.582948">
        <ele>196.0</ele>
      </trkpt>
      <trkpt lat="25.022273" lon="121.582867">
        <ele>191.0</ele>
      </trkpt>
      <trkpt lat="25.022335" lon="121.582842">
        <ele>190.0</ele>
      </trkpt>
      <trkpt lat="25.022385" lon="121.582715">
        <ele>183.0</ele>
      </trkpt>
      <trkpt lat="25.022408" lon="121.582724">
        <ele>184.0</ele>
      </trkpt>
      <trkpt lat="25.022513" lon="121.582682">
        <ele>182.0</ele>
      </trkpt>
      <trkpt lat="25.022593" lon="121.582585">
        <ele>178.0</ele>
      </trkpt>
      <trkpt lat="25.022599" lon="121.582551">
        <ele>176.0</ele>
      </trkpt>
      <trkpt lat="25.022773" lon="121.582509">
        <ele>177.0</ele>
      </trkpt>
      <trkpt lat="25.022986" lon="121.582363">
        <ele>174.0</ele>
      </trkpt>
      <trkpt lat="25.023163" lon="121.582315">
        <ele>175.0</ele>
      </trkpt>
      <trkpt lat="25.023219" lon="121.582273">
        <ele>174.0</ele>
      </trkpt>
      <trkpt lat="25.02343" lon="121.582212">
        <ele>174.0</ele>
      </trkpt>
      <trkpt lat="25.023481" lon="121.582098">
        <ele>170.0</ele>
      </trkpt>
      <trkpt lat="25.02361" lon="121.582023">
        <ele>168.0</ele>
      </trkpt>
      <trkpt lat="25.023686" lon="121.581961">
        <ele>166.0</ele>
      </trkpt>
      <trkpt lat="25.023764" lon="121.581858">
        <ele>164.0</ele>
      </trkpt>
      <trkpt lat="25.023814" lon="121.581832">
        <ele>163.0</ele>
      </trkpt>
      <trkpt lat="25.023916" lon="121.581828">
        <ele>165.0</ele>
      </trkpt>
      <trkpt lat="25.024124" lon="121.581893">
        <ele>169.0</ele>
      </trkpt>
      <trkpt lat="25.024196" lon="121.581888">
        <ele>169.0</ele>
      </trkpt>
      <trkpt lat="25.024311" lon="121.581766">
        <ele>165.0</ele>
      </trkpt>
      <trkpt lat="25.02438" lon="121.581668">
        <ele>162.0</ele>
      </trkpt>
      <trkpt lat="25.024588" lon="121.581408">
        <ele>158.0</ele>
      </trkpt>
      <trkpt lat="25.024626" lon="121.581328">
        <ele>158.0</ele>
      </trkpt>
      <trkpt lat="25.024656" lon="121.581297">
        <ele>158.0</ele>
      </trkpt>
      <trkpt lat="25.0247369" lon="121.5813004">
        <ele>158.0</ele>
      </trkpt>
      <trkpt lat="25.024737" lon="121.581301">
        <ele>158.0</ele>
      </trkpt>
      <trkpt lat="25.024949" lon="121.581269">
        <ele>159.0</ele>
      </trkpt>
      <trkpt lat="25.025012" lon="121.581222">
        <ele>159.0</ele>
      </trkpt>
      <trkpt lat="25.025114" lon="121.581062">
        <ele>158.0</ele>
      </trkpt>
      <trkpt lat="25.025103" lon="121.581021">
        <ele>159.0</ele>
      </trkpt>
      <trkpt lat="25.025332" lon="121.581094">
        <ele>153.0</ele>
      </trkpt>
      <trkpt lat="25.025436" lon="121.581099">
        <ele>150.0</ele>
      </trkpt>
      <trkpt lat="25.025469" lon="121.581079">
        <ele>150.0</ele>
      </trkpt>
      <trkpt lat="25.025496" lon="121.581049">
        <ele>150.0</ele>
      </trkpt>
      <trkpt lat="25.0255201" lon="121.5809855">
        <ele>150.0</ele>
      </trkpt>
      <trkpt lat="25.02554" lon="121.580933">
        <ele>150.0</ele>
      </trkpt>
      <trkpt lat="25.025615" lon="121.580866">
        <ele>149.0</ele>
      </trkpt>
      <trkpt lat="25.0256176" lon="121.5808224">
        <ele>149.0</ele>
      </trkpt>
      <trkpt lat="25.025618" lon="121.580822">
        <ele>149.0</ele>
      </trkpt>
      <trkpt lat="25.025621" lon="121.580765">
        <ele>148.0</ele>
      </trkpt>
      <trkpt lat="25.025589" lon="121.580718">
        <ele>148.0</ele>
      </trkpt>
      <trkpt lat="25.025606" lon="121.580653">
        <ele>147.0</ele>
      </trkpt>
      <trkpt lat="25.025635" lon="121.580622">
        <ele>145.0</ele>
      </trkpt>
      <trkpt lat="25.025735" lon="121.580632">
        <ele>143.0</ele>
      </trkpt>
      <trkpt lat="25.025729" lon="121.58104">
        <ele>144.0</ele>
      </trkpt>
      <trkpt lat="25.025797" lon="121.581013">
        <ele>143.0</ele>
      </trkpt>
      <trkpt lat="25.02586" lon="121.580904">
        <ele>144.0</ele>
      </trkpt>
      <trkpt lat="25.025928" lon="121.580859">
        <ele>144.0</ele>
      </trkpt>
      <trkpt lat="25.025996" lon="121.580845">
        <ele>143.0</ele>
      </trkpt>
      <trkpt lat="25.026065" lon="121.580746">
        <ele>141.0</ele>
      </trkpt>
      <trkpt lat="25.026123" lon="121.580708">
        <ele>140.0</ele>
      </trkpt>
      <trkpt lat="25.026198" lon="121.580688">
        <ele>139.0</ele>
      </trkpt>
      <trkpt lat="25.02624" lon="121.580703">
        <ele>138.0</ele>
      </trkpt>
      <trkpt lat="25.026335" lon="121.580651">
        <ele>137.0</ele>
      </trkpt>
      <trkpt lat="25.026421" lon="121.58064">
        <ele>136.0</ele>
      </trkpt>
      <trkpt lat="25.026421" lon="121.58064">
        <ele>136.0</ele>
      </trkpt>
      <trkpt lat="25.026335" lon="121.580651">
        <ele>137.0</ele>
      </trkpt>
      <trkpt lat="25.02624" lon="121.580703">
        <ele>138.0</ele>
      </trkpt>
      <trkpt lat="25.026198" lon="121.580688">
        <ele>139.0</ele>
      </trkpt>
      <trkpt lat="25.026123" lon="121.580708">
        <ele>140.0</ele>
      </trkpt>
      <trkpt lat="25.026065" lon="121.580746">
        <ele>141.0</ele>
      </trkpt>
      <trkpt lat="25.025996" lon="121.580845">
        <ele>143.0</ele>
      </trkpt>
      <trkpt lat="25.025928" lon="121.580859">
        <ele>144.0</ele>
      </trkpt>
      <trkpt lat="25.02586" lon="121.580904">
        <ele>144.0</ele>
      </trkpt>
      <trkpt lat="25.025797" lon="121.581013">
        <ele>143.0</ele>
      </trkpt>
      <trkpt lat="25.025729" lon="121.58104">
        <ele>144.0</ele>
      </trkpt>
      <trkpt lat="25.025735" lon="121.580632">
        <ele>143.0</ele>
      </trkpt>
      <trkpt lat="25.025849" lon="121.58021">
        <ele>134.0</ele>
      </trkpt>
      <trkpt lat="25.025904" lon="121.580111">
        <ele>131.0</ele>
      </trkpt>
      <trkpt lat="25.025961" lon="121.580049">
        <ele>130.0</ele>
      </trkpt>
      <trkpt lat="25.025961" lon="121.580049">
        <ele>130.0</ele>
      </trkpt>
      <trkpt lat="25.026222" lon="121.579769">
        <ele>128.0</ele>
      </trkpt>
      <trkpt lat="25.026271" lon="121.579695">
        <ele>127.0</ele>
      </trkpt>
      <trkpt lat="25.026296" lon="121.579589">
        <ele>127.0</ele>
      </trkpt>
      <trkpt lat="25.026287" lon="121.57944">
        <ele>127.0</ele>
      </trkpt>
      <trkpt lat="25.026305" lon="121.579394">
        <ele>127.0</ele>
      </trkpt>
      <trkpt lat="25.026404" lon="121.579343">
        <ele>125.0</ele>
      </trkpt>
      <trkpt lat="25.02651" lon="121.579228">
        <ele>123.0</ele>
      </trkpt>
      <trkpt lat="25.02651" lon="121.579228">
        <ele>123.0</ele>
      </trkpt>
      <trkpt lat="25.026533" lon="121.579197">
        <ele>122.0</ele>
      </trkpt>
      <trkpt lat="25.026502" lon="121.578998">
        <ele>124.0</ele>
      </trkpt>
      <trkpt lat="25.026289" lon="121.578715">
        <ele>129.0</ele>
      </trkpt>
      <trkpt lat="25.026216" lon="121.578688">
        <ele>130.0</ele>
      </trkpt>
      <trkpt lat="25.026108" lon="121.578705">
        <ele>132.0</ele>
      </trkpt>
      <trkpt lat="25.025885" lon="121.578509">
        <ele>134.0</ele>
      </trkpt>
      <trkpt lat="25.025858" lon="121.578454">
        <ele>134.0</ele>
      </trkpt>
      <trkpt lat="25.025882" lon="121.578324">
        <ele>134.0</ele>
      </trkpt>
      <trkpt lat="25.025929" lon="121.578228">
        <ele>134.0</ele>
      </trkpt>
      <trkpt lat="25.026178" lon="121.577843">
        <ele>138.0</ele>
      </trkpt>
      <trkpt lat="25.026178" lon="121.577843">
        <ele>138.0</ele>
      </trkpt>
      <trkpt lat="25.026213" lon="121.577789">
        <ele>139.0</ele>
      </trkpt>
      <trkpt lat="25.025932" lon="121.577551">
        <ele>142.0</ele>
      </trkpt>
      <trkpt lat="25.025868" lon="121.577289">
        <ele>143.0</ele>
      </trkpt>
      <trkpt lat="25.025842" lon="121.577195">
        <ele>143.0</ele>
      </trkpt>
      <trkpt lat="25.025856" lon="121.577081">
        <ele>144.0</ele>
      </trkpt>
      <trkpt lat="25.025932" lon="121.576896">
        <ele>146.0</ele>
      </trkpt>
      <trkpt lat="25.0261055" lon="121.5765697">
        <ele>151.0</ele>
      </trkpt>
      <trkpt lat="25.026331" lon="121.576333">
        <ele>156.0</ele>
      </trkpt>
      <trkpt lat="25.026331" lon="121.576333">
        <ele>156.0</ele>
      </trkpt>
      <trkpt lat="25.026395" lon="121.576247">
        <ele>157.0</ele>
      </trkpt>
      <trkpt lat="25.02651" lon="121.576018">
        <ele>159.0</ele>
      </trkpt>
      <trkpt lat="25.02651" lon="121.576018">
        <ele>159.0</ele>
      </trkpt>
      <trkpt lat="25.026641" lon="121.575862">
        <ele>162.0</ele>
      </trkpt>
      <trkpt lat="25.026623" lon="121.57584">
        <ele>162.0</ele>
      </trkpt>
      <trkpt lat="25.026623" lon="121.57584">
        <ele>162.0</ele>
      </trkpt>
      <trkpt lat="25.026641" lon="121.575862">
        <ele>162.0</ele>
      </trkpt>
      <trkpt lat="25.026586" lon="121.575727">
        <ele>159.0</ele>
      </trkpt>
      <trkpt lat="25.026586" lon="121.575726">
        <ele>159.0</ele>
      </trkpt>
      <trkpt lat="25.026567" lon="121.5757263">
        <ele>159.0</ele>
      </trkpt>
      <trkpt lat="25.0265597" lon="121.5754634">
        <ele>155.0</ele>
      </trkpt>
      <trkpt lat="25.026521" lon="121.575383">
        <ele>153.0</ele>
      </trkpt>
      <trkpt lat="25.026565" lon="121.575318">
        <ele>154.0</ele>
      </trkpt>
      <trkpt lat="25.026565" lon="121.575319">
        <ele>154.0</ele>
      </trkpt>
      <trkpt lat="25.026565" lon="121.575318">
        <ele>154.0</ele>
      </trkpt>
      <trkpt lat="25.026545" lon="121.575154">
        <ele>151.0</ele>
      </trkpt>
      <trkpt lat="25.026556" lon="121.575095">
        <ele>151.0</ele>
      </trkpt>
      <trkpt lat="25.026585" lon="121.575044">
        <ele>151.0</ele>
      </trkpt>
      <trkpt lat="25.026624" lon="121.575023">
        <ele>152.0</ele>
      </trkpt>
      <trkpt lat="25.026651" lon="121.57484">
        <ele>152.0</ele>
      </trkpt>
      <trkpt lat="25.026682" lon="121.574737">
        <ele>151.0</ele>
      </trkpt>
      <trkpt lat="25.026735" lon="121.574626">
        <ele>148.0</ele>
      </trkpt>
      <trkpt lat="25.026766" lon="121.574426">
        <ele>146.0</ele>
      </trkpt>
      <trkpt lat="25.026793" lon="121.574345">
        <ele>144.0</ele>
      </trkpt>
      <trkpt lat="25.026829" lon="121.5743">
        <ele>143.0</ele>
      </trkpt>
      <trkpt lat="25.026853" lon="121.57427">
        <ele>141.0</ele>
      </trkpt>
      <trkpt lat="25.026888" lon="121.574228">
        <ele>140.0</ele>
      </trkpt>
      <trkpt lat="25.02692" lon="121.57417">
        <ele>138.0</ele>
      </trkpt>
      <trkpt lat="25.026952" lon="121.574158">
        <ele>136.0</ele>
      </trkpt>
      <trkpt lat="25.026959" lon="121.574135">
        <ele>135.0</ele>
      </trkpt>
      <trkpt lat="25.026991" lon="121.574089">
        <ele>133.0</ele>
      </trkpt>
      <trkpt lat="25.026977" lon="121.574065">
        <ele>132.0</ele>
      </trkpt>
      <trkpt lat="25.027016" lon="121.574022">
        <ele>130.0</ele>
      </trkpt>
      <trkpt lat="25.027076" lon="121.573903">
        <ele>124.0</ele>
      </trkpt>
      <trkpt lat="25.027117" lon="121.573803">
        <ele>121.0</ele>
      </trkpt>
      <trkpt lat="25.027107" lon="121.573453">
        <ele>113.0</ele>
      </trkpt>
      <trkpt lat="25.027151" lon="121.573172">
        <ele>105.0</ele>
      </trkpt>
      <trkpt lat="25.027019" lon="121.572966">
        <ele>100.0</ele>
      </trkpt>
      <trkpt lat="25.027007" lon="121.572912">
        <ele>98.0</ele>
      </trkpt>
      <trkpt lat="25.02702" lon="121.5727">
        <ele>92.0</ele>
      </trkpt>
      <trkpt lat="25.027059" lon="121.572609">
        <ele>89.0</ele>
      </trkpt>
      <trkpt lat="25.027109" lon="121.572546">
        <ele>87.0</ele>
      </trkpt>
      <trkpt lat="25.027129" lon="121.572484">
        <ele>85.0</ele>
      </trkpt>
      <trkpt lat="25.027139" lon="121.572272">
        <ele>79.0</ele>
      </trkpt>
      <trkpt lat="25.027184" lon="121.572203">
        <ele>77.0</ele>
      </trkpt>
      <trkpt lat="25.027161" lon="121.572185">
        <ele>76.0</ele>
      </trkpt>
      <trkpt lat="25.02745" lon="121.571597">
        <ele>63.0</ele>
      </trkpt>
      <trkpt lat="25.02764" lon="121.571253">
        <ele>63.0</ele>
      </trkpt>
      <trkpt lat="25.027632" lon="121.571219">
        <ele>64.0</ele>
      </trkpt>
      <trkpt lat="25.027484" lon="121.571044">
        <ele>67.0</ele>
      </trkpt>
      <trkpt lat="25.027451" lon="121.57087">
        <ele>67.0</ele>
      </trkpt>
      <trkpt lat="25.027373" lon="121.570728">
        <ele>59.0</ele>
      </trkpt>
      <trkpt lat="25.027348" lon="121.570731">
        <ele>59.0</ele>
      </trkpt>
      <trkpt lat="25.027348" lon="121.570731">
        <ele>59.0</ele>
      </trkpt>
      <trkpt lat="25.027512" lon="121.570749">
        <ele>65.0</ele>
      </trkpt>
      <trkpt lat="25.027566" lon="121.570775">
        <ele>65.0</ele>
      </trkpt>
      <trkpt lat="25.027925" lon="121.571071">
        <ele>57.0</ele>
      </trkpt>
      <trkpt lat="25.028473" lon="121.57022">
        <ele>28.0</ele>
      </trkpt>
      <trkpt lat="25.028471" lon="121.57035">
        <ele>30.0</ele>
      </trkpt>
      <trkpt lat="25.028542" lon="121.570349">
        <ele>30.0</ele>
      </trkpt>
      <trkpt lat="25.028561" lon="121.569834">
        <ele>22.0</ele>
      </trkpt>
      <trkpt lat="25.02993" lon="121.569805">
        <ele>21.0</ele>
      </trkpt>
      <trkpt lat="25.030865" lon="121.569785">
        <ele>22.0</ele>
      </trkpt>
      <trkpt lat="25.031838" lon="121.569765">
        <ele>20.0</ele>
      </trkpt>
      <trkpt lat="25.032259" lon="121.569815">
        <ele>17.0</ele>
      </trkpt>
      <trkpt lat="25.032257" lon="121.569951">
        <ele>17.0</ele>
      </trkpt>
      <trkpt lat="25.032256" lon="121.569997">
        <ele>17.0</ele>
      </trkpt>
      <trkpt lat="25.032256" lon="121.569997">
        <ele>17.0</ele>
      </trkpt>
    </trkseg>
  </trk>
</gpx>
