<?xml version="1.0" encoding="UTF-8"?>
<gpx xmlns="http://www.topografix.com/GPX/1/1" xmlns:xsi="http://www.w3.org/2001/XMLSchema-instance" xsi:schemaLocation="http://www.topografix.com/GPX/1/1 http://www.topografix.com/GPX/1/1/gpx.xsd" version="1.1" creator="Martin Schneider">
  <wpt lat="24.945158" lon="121.404015">
    <ele>40.0</ele>
    <name>Start</name>
  </wpt>
  <wpt lat="24.958052" lon="121.537405">
    <ele>24.0</ele>
    <name>End</name>
  </wpt>
  <wpt lat="24.946285" lon="121.456094">
    <ele>396.0</ele>
    <name>Summit Tianshangshan</name>
  </wpt>
  <wpt lat="24.969257" lon="121.495728">
    <ele>278.0</ele>
    <name>Summit Nanshijiaoshan</name>
  </wpt>
  <wpt lat="24.9406621" lon="121.4075071">
    <name>1</name>
    <desc>Zhangshoushan</desc>
  </wpt>
  <wpt lat="24.937277" lon="121.417537">
    <name>2</name>
    <desc>Chengfushan</desc>
  </wpt>
  <wpt lat="24.9382841" lon="121.4253641">
    <name>3</name>
    <desc>Shibaluohanyan</desc>
  </wpt>
  <wpt lat="24.935749" lon="121.436667">
    <name>4</name>
    <desc>Fork</desc>
  </wpt>
  <wpt lat="24.9444841" lon="121.4546494">
    <name>5</name>
    <desc>Wangyue Pavillon</desc>
  </wpt>
  <wpt lat="24.9511386" lon="121.4660035">
    <name>6</name>
    <desc>Wuchengshan</desc>
  </wpt>
  <wpt lat="24.9591997" lon="121.4714686">
    <name>7</name>
    <desc>Wenbishan</desc>
  </wpt>
  <wpt lat="24.964583" lon="121.4799171">
    <name>8</name>
    <desc>Wujianshan</desc>
  </wpt>
  <wpt lat="24.9716364" lon="121.497719">
    <name>9</name>
    <desc>Hongludi Nanshan Fude Temple</desc>
  </wpt>
  <wpt lat="24.9864542" lon="121.5154679">
    <name>10</name>
    <desc>Waiwazishan trail head</desc>
  </wpt>
  <trk>
    <name>018_016_Tianshangshan_Nanshijiaoshan</name>
    <trkseg>
      <trkpt lat="24.945158" lon="121.404015">
        <ele>40.0</ele>
      </trkpt>
      <trkpt lat="24.94535" lon="121.404202">
        <ele>40.0</ele>
      </trkpt>
      <trkpt lat="24.945313" lon="121.404253">
        <ele>42.0</ele>
      </trkpt>
      <trkpt lat="24.945215" lon="121.404258">
        <ele>44.0</ele>
      </trkpt>
      <trkpt lat="24.945149" lon="121.404283">
        <ele>47.0</ele>
      </trkpt>
      <trkpt lat="24.945057" lon="121.404386">
        <ele>51.0</ele>
      </trkpt>
      <trkpt lat="24.945018" lon="121.40455">
        <ele>56.0</ele>
      </trkpt>
      <trkpt lat="24.944934" lon="121.404657">
        <ele>60.0</ele>
      </trkpt>
      <trkpt lat="24.944897" lon="121.404968">
        <ele>67.0</ele>
      </trkpt>
      <trkpt lat="24.944794" lon="121.405217">
        <ele>72.0</ele>
      </trkpt>
      <trkpt lat="24.944681" lon="121.405345">
        <ele>74.0</ele>
      </trkpt>
      <trkpt lat="24.94459" lon="121.40539">
        <ele>75.0</ele>
      </trkpt>
      <trkpt lat="24.944521" lon="121.405575">
        <ele>78.0</ele>
      </trkpt>
      <trkpt lat="24.944561" lon="121.405927">
        <ele>85.0</ele>
      </trkpt>
      <trkpt lat="24.944621" lon="121.406012">
        <ele>88.0</ele>
      </trkpt>
      <trkpt lat="24.94466" lon="121.406146">
        <ele>91.0</ele>
      </trkpt>
      <trkpt lat="24.944379" lon="121.406632">
        <ele>96.0</ele>
      </trkpt>
      <trkpt lat="24.94444" lon="121.406688">
        <ele>98.0</ele>
      </trkpt>
      <trkpt lat="24.944471" lon="121.406646">
        <ele>98.0</ele>
      </trkpt>
      <trkpt lat="24.944487" lon="121.406786">
        <ele>102.0</ele>
      </trkpt>
      <trkpt lat="24.944591" lon="121.406762">
        <ele>103.0</ele>
      </trkpt>
      <trkpt lat="24.944842" lon="121.407118">
        <ele>116.0</ele>
      </trkpt>
      <trkpt lat="24.944932" lon="121.407166">
        <ele>119.0</ele>
      </trkpt>
      <trkpt lat="24.945035" lon="121.407115">
        <ele>119.0</ele>
      </trkpt>
      <trkpt lat="24.945315" lon="121.407123">
        <ele>115.0</ele>
      </trkpt>
      <trkpt lat="24.945378" lon="121.40719">
        <ele>115.0</ele>
      </trkpt>
      <trkpt lat="24.94531" lon="121.40737">
        <ele>120.0</ele>
      </trkpt>
      <trkpt lat="24.945341" lon="121.407625">
        <ele>124.0</ele>
      </trkpt>
      <trkpt lat="24.945318" lon="121.407995">
        <ele>129.0</ele>
      </trkpt>
      <trkpt lat="24.945269" lon="121.408226">
        <ele>134.0</ele>
      </trkpt>
      <trkpt lat="24.945008" lon="121.408364">
        <ele>145.0</ele>
      </trkpt>
      <trkpt lat="24.944883" lon="121.408515">
        <ele>145.0</ele>
      </trkpt>
      <trkpt lat="24.94492" lon="121.408683">
        <ele>147.0</ele>
      </trkpt>
      <trkpt lat="24.944769" lon="121.4091">
        <ele>152.0</ele>
      </trkpt>
      <trkpt lat="24.944124" lon="121.409544">
        <ele>152.0</ele>
      </trkpt>
      <trkpt lat="24.943994" lon="121.409532">
        <ele>150.0</ele>
      </trkpt>
      <trkpt lat="24.943649" lon="121.409543">
        <ele>144.0</ele>
      </trkpt>
      <trkpt lat="24.943415" lon="121.409592">
        <ele>139.0</ele>
      </trkpt>
      <trkpt lat="24.94329" lon="121.409598">
        <ele>137.0</ele>
      </trkpt>
      <trkpt lat="24.943022" lon="121.409526">
        <ele>135.0</ele>
      </trkpt>
      <trkpt lat="24.942824" lon="121.409509">
        <ele>133.0</ele>
      </trkpt>
      <trkpt lat="24.942305" lon="121.409609">
        <ele>130.0</ele>
      </trkpt>
      <trkpt lat="24.942143" lon="121.40944">
        <ele>134.0</ele>
      </trkpt>
      <trkpt lat="24.942086" lon="121.409286">
        <ele>137.0</ele>
      </trkpt>
      <trkpt lat="24.941853" lon="121.409113">
        <ele>142.0</ele>
      </trkpt>
      <trkpt lat="24.941756" lon="121.40923">
        <ele>142.0</ele>
      </trkpt>
      <trkpt lat="24.9416992" lon="121.4092213">
        <ele>143.0</ele>
      </trkpt>
      <trkpt lat="24.941645" lon="121.409213">
        <ele>144.0</ele>
      </trkpt>
      <trkpt lat="24.941572" lon="121.409255">
        <ele>142.0</ele>
      </trkpt>
      <trkpt lat="24.941553" lon="121.409029">
        <ele>144.0</ele>
      </trkpt>
      <trkpt lat="24.941437" lon="121.408721">
        <ele>145.0</ele>
      </trkpt>
      <trkpt lat="24.941343" lon="121.408539">
        <ele>147.0</ele>
      </trkpt>
      <trkpt lat="24.941146" lon="121.408278">
        <ele>152.0</ele>
      </trkpt>
      <trkpt lat="24.940954" lon="121.408081">
        <ele>157.0</ele>
      </trkpt>
      <trkpt lat="24.940848" lon="121.407984">
        <ele>161.0</ele>
      </trkpt>
      <trkpt lat="24.940703" lon="121.407923">
        <ele>161.0</ele>
      </trkpt>
      <trkpt lat="24.940726" lon="121.407815">
        <ele>163.0</ele>
      </trkpt>
      <trkpt lat="24.940725" lon="121.407684">
        <ele>165.0</ele>
      </trkpt>
      <trkpt lat="24.940695" lon="121.407554">
        <ele>167.0</ele>
      </trkpt>
      <trkpt lat="24.940725" lon="121.407684">
        <ele>165.0</ele>
      </trkpt>
      <trkpt lat="24.940726" lon="121.407815">
        <ele>163.0</ele>
      </trkpt>
      <trkpt lat="24.940703" lon="121.407923">
        <ele>161.0</ele>
      </trkpt>
      <trkpt lat="24.940848" lon="121.407984">
        <ele>161.0</ele>
      </trkpt>
      <trkpt lat="24.940954" lon="121.408081">
        <ele>157.0</ele>
      </trkpt>
      <trkpt lat="24.941146" lon="121.408278">
        <ele>152.0</ele>
      </trkpt>
      <trkpt lat="24.941343" lon="121.408539">
        <ele>147.0</ele>
      </trkpt>
      <trkpt lat="24.941437" lon="121.408721">
        <ele>145.0</ele>
      </trkpt>
      <trkpt lat="24.941553" lon="121.409029">
        <ele>144.0</ele>
      </trkpt>
      <trkpt lat="24.941572" lon="121.409255">
        <ele>142.0</ele>
      </trkpt>
      <trkpt lat="24.941596" lon="121.4094561">
        <ele>137.0</ele>
      </trkpt>
      <trkpt lat="24.941605" lon="121.409532">
        <ele>135.0</ele>
      </trkpt>
      <trkpt lat="24.941578" lon="121.409803">
        <ele>127.0</ele>
      </trkpt>
      <trkpt lat="24.941452" lon="121.410086">
        <ele>120.0</ele>
      </trkpt>
      <trkpt lat="24.941391" lon="121.410737">
        <ele>109.0</ele>
      </trkpt>
      <trkpt lat="24.941309" lon="121.411128">
        <ele>108.0</ele>
      </trkpt>
      <trkpt lat="24.941269" lon="121.41146">
        <ele>109.0</ele>
      </trkpt>
      <trkpt lat="24.941305" lon="121.412087">
        <ele>113.0</ele>
      </trkpt>
      <trkpt lat="24.941246" lon="121.412628">
        <ele>117.0</ele>
      </trkpt>
      <trkpt lat="24.941332" lon="121.412805">
        <ele>118.0</ele>
      </trkpt>
      <trkpt lat="24.941486" lon="121.412926">
        <ele>119.0</ele>
      </trkpt>
      <trkpt lat="24.94155" lon="121.413152">
        <ele>120.0</ele>
      </trkpt>
      <trkpt lat="24.941549" lon="121.413388">
        <ele>119.0</ele>
      </trkpt>
      <trkpt lat="24.94141" lon="121.413508">
        <ele>119.0</ele>
      </trkpt>
      <trkpt lat="24.941324" lon="121.413696">
        <ele>119.0</ele>
      </trkpt>
      <trkpt lat="24.941202" lon="121.41384">
        <ele>121.0</ele>
      </trkpt>
      <trkpt lat="24.941144" lon="121.414051">
        <ele>123.0</ele>
      </trkpt>
      <trkpt lat="24.941043" lon="121.414315">
        <ele>125.0</ele>
      </trkpt>
      <trkpt lat="24.940835" lon="121.414394">
        <ele>129.0</ele>
      </trkpt>
      <trkpt lat="24.940618" lon="121.4143">
        <ele>134.0</ele>
      </trkpt>
      <trkpt lat="24.940453" lon="121.414265">
        <ele>136.0</ele>
      </trkpt>
      <trkpt lat="24.940221" lon="121.414419">
        <ele>139.0</ele>
      </trkpt>
      <trkpt lat="24.940072" lon="121.414573">
        <ele>142.0</ele>
      </trkpt>
      <trkpt lat="24.939898" lon="121.414655">
        <ele>145.0</ele>
      </trkpt>
      <trkpt lat="24.939853" lon="121.414768">
        <ele>146.0</ele>
      </trkpt>
      <trkpt lat="24.939707" lon="121.414765">
        <ele>148.0</ele>
      </trkpt>
      <trkpt lat="24.939483" lon="121.414838">
        <ele>151.0</ele>
      </trkpt>
      <trkpt lat="24.939393" lon="121.415175">
        <ele>155.0</ele>
      </trkpt>
      <trkpt lat="24.939206" lon="121.415628">
        <ele>163.0</ele>
      </trkpt>
      <trkpt lat="24.939235" lon="121.41582">
        <ele>164.0</ele>
      </trkpt>
      <trkpt lat="24.93919" lon="121.415945">
        <ele>166.0</ele>
      </trkpt>
      <trkpt lat="24.939002" lon="121.41604">
        <ele>169.0</ele>
      </trkpt>
      <trkpt lat="24.93883" lon="121.416252">
        <ele>173.0</ele>
      </trkpt>
      <trkpt lat="24.938685" lon="121.4163">
        <ele>177.0</ele>
      </trkpt>
      <trkpt lat="24.938379" lon="121.416589">
        <ele>191.0</ele>
      </trkpt>
      <trkpt lat="24.938237" lon="121.416772">
        <ele>196.0</ele>
      </trkpt>
      <trkpt lat="24.938001" lon="121.416934">
        <ele>203.0</ele>
      </trkpt>
      <trkpt lat="24.937905" lon="121.417175">
        <ele>208.0</ele>
      </trkpt>
      <trkpt lat="24.937774" lon="121.417346">
        <ele>215.0</ele>
      </trkpt>
      <trkpt lat="24.937555" lon="121.417555">
        <ele>225.0</ele>
      </trkpt>
      <trkpt lat="24.937466" lon="121.417599">
        <ele>226.0</ele>
      </trkpt>
      <trkpt lat="24.937471" lon="121.417656">
        <ele>225.0</ele>
      </trkpt>
      <trkpt lat="24.93751" lon="121.417709">
        <ele>224.0</ele>
      </trkpt>
      <trkpt lat="24.937566" lon="121.417987">
        <ele>220.0</ele>
      </trkpt>
      <trkpt lat="24.937622" lon="121.418122">
        <ele>218.0</ele>
      </trkpt>
      <trkpt lat="24.937793" lon="121.418284">
        <ele>214.0</ele>
      </trkpt>
      <trkpt lat="24.937925" lon="121.418496">
        <ele>213.0</ele>
      </trkpt>
      <trkpt lat="24.938028" lon="121.418574">
        <ele>213.0</ele>
      </trkpt>
      <trkpt lat="24.938193" lon="121.418641">
        <ele>213.0</ele>
      </trkpt>
      <trkpt lat="24.93833" lon="121.418677">
        <ele>214.0</ele>
      </trkpt>
      <trkpt lat="24.938393" lon="121.418939">
        <ele>217.0</ele>
      </trkpt>
      <trkpt lat="24.938505" lon="121.419153">
        <ele>218.0</ele>
      </trkpt>
      <trkpt lat="24.938553" lon="121.419321">
        <ele>217.0</ele>
      </trkpt>
      <trkpt lat="24.938546" lon="121.419509">
        <ele>216.0</ele>
      </trkpt>
      <trkpt lat="24.938666" lon="121.41958">
        <ele>214.0</ele>
      </trkpt>
      <trkpt lat="24.938754" lon="121.419657">
        <ele>213.0</ele>
      </trkpt>
      <trkpt lat="24.938678" lon="121.41996">
        <ele>213.0</ele>
      </trkpt>
      <trkpt lat="24.938662" lon="121.420301">
        <ele>212.0</ele>
      </trkpt>
      <trkpt lat="24.938558" lon="121.420491">
        <ele>214.0</ele>
      </trkpt>
      <trkpt lat="24.938551" lon="121.420564">
        <ele>214.0</ele>
      </trkpt>
      <trkpt lat="24.938522" lon="121.420654">
        <ele>215.0</ele>
      </trkpt>
      <trkpt lat="24.938537" lon="121.420777">
        <ele>215.0</ele>
      </trkpt>
      <trkpt lat="24.938526" lon="121.421076">
        <ele>217.0</ele>
      </trkpt>
      <trkpt lat="24.938507" lon="121.421214">
        <ele>218.0</ele>
      </trkpt>
      <trkpt lat="24.938315" lon="121.421489">
        <ele>227.0</ele>
      </trkpt>
      <trkpt lat="24.938242" lon="121.422101">
        <ele>232.0</ele>
      </trkpt>
      <trkpt lat="24.938256" lon="121.422261">
        <ele>235.0</ele>
      </trkpt>
      <trkpt lat="24.938187" lon="121.422489">
        <ele>237.0</ele>
      </trkpt>
      <trkpt lat="24.938331" lon="121.422792">
        <ele>245.0</ele>
      </trkpt>
      <trkpt lat="24.938331" lon="121.423071">
        <ele>251.0</ele>
      </trkpt>
      <trkpt lat="24.938364" lon="121.423191">
        <ele>252.0</ele>
      </trkpt>
      <trkpt lat="24.938338" lon="121.423329">
        <ele>256.0</ele>
      </trkpt>
      <trkpt lat="24.938326" lon="121.423533">
        <ele>258.0</ele>
      </trkpt>
      <trkpt lat="24.938329" lon="121.423863">
        <ele>263.0</ele>
      </trkpt>
      <trkpt lat="24.938315" lon="121.424052">
        <ele>265.0</ele>
      </trkpt>
      <trkpt lat="24.938423" lon="121.424266">
        <ele>267.0</ele>
      </trkpt>
      <trkpt lat="24.938543" lon="121.424444">
        <ele>266.0</ele>
      </trkpt>
      <trkpt lat="24.938618" lon="121.424601">
        <ele>265.0</ele>
      </trkpt>
      <trkpt lat="24.938581" lon="121.424763">
        <ele>266.0</ele>
      </trkpt>
      <trkpt lat="24.938434" lon="121.424983">
        <ele>273.0</ele>
      </trkpt>
      <trkpt lat="24.938388" lon="121.42515">
        <ele>273.0</ele>
      </trkpt>
      <trkpt lat="24.938366" lon="121.425328">
        <ele>271.0</ele>
      </trkpt>
      <trkpt lat="24.938298" lon="121.425365">
        <ele>270.0</ele>
      </trkpt>
      <trkpt lat="24.938364" lon="121.425527">
        <ele>268.0</ele>
      </trkpt>
      <trkpt lat="24.938458" lon="121.425658">
        <ele>263.0</ele>
      </trkpt>
      <trkpt lat="24.938651" lon="121.426066">
        <ele>253.0</ele>
      </trkpt>
      <trkpt lat="24.938782" lon="121.426169">
        <ele>251.0</ele>
      </trkpt>
      <trkpt lat="24.938848" lon="121.426317">
        <ele>250.0</ele>
      </trkpt>
      <trkpt lat="24.938852" lon="121.426479">
        <ele>250.0</ele>
      </trkpt>
      <trkpt lat="24.938982" lon="121.426605">
        <ele>252.0</ele>
      </trkpt>
      <trkpt lat="24.939038" lon="121.426723">
        <ele>253.0</ele>
      </trkpt>
      <trkpt lat="24.939056" lon="121.42687">
        <ele>254.0</ele>
      </trkpt>
      <trkpt lat="24.939038" lon="121.427108">
        <ele>255.0</ele>
      </trkpt>
      <trkpt lat="24.939063" lon="121.427215">
        <ele>256.0</ele>
      </trkpt>
      <trkpt lat="24.939001" lon="121.427325">
        <ele>255.0</ele>
      </trkpt>
      <trkpt lat="24.938988" lon="121.427439">
        <ele>255.0</ele>
      </trkpt>
      <trkpt lat="24.938928" lon="121.427506">
        <ele>254.0</ele>
      </trkpt>
      <trkpt lat="24.938952" lon="121.427637">
        <ele>256.0</ele>
      </trkpt>
      <trkpt lat="24.939055" lon="121.42786">
        <ele>260.0</ele>
      </trkpt>
      <trkpt lat="24.939052" lon="121.428105">
        <ele>262.0</ele>
      </trkpt>
      <trkpt lat="24.938956" lon="121.428355">
        <ele>263.0</ele>
      </trkpt>
      <trkpt lat="24.938859" lon="121.428535">
        <ele>263.0</ele>
      </trkpt>
      <trkpt lat="24.938872" lon="121.428687">
        <ele>263.0</ele>
      </trkpt>
      <trkpt lat="24.938974" lon="121.429192">
        <ele>267.0</ele>
      </trkpt>
      <trkpt lat="24.939059" lon="121.429513">
        <ele>273.0</ele>
      </trkpt>
      <trkpt lat="24.939012" lon="121.429716">
        <ele>274.0</ele>
      </trkpt>
      <trkpt lat="24.939051" lon="121.429982">
        <ele>278.0</ele>
      </trkpt>
      <trkpt lat="24.939122" lon="121.430286">
        <ele>279.0</ele>
      </trkpt>
      <trkpt lat="24.939234" lon="121.430457">
        <ele>279.0</ele>
      </trkpt>
      <trkpt lat="24.939293" lon="121.43061">
        <ele>278.0</ele>
      </trkpt>
      <trkpt lat="24.939476" lon="121.430731">
        <ele>274.0</ele>
      </trkpt>
      <trkpt lat="24.939552" lon="121.430852">
        <ele>272.0</ele>
      </trkpt>
      <trkpt lat="24.939663" lon="121.431081">
        <ele>267.0</ele>
      </trkpt>
      <trkpt lat="24.939614" lon="121.431247">
        <ele>265.0</ele>
      </trkpt>
      <trkpt lat="24.939712" lon="121.431312">
        <ele>263.0</ele>
      </trkpt>
      <trkpt lat="24.939761" lon="121.431516">
        <ele>261.0</ele>
      </trkpt>
      <trkpt lat="24.939732" lon="121.431601">
        <ele>260.0</ele>
      </trkpt>
      <trkpt lat="24.939926" lon="121.43189">
        <ele>256.0</ele>
      </trkpt>
      <trkpt lat="24.940036" lon="121.431944">
        <ele>254.0</ele>
      </trkpt>
      <trkpt lat="24.940053" lon="121.432165">
        <ele>251.0</ele>
      </trkpt>
      <trkpt lat="24.94002" lon="121.432316">
        <ele>250.0</ele>
      </trkpt>
      <trkpt lat="24.939995" lon="121.432532">
        <ele>248.0</ele>
      </trkpt>
      <trkpt lat="24.939968" lon="121.432632">
        <ele>247.0</ele>
      </trkpt>
      <trkpt lat="24.939983" lon="121.432739">
        <ele>246.0</ele>
      </trkpt>
      <trkpt lat="24.939974" lon="121.432869">
        <ele>245.0</ele>
      </trkpt>
      <trkpt lat="24.9399" lon="121.433063">
        <ele>243.0</ele>
      </trkpt>
      <trkpt lat="24.939896" lon="121.433141">
        <ele>242.0</ele>
      </trkpt>
      <trkpt lat="24.939946" lon="121.433255">
        <ele>242.0</ele>
      </trkpt>
      <trkpt lat="24.939943" lon="121.433382">
        <ele>243.0</ele>
      </trkpt>
      <trkpt lat="24.939976" lon="121.433521">
        <ele>245.0</ele>
      </trkpt>
      <trkpt lat="24.940045" lon="121.43358">
        <ele>247.0</ele>
      </trkpt>
      <trkpt lat="24.940183" lon="121.433653">
        <ele>247.0</ele>
      </trkpt>
      <trkpt lat="24.940222" lon="121.433738">
        <ele>248.0</ele>
      </trkpt>
      <trkpt lat="24.940252" lon="121.433971">
        <ele>251.0</ele>
      </trkpt>
      <trkpt lat="24.940183" lon="121.434189">
        <ele>254.0</ele>
      </trkpt>
      <trkpt lat="24.940132" lon="121.434257">
        <ele>254.0</ele>
      </trkpt>
      <trkpt lat="24.940117" lon="121.434318">
        <ele>253.0</ele>
      </trkpt>
      <trkpt lat="24.940014" lon="121.434393">
        <ele>253.0</ele>
      </trkpt>
      <trkpt lat="24.939834" lon="121.434472">
        <ele>251.0</ele>
      </trkpt>
      <trkpt lat="24.939658" lon="121.43453">
        <ele>249.0</ele>
      </trkpt>
      <trkpt lat="24.93949" lon="121.434538">
        <ele>248.0</ele>
      </trkpt>
      <trkpt lat="24.939398" lon="121.434607">
        <ele>248.0</ele>
      </trkpt>
      <trkpt lat="24.939314" lon="121.434816">
        <ele>250.0</ele>
      </trkpt>
      <trkpt lat="24.939254" lon="121.434878">
        <ele>250.0</ele>
      </trkpt>
      <trkpt lat="24.938949" lon="121.434962">
        <ele>254.0</ele>
      </trkpt>
      <trkpt lat="24.938787" lon="121.435149">
        <ele>258.0</ele>
      </trkpt>
      <trkpt lat="24.938437" lon="121.43549">
        <ele>267.0</ele>
      </trkpt>
      <trkpt lat="24.93832" lon="121.435625">
        <ele>271.0</ele>
      </trkpt>
      <trkpt lat="24.938214" lon="121.435662">
        <ele>274.0</ele>
      </trkpt>
      <trkpt lat="24.938156" lon="121.435582">
        <ele>273.0</ele>
      </trkpt>
      <trkpt lat="24.938088" lon="121.435538">
        <ele>274.0</ele>
      </trkpt>
      <trkpt lat="24.938018" lon="121.435603">
        <ele>277.0</ele>
      </trkpt>
      <trkpt lat="24.938003" lon="121.435695">
        <ele>279.0</ele>
      </trkpt>
      <trkpt lat="24.937941" lon="121.43573">
        <ele>281.0</ele>
      </trkpt>
      <trkpt lat="24.937918" lon="121.435785">
        <ele>283.0</ele>
      </trkpt>
      <trkpt lat="24.937739" lon="121.435831">
        <ele>289.0</ele>
      </trkpt>
      <trkpt lat="24.937608" lon="121.435914">
        <ele>293.0</ele>
      </trkpt>
      <trkpt lat="24.937498" lon="121.435927">
        <ele>296.0</ele>
      </trkpt>
      <trkpt lat="24.937384" lon="121.436133">
        <ele>300.0</ele>
      </trkpt>
      <trkpt lat="24.937218" lon="121.436229">
        <ele>305.0</ele>
      </trkpt>
      <trkpt lat="24.937027" lon="121.436228">
        <ele>310.0</ele>
      </trkpt>
      <trkpt lat="24.936911" lon="121.436251">
        <ele>313.0</ele>
      </trkpt>
      <trkpt lat="24.936641" lon="121.436351">
        <ele>323.0</ele>
      </trkpt>
      <trkpt lat="24.936497" lon="121.436323">
        <ele>327.0</ele>
      </trkpt>
      <trkpt lat="24.936295" lon="121.436439">
        <ele>338.0</ele>
      </trkpt>
      <trkpt lat="24.936188" lon="121.436424">
        <ele>342.0</ele>
      </trkpt>
      <trkpt lat="24.936048" lon="121.436588">
        <ele>353.0</ele>
      </trkpt>
      <trkpt lat="24.935907" lon="121.436637">
        <ele>361.0</ele>
      </trkpt>
      <trkpt lat="24.935731" lon="121.436675">
        <ele>364.0</ele>
      </trkpt>
      <trkpt lat="24.935686" lon="121.436822">
        <ele>365.0</ele>
      </trkpt>
      <trkpt lat="24.935705" lon="121.436988">
        <ele>368.0</ele>
      </trkpt>
      <trkpt lat="24.935744" lon="121.43711">
        <ele>370.0</ele>
      </trkpt>
      <trkpt lat="24.935809" lon="121.437202">
        <ele>373.0</ele>
      </trkpt>
      <trkpt lat="24.935829" lon="121.437311">
        <ele>375.0</ele>
      </trkpt>
      <trkpt lat="24.935862" lon="121.437377">
        <ele>375.0</ele>
      </trkpt>
      <trkpt lat="24.93582" lon="121.437568">
        <ele>378.0</ele>
      </trkpt>
      <trkpt lat="24.935826" lon="121.437751">
        <ele>378.0</ele>
      </trkpt>
      <trkpt lat="24.935862" lon="121.437828">
        <ele>377.0</ele>
      </trkpt>
      <trkpt lat="24.935868" lon="121.437932">
        <ele>377.0</ele>
      </trkpt>
      <trkpt lat="24.935934" lon="121.438053">
        <ele>375.0</ele>
      </trkpt>
      <trkpt lat="24.93595" lon="121.438172">
        <ele>375.0</ele>
      </trkpt>
      <trkpt lat="24.935991" lon="121.438209">
        <ele>373.0</ele>
      </trkpt>
      <trkpt lat="24.936051" lon="121.438445">
        <ele>371.0</ele>
      </trkpt>
      <trkpt lat="24.936107" lon="121.438511">
        <ele>370.0</ele>
      </trkpt>
      <trkpt lat="24.936123" lon="121.438631">
        <ele>369.0</ele>
      </trkpt>
      <trkpt lat="24.936088" lon="121.438776">
        <ele>370.0</ele>
      </trkpt>
      <trkpt lat="24.936187" lon="121.438851">
        <ele>368.0</ele>
      </trkpt>
      <trkpt lat="24.936292" lon="121.438987">
        <ele>367.0</ele>
      </trkpt>
      <trkpt lat="24.936331" lon="121.439136">
        <ele>368.0</ele>
      </trkpt>
      <trkpt lat="24.936395" lon="121.439203">
        <ele>368.0</ele>
      </trkpt>
      <trkpt lat="24.936408" lon="121.439442">
        <ele>367.0</ele>
      </trkpt>
      <trkpt lat="24.9365" lon="121.439556">
        <ele>368.0</ele>
      </trkpt>
      <trkpt lat="24.936528" lon="121.439718">
        <ele>369.0</ele>
      </trkpt>
      <trkpt lat="24.936608" lon="121.439713">
        <ele>370.0</ele>
      </trkpt>
      <trkpt lat="24.936682" lon="121.43975">
        <ele>372.0</ele>
      </trkpt>
      <trkpt lat="24.936954" lon="121.439755">
        <ele>368.0</ele>
      </trkpt>
      <trkpt lat="24.937144" lon="121.43982">
        <ele>366.0</ele>
      </trkpt>
      <trkpt lat="24.937154" lon="121.439874">
        <ele>367.0</ele>
      </trkpt>
      <trkpt lat="24.937146" lon="121.440124">
        <ele>371.0</ele>
      </trkpt>
      <trkpt lat="24.937189" lon="121.440365">
        <ele>373.0</ele>
      </trkpt>
      <trkpt lat="24.937194" lon="121.440493">
        <ele>374.0</ele>
      </trkpt>
      <trkpt lat="24.937385" lon="121.440905">
        <ele>379.0</ele>
      </trkpt>
      <trkpt lat="24.937514" lon="121.441082">
        <ele>381.0</ele>
      </trkpt>
      <trkpt lat="24.937526" lon="121.441205">
        <ele>382.0</ele>
      </trkpt>
      <trkpt lat="24.937585" lon="121.441308">
        <ele>380.0</ele>
      </trkpt>
      <trkpt lat="24.937647" lon="121.441597">
        <ele>380.0</ele>
      </trkpt>
      <trkpt lat="24.937627" lon="121.441789">
        <ele>381.0</ele>
      </trkpt>
      <trkpt lat="24.937668" lon="121.442145">
        <ele>379.0</ele>
      </trkpt>
      <trkpt lat="24.937656" lon="121.442269">
        <ele>379.0</ele>
      </trkpt>
      <trkpt lat="24.937696" lon="121.442333">
        <ele>378.0</ele>
      </trkpt>
      <trkpt lat="24.937784" lon="121.44236">
        <ele>376.0</ele>
      </trkpt>
      <trkpt lat="24.937855" lon="121.44241">
        <ele>375.0</ele>
      </trkpt>
      <trkpt lat="24.937971" lon="121.442447">
        <ele>373.0</ele>
      </trkpt>
      <trkpt lat="24.938057" lon="121.442525">
        <ele>372.0</ele>
      </trkpt>
      <trkpt lat="24.938204" lon="121.442599">
        <ele>370.0</ele>
      </trkpt>
      <trkpt lat="24.938478" lon="121.442899">
        <ele>364.0</ele>
      </trkpt>
      <trkpt lat="24.938644" lon="121.442952">
        <ele>359.0</ele>
      </trkpt>
      <trkpt lat="24.938748" lon="121.443069">
        <ele>357.0</ele>
      </trkpt>
      <trkpt lat="24.938873" lon="121.443241">
        <ele>357.0</ele>
      </trkpt>
      <trkpt lat="24.93896" lon="121.443404">
        <ele>356.0</ele>
      </trkpt>
      <trkpt lat="24.93904" lon="121.443642">
        <ele>352.0</ele>
      </trkpt>
      <trkpt lat="24.93914" lon="121.443776">
        <ele>350.0</ele>
      </trkpt>
      <trkpt lat="24.939108" lon="121.443839">
        <ele>349.0</ele>
      </trkpt>
      <trkpt lat="24.939113" lon="121.443898">
        <ele>348.0</ele>
      </trkpt>
      <trkpt lat="24.939192" lon="121.444088">
        <ele>346.0</ele>
      </trkpt>
      <trkpt lat="24.939155" lon="121.444261">
        <ele>343.0</ele>
      </trkpt>
      <trkpt lat="24.939321" lon="121.444263">
        <ele>341.0</ele>
      </trkpt>
      <trkpt lat="24.93937" lon="121.444285">
        <ele>340.0</ele>
      </trkpt>
      <trkpt lat="24.93937" lon="121.444303">
        <ele>339.0</ele>
      </trkpt>
      <trkpt lat="24.939644" lon="121.444294">
        <ele>336.0</ele>
      </trkpt>
      <trkpt lat="24.939874" lon="121.444481">
        <ele>334.0</ele>
      </trkpt>
      <trkpt lat="24.939887" lon="121.444719">
        <ele>336.0</ele>
      </trkpt>
      <trkpt lat="24.940044" lon="121.444953">
        <ele>339.0</ele>
      </trkpt>
      <trkpt lat="24.940137" lon="121.445148">
        <ele>337.0</ele>
      </trkpt>
      <trkpt lat="24.940245" lon="121.445253">
        <ele>335.0</ele>
      </trkpt>
      <trkpt lat="24.940472" lon="121.445296">
        <ele>334.0</ele>
      </trkpt>
      <trkpt lat="24.940613" lon="121.445472">
        <ele>333.0</ele>
      </trkpt>
      <trkpt lat="24.940633" lon="121.445672">
        <ele>333.0</ele>
      </trkpt>
      <trkpt lat="24.940689" lon="121.445883">
        <ele>333.0</ele>
      </trkpt>
      <trkpt lat="24.940781" lon="121.446107">
        <ele>333.0</ele>
      </trkpt>
      <trkpt lat="24.940792" lon="121.446375">
        <ele>332.0</ele>
      </trkpt>
      <trkpt lat="24.940852" lon="121.446478">
        <ele>332.0</ele>
      </trkpt>
      <trkpt lat="24.941085" lon="121.446613">
        <ele>329.0</ele>
      </trkpt>
      <trkpt lat="24.941127" lon="121.446703">
        <ele>328.0</ele>
      </trkpt>
      <trkpt lat="24.941068" lon="121.446914">
        <ele>329.0</ele>
      </trkpt>
      <trkpt lat="24.941112" lon="121.446963">
        <ele>328.0</ele>
      </trkpt>
      <trkpt lat="24.94111" lon="121.446989">
        <ele>328.0</ele>
      </trkpt>
      <trkpt lat="24.941286" lon="121.447102">
        <ele>327.0</ele>
      </trkpt>
      <trkpt lat="24.941521" lon="121.447283">
        <ele>326.0</ele>
      </trkpt>
      <trkpt lat="24.941728" lon="121.447314">
        <ele>325.0</ele>
      </trkpt>
      <trkpt lat="24.941843" lon="121.447295">
        <ele>324.0</ele>
      </trkpt>
      <trkpt lat="24.94199" lon="121.447337">
        <ele>324.0</ele>
      </trkpt>
      <trkpt lat="24.942144" lon="121.447349">
        <ele>323.0</ele>
      </trkpt>
      <trkpt lat="24.942065" lon="121.447596">
        <ele>322.0</ele>
      </trkpt>
      <trkpt lat="24.942045" lon="121.447738">
        <ele>319.0</ele>
      </trkpt>
      <trkpt lat="24.942106" lon="121.447835">
        <ele>316.0</ele>
      </trkpt>
      <trkpt lat="24.942234" lon="121.447889">
        <ele>313.0</ele>
      </trkpt>
      <trkpt lat="24.942251" lon="121.447959">
        <ele>311.0</ele>
      </trkpt>
      <trkpt lat="24.942192" lon="121.447973">
        <ele>312.0</ele>
      </trkpt>
      <trkpt lat="24.942116" lon="121.448122">
        <ele>308.0</ele>
      </trkpt>
      <trkpt lat="24.942198" lon="121.448344">
        <ele>302.0</ele>
      </trkpt>
      <trkpt lat="24.942197" lon="121.448442">
        <ele>300.0</ele>
      </trkpt>
      <trkpt lat="24.94222" lon="121.448515">
        <ele>299.0</ele>
      </trkpt>
      <trkpt lat="24.942232" lon="121.44869">
        <ele>297.0</ele>
      </trkpt>
      <trkpt lat="24.942272" lon="121.448806">
        <ele>295.0</ele>
      </trkpt>
      <trkpt lat="24.942368" lon="121.448902">
        <ele>294.0</ele>
      </trkpt>
      <trkpt lat="24.942456" lon="121.448955">
        <ele>294.0</ele>
      </trkpt>
      <trkpt lat="24.942553" lon="121.448988">
        <ele>293.0</ele>
      </trkpt>
      <trkpt lat="24.942609" lon="121.449136">
        <ele>290.0</ele>
      </trkpt>
      <trkpt lat="24.942697" lon="121.449205">
        <ele>288.0</ele>
      </trkpt>
      <trkpt lat="24.942753" lon="121.449604">
        <ele>292.0</ele>
      </trkpt>
      <trkpt lat="24.942798" lon="121.449701">
        <ele>293.0</ele>
      </trkpt>
      <trkpt lat="24.942942" lon="121.449699">
        <ele>292.0</ele>
      </trkpt>
      <trkpt lat="24.943094" lon="121.449758">
        <ele>292.0</ele>
      </trkpt>
      <trkpt lat="24.943203" lon="121.449851">
        <ele>294.0</ele>
      </trkpt>
      <trkpt lat="24.943402" lon="121.449873">
        <ele>293.0</ele>
      </trkpt>
      <trkpt lat="24.94348" lon="121.449982">
        <ele>296.0</ele>
      </trkpt>
      <trkpt lat="24.943487" lon="121.450092">
        <ele>298.0</ele>
      </trkpt>
      <trkpt lat="24.943517" lon="121.450148">
        <ele>299.0</ele>
      </trkpt>
      <trkpt lat="24.943597" lon="121.450126">
        <ele>297.0</ele>
      </trkpt>
      <trkpt lat="24.943703" lon="121.450161">
        <ele>297.0</ele>
      </trkpt>
      <trkpt lat="24.94375" lon="121.450277">
        <ele>300.0</ele>
      </trkpt>
      <trkpt lat="24.943781" lon="121.450411">
        <ele>305.0</ele>
      </trkpt>
      <trkpt lat="24.943889" lon="121.450461">
        <ele>307.0</ele>
      </trkpt>
      <trkpt lat="24.943946" lon="121.450573">
        <ele>312.0</ele>
      </trkpt>
      <trkpt lat="24.944064" lon="121.450629">
        <ele>316.0</ele>
      </trkpt>
      <trkpt lat="24.944147" lon="121.450693">
        <ele>321.0</ele>
      </trkpt>
      <trkpt lat="24.944168" lon="121.450765">
        <ele>325.0</ele>
      </trkpt>
      <trkpt lat="24.944129" lon="121.450879">
        <ele>329.0</ele>
      </trkpt>
      <trkpt lat="24.944196" lon="121.451118">
        <ele>333.0</ele>
      </trkpt>
      <trkpt lat="24.944194" lon="121.451198">
        <ele>335.0</ele>
      </trkpt>
      <trkpt lat="24.944437" lon="121.451585">
        <ele>333.0</ele>
      </trkpt>
      <trkpt lat="24.944484" lon="121.451843">
        <ele>336.0</ele>
      </trkpt>
      <trkpt lat="24.944422" lon="121.45223">
        <ele>343.0</ele>
      </trkpt>
      <trkpt lat="24.944458" lon="121.45239">
        <ele>344.0</ele>
      </trkpt>
      <trkpt lat="24.944413" lon="121.452598">
        <ele>348.0</ele>
      </trkpt>
      <trkpt lat="24.944352" lon="121.452665">
        <ele>351.0</ele>
      </trkpt>
      <trkpt lat="24.944356" lon="121.452782">
        <ele>353.0</ele>
      </trkpt>
      <trkpt lat="24.944321" lon="121.452916">
        <ele>356.0</ele>
      </trkpt>
      <trkpt lat="24.944383" lon="121.453049">
        <ele>355.0</ele>
      </trkpt>
      <trkpt lat="24.944371" lon="121.453251">
        <ele>358.0</ele>
      </trkpt>
      <trkpt lat="24.944392" lon="121.453383">
        <ele>359.0</ele>
      </trkpt>
      <trkpt lat="24.94438" lon="121.453574">
        <ele>362.0</ele>
      </trkpt>
      <trkpt lat="24.9444" lon="121.453881">
        <ele>366.0</ele>
      </trkpt>
      <trkpt lat="24.944395" lon="121.454013">
        <ele>368.0</ele>
      </trkpt>
      <trkpt lat="24.944298" lon="121.45412">
        <ele>374.0</ele>
      </trkpt>
      <trkpt lat="24.944266" lon="121.454213">
        <ele>376.0</ele>
      </trkpt>
      <trkpt lat="24.944295" lon="121.454316">
        <ele>373.0</ele>
      </trkpt>
      <trkpt lat="24.944346" lon="121.45439">
        <ele>371.0</ele>
      </trkpt>
      <trkpt lat="24.94436" lon="121.45454">
        <ele>369.0</ele>
      </trkpt>
      <trkpt lat="24.944382" lon="121.454595">
        <ele>369.0</ele>
      </trkpt>
      <trkpt lat="24.944408" lon="121.45462">
        <ele>368.0</ele>
      </trkpt>
      <trkpt lat="24.944496" lon="121.45464">
        <ele>367.0</ele>
      </trkpt>
      <trkpt lat="24.944579" lon="121.45469">
        <ele>366.0</ele>
      </trkpt>
      <trkpt lat="24.944696" lon="121.45483">
        <ele>366.0</ele>
      </trkpt>
      <trkpt lat="24.944753" lon="121.454923">
        <ele>367.0</ele>
      </trkpt>
      <trkpt lat="24.944939" lon="121.454995">
        <ele>369.0</ele>
      </trkpt>
      <trkpt lat="24.945057" lon="121.455109">
        <ele>372.0</ele>
      </trkpt>
      <trkpt lat="24.945086" lon="121.45517">
        <ele>374.0</ele>
      </trkpt>
      <trkpt lat="24.945158" lon="121.455243">
        <ele>375.0</ele>
      </trkpt>
      <trkpt lat="24.945202" lon="121.455328">
        <ele>378.0</ele>
      </trkpt>
      <trkpt lat="24.945198" lon="121.45543">
        <ele>380.0</ele>
      </trkpt>
      <trkpt lat="24.945249" lon="121.455589">
        <ele>385.0</ele>
      </trkpt>
      <trkpt lat="24.945303" lon="121.455685">
        <ele>388.0</ele>
      </trkpt>
      <trkpt lat="24.94539" lon="121.455753">
        <ele>391.0</ele>
      </trkpt>
      <trkpt lat="24.945472" lon="121.455786">
        <ele>394.0</ele>
      </trkpt>
      <trkpt lat="24.945637" lon="121.455768">
        <ele>396.0</ele>
      </trkpt>
      <trkpt lat="24.945697" lon="121.455796">
        <ele>398.0</ele>
      </trkpt>
      <trkpt lat="24.945744" lon="121.455792">
        <ele>399.0</ele>
      </trkpt>
      <trkpt lat="24.945782" lon="121.455761">
        <ele>398.0</ele>
      </trkpt>
      <trkpt lat="24.945856" lon="121.455772">
        <ele>399.0</ele>
      </trkpt>
      <trkpt lat="24.945903" lon="121.455753">
        <ele>398.0</ele>
      </trkpt>
      <trkpt lat="24.946105" lon="121.455838">
        <ele>399.0</ele>
      </trkpt>
      <trkpt lat="24.946166" lon="121.455896">
        <ele>398.0</ele>
      </trkpt>
      <trkpt lat="24.946252" lon="121.456015">
        <ele>397.0</ele>
      </trkpt>
      <trkpt lat="24.946285" lon="121.456094">
        <ele>396.0</ele>
      </trkpt>
      <trkpt lat="24.946295" lon="121.456187">
        <ele>395.0</ele>
      </trkpt>
      <trkpt lat="24.946278" lon="121.456312">
        <ele>394.0</ele>
      </trkpt>
      <trkpt lat="24.946316" lon="121.456504">
        <ele>393.0</ele>
      </trkpt>
      <trkpt lat="24.946267" lon="121.456667">
        <ele>392.0</ele>
      </trkpt>
      <trkpt lat="24.946293" lon="121.45685">
        <ele>390.0</ele>
      </trkpt>
      <trkpt lat="24.946279" lon="121.456977">
        <ele>389.0</ele>
      </trkpt>
      <trkpt lat="24.946222" lon="121.45703">
        <ele>389.0</ele>
      </trkpt>
      <trkpt lat="24.946202" lon="121.457102">
        <ele>389.0</ele>
      </trkpt>
      <trkpt lat="24.946374" lon="121.457136">
        <ele>386.0</ele>
      </trkpt>
      <trkpt lat="24.946337" lon="121.45725">
        <ele>386.0</ele>
      </trkpt>
      <trkpt lat="24.946335" lon="121.457334">
        <ele>385.0</ele>
      </trkpt>
      <trkpt lat="24.946492" lon="121.457407">
        <ele>382.0</ele>
      </trkpt>
      <trkpt lat="24.94654" lon="121.457503">
        <ele>380.0</ele>
      </trkpt>
      <trkpt lat="24.946543" lon="121.457596">
        <ele>379.0</ele>
      </trkpt>
      <trkpt lat="24.946613" lon="121.457638">
        <ele>377.0</ele>
      </trkpt>
      <trkpt lat="24.946721" lon="121.457577">
        <ele>374.0</ele>
      </trkpt>
      <trkpt lat="24.946785" lon="121.457595">
        <ele>371.0</ele>
      </trkpt>
      <trkpt lat="24.946896" lon="121.4577">
        <ele>364.0</ele>
      </trkpt>
      <trkpt lat="24.946936" lon="121.457795">
        <ele>362.0</ele>
      </trkpt>
      <trkpt lat="24.947017" lon="121.457881">
        <ele>358.0</ele>
      </trkpt>
      <trkpt lat="24.947058" lon="121.458054">
        <ele>356.0</ele>
      </trkpt>
      <trkpt lat="24.947143" lon="121.458221">
        <ele>353.0</ele>
      </trkpt>
      <trkpt lat="24.94736" lon="121.458566">
        <ele>349.0</ele>
      </trkpt>
      <trkpt lat="24.947373" lon="121.458716">
        <ele>350.0</ele>
      </trkpt>
      <trkpt lat="24.947414" lon="121.458875">
        <ele>351.0</ele>
      </trkpt>
      <trkpt lat="24.947476" lon="121.458994">
        <ele>353.0</ele>
      </trkpt>
      <trkpt lat="24.947553" lon="121.459068">
        <ele>352.0</ele>
      </trkpt>
      <trkpt lat="24.9478" lon="121.459241">
        <ele>347.0</ele>
      </trkpt>
      <trkpt lat="24.947822" lon="121.459282">
        <ele>346.0</ele>
      </trkpt>
      <trkpt lat="24.947834" lon="121.459353">
        <ele>346.0</ele>
      </trkpt>
      <trkpt lat="24.947815" lon="121.459456">
        <ele>348.0</ele>
      </trkpt>
      <trkpt lat="24.947745" lon="121.459574">
        <ele>350.0</ele>
      </trkpt>
      <trkpt lat="24.947705" lon="121.459685">
        <ele>352.0</ele>
      </trkpt>
      <trkpt lat="24.947796" lon="121.459934">
        <ele>351.0</ele>
      </trkpt>
      <trkpt lat="24.947825" lon="121.460081">
        <ele>350.0</ele>
      </trkpt>
      <trkpt lat="24.94779" lon="121.460299">
        <ele>349.0</ele>
      </trkpt>
      <trkpt lat="24.947786" lon="121.46051">
        <ele>347.0</ele>
      </trkpt>
      <trkpt lat="24.947759" lon="121.460648">
        <ele>347.0</ele>
      </trkpt>
      <trkpt lat="24.947789" lon="121.460925">
        <ele>347.0</ele>
      </trkpt>
      <trkpt lat="24.947795" lon="121.461199">
        <ele>353.0</ele>
      </trkpt>
      <trkpt lat="24.947721" lon="121.461306">
        <ele>358.0</ele>
      </trkpt>
      <trkpt lat="24.947631" lon="121.4614">
        <ele>363.0</ele>
      </trkpt>
      <trkpt lat="24.947404" lon="121.461579">
        <ele>368.0</ele>
      </trkpt>
      <trkpt lat="24.947333" lon="121.461668">
        <ele>368.0</ele>
      </trkpt>
      <trkpt lat="24.947312" lon="121.461788">
        <ele>367.0</ele>
      </trkpt>
      <trkpt lat="24.947348" lon="121.461897">
        <ele>367.0</ele>
      </trkpt>
      <trkpt lat="24.947421" lon="121.462024">
        <ele>369.0</ele>
      </trkpt>
      <trkpt lat="24.947521" lon="121.462335">
        <ele>371.0</ele>
      </trkpt>
      <trkpt lat="24.947613" lon="121.462503">
        <ele>371.0</ele>
      </trkpt>
      <trkpt lat="24.947698" lon="121.462621">
        <ele>368.0</ele>
      </trkpt>
      <trkpt lat="24.947727" lon="121.462756">
        <ele>365.0</ele>
      </trkpt>
      <trkpt lat="24.947794" lon="121.46291">
        <ele>362.0</ele>
      </trkpt>
      <trkpt lat="24.947931" lon="121.463025">
        <ele>360.0</ele>
      </trkpt>
      <trkpt lat="24.947992" lon="121.463028">
        <ele>360.0</ele>
      </trkpt>
      <trkpt lat="24.948052" lon="121.462917">
        <ele>362.0</ele>
      </trkpt>
      <trkpt lat="24.948062" lon="121.462821">
        <ele>364.0</ele>
      </trkpt>
      <trkpt lat="24.948136" lon="121.462709">
        <ele>366.0</ele>
      </trkpt>
      <trkpt lat="24.948272" lon="121.462713">
        <ele>365.0</ele>
      </trkpt>
      <trkpt lat="24.948364" lon="121.462762">
        <ele>364.0</ele>
      </trkpt>
      <trkpt lat="24.948533" lon="121.462988">
        <ele>359.0</ele>
      </trkpt>
      <trkpt lat="24.948736" lon="121.463214">
        <ele>359.0</ele>
      </trkpt>
      <trkpt lat="24.948837" lon="121.463475">
        <ele>358.0</ele>
      </trkpt>
      <trkpt lat="24.948947" lon="121.463588">
        <ele>357.0</ele>
      </trkpt>
      <trkpt lat="24.949216" lon="121.463748">
        <ele>356.0</ele>
      </trkpt>
      <trkpt lat="24.949379" lon="121.463775">
        <ele>352.0</ele>
      </trkpt>
      <trkpt lat="24.949468" lon="121.463853">
        <ele>350.0</ele>
      </trkpt>
      <trkpt lat="24.949706" lon="121.464309">
        <ele>347.0</ele>
      </trkpt>
      <trkpt lat="24.949903" lon="121.464639">
        <ele>349.0</ele>
      </trkpt>
      <trkpt lat="24.950252" lon="121.465082">
        <ele>356.0</ele>
      </trkpt>
      <trkpt lat="24.950473" lon="121.465214">
        <ele>360.0</ele>
      </trkpt>
      <trkpt lat="24.950696" lon="121.465542">
        <ele>373.0</ele>
      </trkpt>
      <trkpt lat="24.950733" lon="121.465653">
        <ele>378.0</ele>
      </trkpt>
      <trkpt lat="24.950792" lon="121.465687">
        <ele>381.0</ele>
      </trkpt>
      <trkpt lat="24.950871" lon="121.46579">
        <ele>385.0</ele>
      </trkpt>
      <trkpt lat="24.950952" lon="121.465946">
        <ele>384.0</ele>
      </trkpt>
      <trkpt lat="24.951144" lon="121.466078">
        <ele>378.0</ele>
      </trkpt>
      <trkpt lat="24.95126" lon="121.466106">
        <ele>376.0</ele>
      </trkpt>
      <trkpt lat="24.951304" lon="121.466169">
        <ele>375.0</ele>
      </trkpt>
      <trkpt lat="24.951362" lon="121.466199">
        <ele>374.0</ele>
      </trkpt>
      <trkpt lat="24.951334" lon="121.466299">
        <ele>375.0</ele>
      </trkpt>
      <trkpt lat="24.951354" lon="121.466436">
        <ele>375.0</ele>
      </trkpt>
      <trkpt lat="24.951517" lon="121.466619">
        <ele>374.0</ele>
      </trkpt>
      <trkpt lat="24.951501" lon="121.466695">
        <ele>374.0</ele>
      </trkpt>
      <trkpt lat="24.951537" lon="121.466823">
        <ele>370.0</ele>
      </trkpt>
      <trkpt lat="24.951531" lon="121.466949">
        <ele>367.0</ele>
      </trkpt>
      <trkpt lat="24.951558" lon="121.467058">
        <ele>364.0</ele>
      </trkpt>
      <trkpt lat="24.951707" lon="121.467247">
        <ele>360.0</ele>
      </trkpt>
      <trkpt lat="24.951871" lon="121.467386">
        <ele>355.0</ele>
      </trkpt>
      <trkpt lat="24.952033" lon="121.467554">
        <ele>349.0</ele>
      </trkpt>
      <trkpt lat="24.9521" lon="121.467596">
        <ele>347.0</ele>
      </trkpt>
      <trkpt lat="24.952157" lon="121.467565">
        <ele>348.0</ele>
      </trkpt>
      <trkpt lat="24.952213" lon="121.467458">
        <ele>349.0</ele>
      </trkpt>
      <trkpt lat="24.952347" lon="121.467302">
        <ele>346.0</ele>
      </trkpt>
      <trkpt lat="24.952471" lon="121.467203">
        <ele>343.0</ele>
      </trkpt>
      <trkpt lat="24.952612" lon="121.467152">
        <ele>339.0</ele>
      </trkpt>
      <trkpt lat="24.952744" lon="121.467014">
        <ele>335.0</ele>
      </trkpt>
      <trkpt lat="24.952868" lon="121.466974">
        <ele>332.0</ele>
      </trkpt>
      <trkpt lat="24.952915" lon="121.467014">
        <ele>331.0</ele>
      </trkpt>
      <trkpt lat="24.952947" lon="121.467067">
        <ele>330.0</ele>
      </trkpt>
      <trkpt lat="24.953036" lon="121.466995">
        <ele>328.0</ele>
      </trkpt>
      <trkpt lat="24.953025" lon="121.466935">
        <ele>328.0</ele>
      </trkpt>
      <trkpt lat="24.953043" lon="121.466893">
        <ele>327.0</ele>
      </trkpt>
      <trkpt lat="24.953168" lon="121.467016">
        <ele>325.0</ele>
      </trkpt>
      <trkpt lat="24.953243" lon="121.467127">
        <ele>323.0</ele>
      </trkpt>
      <trkpt lat="24.953336" lon="121.467179">
        <ele>321.0</ele>
      </trkpt>
      <trkpt lat="24.953525" lon="121.467247">
        <ele>318.0</ele>
      </trkpt>
      <trkpt lat="24.953616" lon="121.467259">
        <ele>317.0</ele>
      </trkpt>
      <trkpt lat="24.953748" lon="121.467366">
        <ele>316.0</ele>
      </trkpt>
      <trkpt lat="24.953922" lon="121.467398">
        <ele>315.0</ele>
      </trkpt>
      <trkpt lat="24.954012" lon="121.467475">
        <ele>316.0</ele>
      </trkpt>
      <trkpt lat="24.954055" lon="121.467546">
        <ele>315.0</ele>
      </trkpt>
      <trkpt lat="24.954082" lon="121.467655">
        <ele>313.0</ele>
      </trkpt>
      <trkpt lat="24.954203" lon="121.46785">
        <ele>308.0</ele>
      </trkpt>
      <trkpt lat="24.954317" lon="121.467974">
        <ele>304.0</ele>
      </trkpt>
      <trkpt lat="24.954395" lon="121.468097">
        <ele>301.0</ele>
      </trkpt>
      <trkpt lat="24.95446" lon="121.468237">
        <ele>298.0</ele>
      </trkpt>
      <trkpt lat="24.9545" lon="121.468401">
        <ele>294.0</ele>
      </trkpt>
      <trkpt lat="24.95457" lon="121.468565">
        <ele>289.0</ele>
      </trkpt>
      <trkpt lat="24.954615" lon="121.468729">
        <ele>285.0</ele>
      </trkpt>
      <trkpt lat="24.954692" lon="121.468785">
        <ele>283.0</ele>
      </trkpt>
      <trkpt lat="24.954785" lon="121.468795">
        <ele>282.0</ele>
      </trkpt>
      <trkpt lat="24.954866" lon="121.468868">
        <ele>280.0</ele>
      </trkpt>
      <trkpt lat="24.954854" lon="121.468946">
        <ele>279.0</ele>
      </trkpt>
      <trkpt lat="24.954592" lon="121.469063">
        <ele>277.0</ele>
      </trkpt>
      <trkpt lat="24.954507" lon="121.469149">
        <ele>275.0</ele>
      </trkpt>
      <trkpt lat="24.954477" lon="121.469244">
        <ele>274.0</ele>
      </trkpt>
      <trkpt lat="24.954479" lon="121.469337">
        <ele>272.0</ele>
      </trkpt>
      <trkpt lat="24.954532" lon="121.469465">
        <ele>271.0</ele>
      </trkpt>
      <trkpt lat="24.954543" lon="121.469632">
        <ele>269.0</ele>
      </trkpt>
      <trkpt lat="24.954518" lon="121.469777">
        <ele>267.0</ele>
      </trkpt>
      <trkpt lat="24.954532" lon="121.469869">
        <ele>267.0</ele>
      </trkpt>
      <trkpt lat="24.954707" lon="121.470154">
        <ele>267.0</ele>
      </trkpt>
      <trkpt lat="24.954804" lon="121.470254">
        <ele>269.0</ele>
      </trkpt>
      <trkpt lat="24.955044" lon="121.470606">
        <ele>272.0</ele>
      </trkpt>
      <trkpt lat="24.955084" lon="121.470718">
        <ele>271.0</ele>
      </trkpt>
      <trkpt lat="24.955101" lon="121.470886">
        <ele>271.0</ele>
      </trkpt>
      <trkpt lat="24.955141" lon="121.471025">
        <ele>270.0</ele>
      </trkpt>
      <trkpt lat="24.955236" lon="121.471217">
        <ele>270.0</ele>
      </trkpt>
      <trkpt lat="24.955227" lon="121.471374">
        <ele>270.0</ele>
      </trkpt>
      <trkpt lat="24.955259" lon="121.4715">
        <ele>270.0</ele>
      </trkpt>
      <trkpt lat="24.95531" lon="121.47161">
        <ele>271.0</ele>
      </trkpt>
      <trkpt lat="24.955576" lon="121.471598">
        <ele>275.0</ele>
      </trkpt>
      <trkpt lat="24.955635" lon="121.471565">
        <ele>275.0</ele>
      </trkpt>
      <trkpt lat="24.955834" lon="121.471655">
        <ele>280.0</ele>
      </trkpt>
      <trkpt lat="24.955982" lon="121.471775">
        <ele>281.0</ele>
      </trkpt>
      <trkpt lat="24.956191" lon="121.472081">
        <ele>284.0</ele>
      </trkpt>
      <trkpt lat="24.956309" lon="121.472181">
        <ele>285.0</ele>
      </trkpt>
      <trkpt lat="24.956487" lon="121.472203">
        <ele>286.0</ele>
      </trkpt>
      <trkpt lat="24.956626" lon="121.472103">
        <ele>287.0</ele>
      </trkpt>
      <trkpt lat="24.95695" lon="121.471953">
        <ele>292.0</ele>
      </trkpt>
      <trkpt lat="24.957092" lon="121.471937">
        <ele>294.0</ele>
      </trkpt>
      <trkpt lat="24.957203" lon="121.471944">
        <ele>296.0</ele>
      </trkpt>
      <trkpt lat="24.957279" lon="121.472008">
        <ele>297.0</ele>
      </trkpt>
      <trkpt lat="24.957343" lon="121.472145">
        <ele>298.0</ele>
      </trkpt>
      <trkpt lat="24.957407" lon="121.472185">
        <ele>298.0</ele>
      </trkpt>
      <trkpt lat="24.957404" lon="121.472111">
        <ele>299.0</ele>
      </trkpt>
      <trkpt lat="24.957572" lon="121.472104">
        <ele>301.0</ele>
      </trkpt>
      <trkpt lat="24.957694" lon="121.472137">
        <ele>304.0</ele>
      </trkpt>
      <trkpt lat="24.958293" lon="121.471671">
        <ele>322.0</ele>
      </trkpt>
      <trkpt lat="24.958448" lon="121.471604">
        <ele>324.0</ele>
      </trkpt>
      <trkpt lat="24.958554" lon="121.471588">
        <ele>325.0</ele>
      </trkpt>
      <trkpt lat="24.958754" lon="121.471592">
        <ele>328.0</ele>
      </trkpt>
      <trkpt lat="24.95894" lon="121.471537">
        <ele>330.0</ele>
      </trkpt>
      <trkpt lat="24.959076" lon="121.471466">
        <ele>332.0</ele>
      </trkpt>
      <trkpt lat="24.959206" lon="121.471469">
        <ele>331.0</ele>
      </trkpt>
      <trkpt lat="24.959315" lon="121.471672">
        <ele>326.0</ele>
      </trkpt>
      <trkpt lat="24.959364" lon="121.471863">
        <ele>322.0</ele>
      </trkpt>
      <trkpt lat="24.959425" lon="121.472026">
        <ele>319.0</ele>
      </trkpt>
      <trkpt lat="24.959587" lon="121.472293">
        <ele>314.0</ele>
      </trkpt>
      <trkpt lat="24.959697" lon="121.472423">
        <ele>312.0</ele>
      </trkpt>
      <trkpt lat="24.959928" lon="121.472757">
        <ele>307.0</ele>
      </trkpt>
      <trkpt lat="24.960038" lon="121.472982">
        <ele>303.0</ele>
      </trkpt>
      <trkpt lat="24.960189" lon="121.473183">
        <ele>298.0</ele>
      </trkpt>
      <trkpt lat="24.960538" lon="121.473484">
        <ele>292.0</ele>
      </trkpt>
      <trkpt lat="24.960659" lon="121.473559">
        <ele>291.0</ele>
      </trkpt>
      <trkpt lat="24.960749" lon="121.473638">
        <ele>290.0</ele>
      </trkpt>
      <trkpt lat="24.960897" lon="121.473851">
        <ele>289.0</ele>
      </trkpt>
      <trkpt lat="24.960882" lon="121.473943">
        <ele>290.0</ele>
      </trkpt>
      <trkpt lat="24.960966" lon="121.474156">
        <ele>289.0</ele>
      </trkpt>
      <trkpt lat="24.960969" lon="121.47429">
        <ele>288.0</ele>
      </trkpt>
      <trkpt lat="24.960916" lon="121.474478">
        <ele>289.0</ele>
      </trkpt>
      <trkpt lat="24.960988" lon="121.474553">
        <ele>287.0</ele>
      </trkpt>
      <trkpt lat="24.961197" lon="121.475142">
        <ele>282.0</ele>
      </trkpt>
      <trkpt lat="24.961465" lon="121.475567">
        <ele>280.0</ele>
      </trkpt>
      <trkpt lat="24.961632" lon="121.47578">
        <ele>284.0</ele>
      </trkpt>
      <trkpt lat="24.961723" lon="121.475868">
        <ele>283.0</ele>
      </trkpt>
      <trkpt lat="24.961772" lon="121.475843">
        <ele>281.0</ele>
      </trkpt>
      <trkpt lat="24.961833" lon="121.475902">
        <ele>279.0</ele>
      </trkpt>
      <trkpt lat="24.96184" lon="121.47601">
        <ele>277.0</ele>
      </trkpt>
      <trkpt lat="24.961946" lon="121.476144">
        <ele>274.0</ele>
      </trkpt>
      <trkpt lat="24.962014" lon="121.476198">
        <ele>272.0</ele>
      </trkpt>
      <trkpt lat="24.962045" lon="121.47629">
        <ele>270.0</ele>
      </trkpt>
      <trkpt lat="24.962045" lon="121.476374">
        <ele>270.0</ele>
      </trkpt>
      <trkpt lat="24.962101" lon="121.476482">
        <ele>269.0</ele>
      </trkpt>
      <trkpt lat="24.962052" lon="121.476553">
        <ele>269.0</ele>
      </trkpt>
      <trkpt lat="24.962117" lon="121.476733">
        <ele>268.0</ele>
      </trkpt>
      <trkpt lat="24.962219" lon="121.476799">
        <ele>268.0</ele>
      </trkpt>
      <trkpt lat="24.962325" lon="121.476916">
        <ele>269.0</ele>
      </trkpt>
      <trkpt lat="24.962344" lon="121.477017">
        <ele>270.0</ele>
      </trkpt>
      <trkpt lat="24.962525" lon="121.477217">
        <ele>273.0</ele>
      </trkpt>
      <trkpt lat="24.962567" lon="121.477326">
        <ele>274.0</ele>
      </trkpt>
      <trkpt lat="24.9627" lon="121.477543">
        <ele>276.0</ele>
      </trkpt>
      <trkpt lat="24.962802" lon="121.47758">
        <ele>275.0</ele>
      </trkpt>
      <trkpt lat="24.962927" lon="121.477697">
        <ele>274.0</ele>
      </trkpt>
      <trkpt lat="24.962934" lon="121.477802">
        <ele>274.0</ele>
      </trkpt>
      <trkpt lat="24.963141" lon="121.478305">
        <ele>274.0</ele>
      </trkpt>
      <trkpt lat="24.963277" lon="121.478398">
        <ele>276.0</ele>
      </trkpt>
      <trkpt lat="24.963343" lon="121.478595">
        <ele>277.0</ele>
      </trkpt>
      <trkpt lat="24.963449" lon="121.478629">
        <ele>276.0</ele>
      </trkpt>
      <trkpt lat="24.963514" lon="121.478712">
        <ele>276.0</ele>
      </trkpt>
      <trkpt lat="24.963555" lon="121.478854">
        <ele>278.0</ele>
      </trkpt>
      <trkpt lat="24.963563" lon="121.478959">
        <ele>280.0</ele>
      </trkpt>
      <trkpt lat="24.963646" lon="121.479">
        <ele>281.0</ele>
      </trkpt>
      <trkpt lat="24.963695" lon="121.479117">
        <ele>283.0</ele>
      </trkpt>
      <trkpt lat="24.963661" lon="121.479276">
        <ele>285.0</ele>
      </trkpt>
      <trkpt lat="24.963748" lon="121.479456">
        <ele>288.0</ele>
      </trkpt>
      <trkpt lat="24.963904" lon="121.479556">
        <ele>293.0</ele>
      </trkpt>
      <trkpt lat="24.964169" lon="121.479639">
        <ele>299.0</ele>
      </trkpt>
      <trkpt lat="24.964252" lon="121.479702">
        <ele>300.0</ele>
      </trkpt>
      <trkpt lat="24.96432" lon="121.47971">
        <ele>300.0</ele>
      </trkpt>
      <trkpt lat="24.964468" lon="121.479875">
        <ele>302.0</ele>
      </trkpt>
      <trkpt lat="24.964483" lon="121.479974">
        <ele>304.0</ele>
      </trkpt>
      <trkpt lat="24.964446" lon="121.480042">
        <ele>303.0</ele>
      </trkpt>
      <trkpt lat="24.964404" lon="121.480036">
        <ele>304.0</ele>
      </trkpt>
      <trkpt lat="24.964335" lon="121.480201">
        <ele>298.0</ele>
      </trkpt>
      <trkpt lat="24.964329" lon="121.480361">
        <ele>292.0</ele>
      </trkpt>
      <trkpt lat="24.964377" lon="121.480414">
        <ele>290.0</ele>
      </trkpt>
      <trkpt lat="24.964319" lon="121.480473">
        <ele>288.0</ele>
      </trkpt>
      <trkpt lat="24.964193" lon="121.480494">
        <ele>288.0</ele>
      </trkpt>
      <trkpt lat="24.964264" lon="121.480659">
        <ele>281.0</ele>
      </trkpt>
      <trkpt lat="24.964379" lon="121.480707">
        <ele>278.0</ele>
      </trkpt>
      <trkpt lat="24.964419" lon="121.480752">
        <ele>276.0</ele>
      </trkpt>
      <trkpt lat="24.964322" lon="121.48077">
        <ele>277.0</ele>
      </trkpt>
      <trkpt lat="24.964202" lon="121.480705">
        <ele>280.0</ele>
      </trkpt>
      <trkpt lat="24.9641" lon="121.480726">
        <ele>279.0</ele>
      </trkpt>
      <trkpt lat="24.964106" lon="121.480872">
        <ele>275.0</ele>
      </trkpt>
      <trkpt lat="24.964267" lon="121.481031">
        <ele>270.0</ele>
      </trkpt>
      <trkpt lat="24.96452" lon="121.480882">
        <ele>270.0</ele>
      </trkpt>
      <trkpt lat="24.964754" lon="121.481006">
        <ele>263.0</ele>
      </trkpt>
      <trkpt lat="24.964798" lon="121.48105">
        <ele>261.0</ele>
      </trkpt>
      <trkpt lat="24.964969" lon="121.481005">
        <ele>260.0</ele>
      </trkpt>
      <trkpt lat="24.965043" lon="121.481108">
        <ele>255.0</ele>
      </trkpt>
      <trkpt lat="24.965057" lon="121.481175">
        <ele>253.0</ele>
      </trkpt>
      <trkpt lat="24.96491" lon="121.481278">
        <ele>251.0</ele>
      </trkpt>
      <trkpt lat="24.96482" lon="121.481367">
        <ele>249.0</ele>
      </trkpt>
      <trkpt lat="24.96479" lon="121.481479">
        <ele>246.0</ele>
      </trkpt>
      <trkpt lat="24.964822" lon="121.481693">
        <ele>238.0</ele>
      </trkpt>
      <trkpt lat="24.964769" lon="121.4818">
        <ele>237.0</ele>
      </trkpt>
      <trkpt lat="24.964602" lon="121.481938">
        <ele>239.0</ele>
      </trkpt>
      <trkpt lat="24.964439" lon="121.482122">
        <ele>240.0</ele>
      </trkpt>
      <trkpt lat="24.964376" lon="121.482222">
        <ele>240.0</ele>
      </trkpt>
      <trkpt lat="24.964365" lon="121.482313">
        <ele>238.0</ele>
      </trkpt>
      <trkpt lat="24.964412" lon="121.482425">
        <ele>235.0</ele>
      </trkpt>
      <trkpt lat="24.964462" lon="121.482488">
        <ele>232.0</ele>
      </trkpt>
      <trkpt lat="24.964634" lon="121.482576">
        <ele>227.0</ele>
      </trkpt>
      <trkpt lat="24.964655" lon="121.482729">
        <ele>226.0</ele>
      </trkpt>
      <trkpt lat="24.964487" lon="121.482915">
        <ele>229.0</ele>
      </trkpt>
      <trkpt lat="24.964464" lon="121.483029">
        <ele>229.0</ele>
      </trkpt>
      <trkpt lat="24.964523" lon="121.483525">
        <ele>226.0</ele>
      </trkpt>
      <trkpt lat="24.964565" lon="121.483598">
        <ele>225.0</ele>
      </trkpt>
      <trkpt lat="24.964793" lon="121.483804">
        <ele>221.0</ele>
      </trkpt>
      <trkpt lat="24.964874" lon="121.48414">
        <ele>222.0</ele>
      </trkpt>
      <trkpt lat="24.965061" lon="121.484614">
        <ele>223.0</ele>
      </trkpt>
      <trkpt lat="24.96503" lon="121.484734">
        <ele>225.0</ele>
      </trkpt>
      <trkpt lat="24.965041" lon="121.484956">
        <ele>227.0</ele>
      </trkpt>
      <trkpt lat="24.965018" lon="121.484999">
        <ele>228.0</ele>
      </trkpt>
      <trkpt lat="24.965019" lon="121.485073">
        <ele>229.0</ele>
      </trkpt>
      <trkpt lat="24.964999" lon="121.485155">
        <ele>231.0</ele>
      </trkpt>
      <trkpt lat="24.964929" lon="121.485263">
        <ele>233.0</ele>
      </trkpt>
      <trkpt lat="24.96479" lon="121.485379">
        <ele>234.0</ele>
      </trkpt>
      <trkpt lat="24.964743" lon="121.485469">
        <ele>235.0</ele>
      </trkpt>
      <trkpt lat="24.964836" lon="121.485506">
        <ele>236.0</ele>
      </trkpt>
      <trkpt lat="24.964899" lon="121.485731">
        <ele>240.0</ele>
      </trkpt>
      <trkpt lat="24.964989" lon="121.485828">
        <ele>242.0</ele>
      </trkpt>
      <trkpt lat="24.965063" lon="121.485941">
        <ele>242.0</ele>
      </trkpt>
      <trkpt lat="24.96517" lon="121.486042">
        <ele>242.0</ele>
      </trkpt>
      <trkpt lat="24.965239" lon="121.486204">
        <ele>244.0</ele>
      </trkpt>
      <trkpt lat="24.965258" lon="121.486364">
        <ele>246.0</ele>
      </trkpt>
      <trkpt lat="24.965293" lon="121.486494">
        <ele>248.0</ele>
      </trkpt>
      <trkpt lat="24.965271" lon="121.486585">
        <ele>250.0</ele>
      </trkpt>
      <trkpt lat="24.965411" lon="121.486727">
        <ele>251.0</ele>
      </trkpt>
      <trkpt lat="24.965488" lon="121.486913">
        <ele>253.0</ele>
      </trkpt>
      <trkpt lat="24.965577" lon="121.48699">
        <ele>254.0</ele>
      </trkpt>
      <trkpt lat="24.965611" lon="121.487064">
        <ele>255.0</ele>
      </trkpt>
      <trkpt lat="24.96563" lon="121.487152">
        <ele>257.0</ele>
      </trkpt>
      <trkpt lat="24.965745" lon="121.487341">
        <ele>261.0</ele>
      </trkpt>
      <trkpt lat="24.965788" lon="121.487645">
        <ele>265.0</ele>
      </trkpt>
      <trkpt lat="24.965831" lon="121.48774">
        <ele>266.0</ele>
      </trkpt>
      <trkpt lat="24.965893" lon="121.487802">
        <ele>263.0</ele>
      </trkpt>
      <trkpt lat="24.965898" lon="121.48789">
        <ele>263.0</ele>
      </trkpt>
      <trkpt lat="24.965981" lon="121.487941">
        <ele>259.0</ele>
      </trkpt>
      <trkpt lat="24.966064" lon="121.488398">
        <ele>259.0</ele>
      </trkpt>
      <trkpt lat="24.966235" lon="121.488635">
        <ele>253.0</ele>
      </trkpt>
      <trkpt lat="24.966342" lon="121.488897">
        <ele>253.0</ele>
      </trkpt>
      <trkpt lat="24.966407" lon="121.488968">
        <ele>254.0</ele>
      </trkpt>
      <trkpt lat="24.966506" lon="121.489013">
        <ele>255.0</ele>
      </trkpt>
      <trkpt lat="24.966556" lon="121.489075">
        <ele>256.0</ele>
      </trkpt>
      <trkpt lat="24.966647" lon="121.489116">
        <ele>258.0</ele>
      </trkpt>
      <trkpt lat="24.966669" lon="121.489196">
        <ele>259.0</ele>
      </trkpt>
      <trkpt lat="24.966771" lon="121.489364">
        <ele>253.0</ele>
      </trkpt>
      <trkpt lat="24.966792" lon="121.489453">
        <ele>251.0</ele>
      </trkpt>
      <trkpt lat="24.966856" lon="121.489532">
        <ele>248.0</ele>
      </trkpt>
      <trkpt lat="24.966921" lon="121.489712">
        <ele>245.0</ele>
      </trkpt>
      <trkpt lat="24.966929" lon="121.489907">
        <ele>245.0</ele>
      </trkpt>
      <trkpt lat="24.967006" lon="121.489987">
        <ele>244.0</ele>
      </trkpt>
      <trkpt lat="24.967097" lon="121.489943">
        <ele>242.0</ele>
      </trkpt>
      <trkpt lat="24.967188" lon="121.489946">
        <ele>240.0</ele>
      </trkpt>
      <trkpt lat="24.967207" lon="121.490135">
        <ele>242.0</ele>
      </trkpt>
      <trkpt lat="24.967269" lon="121.490333">
        <ele>243.0</ele>
      </trkpt>
      <trkpt lat="24.967362" lon="121.490389">
        <ele>244.0</ele>
      </trkpt>
      <trkpt lat="24.967389" lon="121.490569">
        <ele>246.0</ele>
      </trkpt>
      <trkpt lat="24.967443" lon="121.490675">
        <ele>248.0</ele>
      </trkpt>
      <trkpt lat="24.967485" lon="121.490725">
        <ele>250.0</ele>
      </trkpt>
      <trkpt lat="24.967459" lon="121.490832">
        <ele>251.0</ele>
      </trkpt>
      <trkpt lat="24.967485" lon="121.490991">
        <ele>252.0</ele>
      </trkpt>
      <trkpt lat="24.96737" lon="121.491242">
        <ele>252.0</ele>
      </trkpt>
      <trkpt lat="24.967301" lon="121.49131">
        <ele>251.0</ele>
      </trkpt>
      <trkpt lat="24.967218" lon="121.491511">
        <ele>250.0</ele>
      </trkpt>
      <trkpt lat="24.967354" lon="121.491629">
        <ele>253.0</ele>
      </trkpt>
      <trkpt lat="24.967665" lon="121.492045">
        <ele>245.0</ele>
      </trkpt>
      <trkpt lat="24.96785" lon="121.492101">
        <ele>240.0</ele>
      </trkpt>
      <trkpt lat="24.967919" lon="121.492169">
        <ele>239.0</ele>
      </trkpt>
      <trkpt lat="24.967938" lon="121.492267">
        <ele>239.0</ele>
      </trkpt>
      <trkpt lat="24.968058" lon="121.4924">
        <ele>240.0</ele>
      </trkpt>
      <trkpt lat="24.96812" lon="121.492497">
        <ele>241.0</ele>
      </trkpt>
      <trkpt lat="24.968149" lon="121.492624">
        <ele>241.0</ele>
      </trkpt>
      <trkpt lat="24.968219" lon="121.492751">
        <ele>242.0</ele>
      </trkpt>
      <trkpt lat="24.968372" lon="121.492964">
        <ele>244.0</ele>
      </trkpt>
      <trkpt lat="24.968417" lon="121.493058">
        <ele>243.0</ele>
      </trkpt>
      <trkpt lat="24.968516" lon="121.493097">
        <ele>239.0</ele>
      </trkpt>
      <trkpt lat="24.96861" lon="121.493191">
        <ele>236.0</ele>
      </trkpt>
      <trkpt lat="24.968637" lon="121.493253">
        <ele>236.0</ele>
      </trkpt>
      <trkpt lat="24.96865" lon="121.49343">
        <ele>239.0</ele>
      </trkpt>
      <trkpt lat="24.968781" lon="121.49367">
        <ele>239.0</ele>
      </trkpt>
      <trkpt lat="24.968861" lon="121.493726">
        <ele>238.0</ele>
      </trkpt>
      <trkpt lat="24.969018" lon="121.493919">
        <ele>241.0</ele>
      </trkpt>
      <trkpt lat="24.969092" lon="121.494104">
        <ele>246.0</ele>
      </trkpt>
      <trkpt lat="24.96911" lon="121.494275">
        <ele>251.0</ele>
      </trkpt>
      <trkpt lat="24.969092" lon="121.494476">
        <ele>257.0</ele>
      </trkpt>
      <trkpt lat="24.969049" lon="121.494544">
        <ele>259.0</ele>
      </trkpt>
      <trkpt lat="24.969011" lon="121.494733">
        <ele>264.0</ele>
      </trkpt>
      <trkpt lat="24.969108" lon="121.495255">
        <ele>276.0</ele>
      </trkpt>
      <trkpt lat="24.969153" lon="121.495409">
        <ele>278.0</ele>
      </trkpt>
      <trkpt lat="24.969185" lon="121.495435">
        <ele>278.0</ele>
      </trkpt>
      <trkpt lat="24.969288" lon="121.495461">
        <ele>274.0</ele>
      </trkpt>
      <trkpt lat="24.969379" lon="121.495558">
        <ele>272.0</ele>
      </trkpt>
      <trkpt lat="24.969335" lon="121.495664">
        <ele>275.0</ele>
      </trkpt>
      <trkpt lat="24.969257" lon="121.495728">
        <ele>278.0</ele>
      </trkpt>
      <trkpt lat="24.969402" lon="121.496076">
        <ele>270.0</ele>
      </trkpt>
      <trkpt lat="24.969461" lon="121.496121">
        <ele>268.0</ele>
      </trkpt>
      <trkpt lat="24.969544" lon="121.49615">
        <ele>266.0</ele>
      </trkpt>
      <trkpt lat="24.969627" lon="121.496156">
        <ele>265.0</ele>
      </trkpt>
      <trkpt lat="24.969761" lon="121.4962">
        <ele>262.0</ele>
      </trkpt>
      <trkpt lat="24.969934" lon="121.496353">
        <ele>259.0</ele>
      </trkpt>
      <trkpt lat="24.969972" lon="121.496623">
        <ele>260.0</ele>
      </trkpt>
      <trkpt lat="24.970197" lon="121.497169">
        <ele>253.0</ele>
      </trkpt>
      <trkpt lat="24.97025" lon="121.49739">
        <ele>253.0</ele>
      </trkpt>
      <trkpt lat="24.970398" lon="121.497522">
        <ele>253.0</ele>
      </trkpt>
      <trkpt lat="24.970524" lon="121.497674">
        <ele>251.0</ele>
      </trkpt>
      <trkpt lat="24.971019" lon="121.497757">
        <ele>247.0</ele>
      </trkpt>
      <trkpt lat="24.971158" lon="121.497624">
        <ele>247.0</ele>
      </trkpt>
      <trkpt lat="24.971193" lon="121.497689">
        <ele>245.0</ele>
      </trkpt>
      <trkpt lat="24.971273" lon="121.497686">
        <ele>244.0</ele>
      </trkpt>
      <trkpt lat="24.971327" lon="121.497721">
        <ele>243.0</ele>
      </trkpt>
      <trkpt lat="24.971355" lon="121.497777">
        <ele>241.0</ele>
      </trkpt>
      <trkpt lat="24.971536" lon="121.497813">
        <ele>237.0</ele>
      </trkpt>
      <trkpt lat="24.971683" lon="121.497812">
        <ele>234.0</ele>
      </trkpt>
      <trkpt lat="24.971682" lon="121.497854">
        <ele>233.0</ele>
      </trkpt>
      <trkpt lat="24.97178" lon="121.497848">
        <ele>228.0</ele>
      </trkpt>
      <trkpt lat="24.971774" lon="121.497729">
        <ele>231.0</ele>
      </trkpt>
      <trkpt lat="24.97178" lon="121.497848">
        <ele>228.0</ele>
      </trkpt>
      <trkpt lat="24.971682" lon="121.497854">
        <ele>233.0</ele>
      </trkpt>
      <trkpt lat="24.971683" lon="121.497812">
        <ele>234.0</ele>
      </trkpt>
      <trkpt lat="24.971536" lon="121.497813">
        <ele>237.0</ele>
      </trkpt>
      <trkpt lat="24.971355" lon="121.497777">
        <ele>241.0</ele>
      </trkpt>
      <trkpt lat="24.971268" lon="121.497774">
        <ele>243.0</ele>
      </trkpt>
      <trkpt lat="24.97119" lon="121.497849">
        <ele>243.0</ele>
      </trkpt>
      <trkpt lat="24.970998" lon="121.498151">
        <ele>242.0</ele>
      </trkpt>
      <trkpt lat="24.970923" lon="121.498218">
        <ele>243.0</ele>
      </trkpt>
      <trkpt lat="24.970894" lon="121.498316">
        <ele>243.0</ele>
      </trkpt>
      <trkpt lat="24.970791" lon="121.498443">
        <ele>241.0</ele>
      </trkpt>
      <trkpt lat="24.970667" lon="121.498541">
        <ele>238.0</ele>
      </trkpt>
      <trkpt lat="24.970682" lon="121.498826">
        <ele>232.0</ele>
      </trkpt>
      <trkpt lat="24.97065" lon="121.498996">
        <ele>228.0</ele>
      </trkpt>
      <trkpt lat="24.970687" lon="121.499136">
        <ele>226.0</ele>
      </trkpt>
      <trkpt lat="24.970643" lon="121.49935">
        <ele>224.0</ele>
      </trkpt>
      <trkpt lat="24.970663" lon="121.499517">
        <ele>223.0</ele>
      </trkpt>
      <trkpt lat="24.970653" lon="121.499653">
        <ele>222.0</ele>
      </trkpt>
      <trkpt lat="24.970524" lon="121.499865">
        <ele>221.0</ele>
      </trkpt>
      <trkpt lat="24.970398" lon="121.499939">
        <ele>221.0</ele>
      </trkpt>
      <trkpt lat="24.970307" lon="121.499971">
        <ele>221.0</ele>
      </trkpt>
      <trkpt lat="24.970201" lon="121.500045">
        <ele>221.0</ele>
      </trkpt>
      <trkpt lat="24.970149" lon="121.500193">
        <ele>221.0</ele>
      </trkpt>
      <trkpt lat="24.970242" lon="121.500401">
        <ele>218.0</ele>
      </trkpt>
      <trkpt lat="24.970272" lon="121.500539">
        <ele>217.0</ele>
      </trkpt>
      <trkpt lat="24.970235" lon="121.500878">
        <ele>216.0</ele>
      </trkpt>
      <trkpt lat="24.970179" lon="121.501061">
        <ele>217.0</ele>
      </trkpt>
      <trkpt lat="24.970093" lon="121.501182">
        <ele>220.0</ele>
      </trkpt>
      <trkpt lat="24.970031" lon="121.501306">
        <ele>222.0</ele>
      </trkpt>
      <trkpt lat="24.970021" lon="121.501454">
        <ele>223.0</ele>
      </trkpt>
      <trkpt lat="24.969959" lon="121.501584">
        <ele>223.0</ele>
      </trkpt>
      <trkpt lat="24.969871" lon="121.501852">
        <ele>218.0</ele>
      </trkpt>
      <trkpt lat="24.969951" lon="121.502024">
        <ele>216.0</ele>
      </trkpt>
      <trkpt lat="24.970138" lon="121.502233">
        <ele>209.0</ele>
      </trkpt>
      <trkpt lat="24.970502" lon="121.502517">
        <ele>198.0</ele>
      </trkpt>
      <trkpt lat="24.970554" lon="121.502694">
        <ele>194.0</ele>
      </trkpt>
      <trkpt lat="24.97067" lon="121.502839">
        <ele>190.0</ele>
      </trkpt>
      <trkpt lat="24.970968" lon="121.502803">
        <ele>186.0</ele>
      </trkpt>
      <trkpt lat="24.971228" lon="121.502827">
        <ele>181.0</ele>
      </trkpt>
      <trkpt lat="24.971364" lon="121.502907">
        <ele>179.0</ele>
      </trkpt>
      <trkpt lat="24.971415" lon="121.503072">
        <ele>181.0</ele>
      </trkpt>
      <trkpt lat="24.97163" lon="121.503438">
        <ele>185.0</ele>
      </trkpt>
      <trkpt lat="24.971958" lon="121.503887">
        <ele>188.0</ele>
      </trkpt>
      <trkpt lat="24.972085" lon="121.503986">
        <ele>191.0</ele>
      </trkpt>
      <trkpt lat="24.972261" lon="121.504095">
        <ele>196.0</ele>
      </trkpt>
      <trkpt lat="24.972548" lon="121.504232">
        <ele>202.0</ele>
      </trkpt>
      <trkpt lat="24.972627" lon="121.504309">
        <ele>201.0</ele>
      </trkpt>
      <trkpt lat="24.972654" lon="121.504465">
        <ele>201.0</ele>
      </trkpt>
      <trkpt lat="24.972521" lon="121.504811">
        <ele>201.0</ele>
      </trkpt>
      <trkpt lat="24.972635" lon="121.504836">
        <ele>201.0</ele>
      </trkpt>
      <trkpt lat="24.972816" lon="121.504805">
        <ele>201.0</ele>
      </trkpt>
      <trkpt lat="24.97296" lon="121.504879">
        <ele>202.0</ele>
      </trkpt>
      <trkpt lat="24.973131" lon="121.50508">
        <ele>201.0</ele>
      </trkpt>
      <trkpt lat="24.97312" lon="121.505443">
        <ele>196.0</ele>
      </trkpt>
      <trkpt lat="24.973211" lon="121.505691">
        <ele>192.0</ele>
      </trkpt>
      <trkpt lat="24.9732" lon="121.50585">
        <ele>189.0</ele>
      </trkpt>
      <trkpt lat="24.973312" lon="121.505998">
        <ele>184.0</ele>
      </trkpt>
      <trkpt lat="24.973291" lon="121.506193">
        <ele>178.0</ele>
      </trkpt>
      <trkpt lat="24.973371" lon="121.50634">
        <ele>173.0</ele>
      </trkpt>
      <trkpt lat="24.973334" lon="121.506448">
        <ele>169.0</ele>
      </trkpt>
      <trkpt lat="24.973439" lon="121.506584">
        <ele>165.0</ele>
      </trkpt>
      <trkpt lat="24.973544" lon="121.506677">
        <ele>164.0</ele>
      </trkpt>
      <trkpt lat="24.973698" lon="121.506878">
        <ele>160.0</ele>
      </trkpt>
      <trkpt lat="24.973671" lon="121.507067">
        <ele>154.0</ele>
      </trkpt>
      <trkpt lat="24.973671" lon="121.507209">
        <ele>150.0</ele>
      </trkpt>
      <trkpt lat="24.973671" lon="121.507209">
        <ele>150.0</ele>
      </trkpt>
      <trkpt lat="24.973698" lon="121.507327">
        <ele>146.0</ele>
      </trkpt>
      <trkpt lat="24.973698" lon="121.507417">
        <ele>143.0</ele>
      </trkpt>
      <trkpt lat="24.973724" lon="121.507519">
        <ele>140.0</ele>
      </trkpt>
      <trkpt lat="24.973906" lon="121.507334">
        <ele>147.0</ele>
      </trkpt>
      <trkpt lat="24.974032" lon="121.50725">
        <ele>151.0</ele>
      </trkpt>
      <trkpt lat="24.974106" lon="121.507231">
        <ele>152.0</ele>
      </trkpt>
      <trkpt lat="24.974106" lon="121.507231">
        <ele>152.0</ele>
      </trkpt>
      <trkpt lat="24.974316" lon="121.507179">
        <ele>156.0</ele>
      </trkpt>
      <trkpt lat="24.974439" lon="121.507199">
        <ele>157.0</ele>
      </trkpt>
      <trkpt lat="24.97459" lon="121.507279">
        <ele>157.0</ele>
      </trkpt>
      <trkpt lat="24.974692" lon="121.507368">
        <ele>155.0</ele>
      </trkpt>
      <trkpt lat="24.974889" lon="121.507801">
        <ele>142.0</ele>
      </trkpt>
      <trkpt lat="24.974968" lon="121.507869">
        <ele>141.0</ele>
      </trkpt>
      <trkpt lat="24.975082" lon="121.507921">
        <ele>140.0</ele>
      </trkpt>
      <trkpt lat="24.975082" lon="121.507921">
        <ele>140.0</ele>
      </trkpt>
      <trkpt lat="24.97512" lon="121.507939">
        <ele>140.0</ele>
      </trkpt>
      <trkpt lat="24.975393" lon="121.50822">
        <ele>134.0</ele>
      </trkpt>
      <trkpt lat="24.975534" lon="121.508487">
        <ele>129.0</ele>
      </trkpt>
      <trkpt lat="24.97571" lon="121.508912">
        <ele>121.0</ele>
      </trkpt>
      <trkpt lat="24.975912" lon="121.509134">
        <ele>120.0</ele>
      </trkpt>
      <trkpt lat="24.976142" lon="121.509428">
        <ele>114.0</ele>
      </trkpt>
      <trkpt lat="24.97654" lon="121.510057">
        <ele>103.0</ele>
      </trkpt>
      <trkpt lat="24.976703" lon="121.510154">
        <ele>100.0</ele>
      </trkpt>
      <trkpt lat="24.977221" lon="121.510222">
        <ele>94.0</ele>
      </trkpt>
      <trkpt lat="24.977256" lon="121.510285">
        <ele>92.0</ele>
      </trkpt>
      <trkpt lat="24.977256" lon="121.510285">
        <ele>92.0</ele>
      </trkpt>
      <trkpt lat="24.977271" lon="121.510312">
        <ele>91.0</ele>
      </trkpt>
      <trkpt lat="24.977824" lon="121.510746">
        <ele>80.0</ele>
      </trkpt>
      <trkpt lat="24.977926" lon="121.510807">
        <ele>80.0</ele>
      </trkpt>
      <trkpt lat="24.978215" lon="121.510789">
        <ele>82.0</ele>
      </trkpt>
      <trkpt lat="24.97842" lon="121.510931">
        <ele>83.0</ele>
      </trkpt>
      <trkpt lat="24.97857" lon="121.510936">
        <ele>84.0</ele>
      </trkpt>
      <trkpt lat="24.978683" lon="121.510888">
        <ele>85.0</ele>
      </trkpt>
      <trkpt lat="24.978858" lon="121.510887">
        <ele>85.0</ele>
      </trkpt>
      <trkpt lat="24.979151" lon="121.511">
        <ele>88.0</ele>
      </trkpt>
      <trkpt lat="24.979216" lon="121.51105">
        <ele>88.0</ele>
      </trkpt>
      <trkpt lat="24.97929" lon="121.511205">
        <ele>88.0</ele>
      </trkpt>
      <trkpt lat="24.979392" lon="121.511508">
        <ele>89.0</ele>
      </trkpt>
      <trkpt lat="24.979524" lon="121.511699">
        <ele>88.0</ele>
      </trkpt>
      <trkpt lat="24.979692" lon="121.512051">
        <ele>82.0</ele>
      </trkpt>
      <trkpt lat="24.979751" lon="121.512315">
        <ele>80.0</ele>
      </trkpt>
      <trkpt lat="24.979751" lon="121.512315">
        <ele>80.0</ele>
      </trkpt>
      <trkpt lat="24.979845" lon="121.512627">
        <ele>78.0</ele>
      </trkpt>
      <trkpt lat="24.979985" lon="121.51285">
        <ele>76.0</ele>
      </trkpt>
      <trkpt lat="24.980154" lon="121.513007">
        <ele>75.0</ele>
      </trkpt>
      <trkpt lat="24.980364" lon="121.513245">
        <ele>78.0</ele>
      </trkpt>
      <trkpt lat="24.980546" lon="121.513217">
        <ele>80.0</ele>
      </trkpt>
      <trkpt lat="24.980665" lon="121.513243">
        <ele>82.0</ele>
      </trkpt>
      <trkpt lat="24.980866" lon="121.513341">
        <ele>86.0</ele>
      </trkpt>
      <trkpt lat="24.98105" lon="121.513486">
        <ele>83.0</ele>
      </trkpt>
      <trkpt lat="24.9811449" lon="121.5135925">
        <ele>82.0</ele>
      </trkpt>
      <trkpt lat="24.981145" lon="121.513592">
        <ele>82.0</ele>
      </trkpt>
      <trkpt lat="24.981198" lon="121.513652">
        <ele>82.0</ele>
      </trkpt>
      <trkpt lat="24.981227" lon="121.513638">
        <ele>82.0</ele>
      </trkpt>
      <trkpt lat="24.981278" lon="121.513641">
        <ele>81.0</ele>
      </trkpt>
      <trkpt lat="24.981366" lon="121.513713">
        <ele>81.0</ele>
      </trkpt>
      <trkpt lat="24.981366" lon="121.513713">
        <ele>81.0</ele>
      </trkpt>
      <trkpt lat="24.981423" lon="121.513782">
        <ele>82.0</ele>
      </trkpt>
      <trkpt lat="24.981464" lon="121.51387">
        <ele>83.0</ele>
      </trkpt>
      <trkpt lat="24.981492" lon="121.514072">
        <ele>86.0</ele>
      </trkpt>
      <trkpt lat="24.9815575" lon="121.5141726">
        <ele>88.0</ele>
      </trkpt>
      <trkpt lat="24.981622" lon="121.51426">
        <ele>88.0</ele>
      </trkpt>
      <trkpt lat="24.981622" lon="121.51426">
        <ele>88.0</ele>
      </trkpt>
      <trkpt lat="24.981685" lon="121.514312">
        <ele>88.0</ele>
      </trkpt>
      <trkpt lat="24.981707" lon="121.514386">
        <ele>87.0</ele>
      </trkpt>
      <trkpt lat="24.98172" lon="121.51452">
        <ele>86.0</ele>
      </trkpt>
      <trkpt lat="24.98172" lon="121.51452">
        <ele>86.0</ele>
      </trkpt>
      <trkpt lat="24.981707" lon="121.514386">
        <ele>87.0</ele>
      </trkpt>
      <trkpt lat="24.981685" lon="121.514312">
        <ele>88.0</ele>
      </trkpt>
      <trkpt lat="24.9817669" lon="121.5143127">
        <ele>85.0</ele>
      </trkpt>
      <trkpt lat="24.981808" lon="121.514313">
        <ele>83.0</ele>
      </trkpt>
      <trkpt lat="24.98188" lon="121.51429">
        <ele>80.0</ele>
      </trkpt>
      <trkpt lat="24.982094" lon="121.514153">
        <ele>71.0</ele>
      </trkpt>
      <trkpt lat="24.982249" lon="121.514139">
        <ele>65.0</ele>
      </trkpt>
      <trkpt lat="24.982364" lon="121.514108">
        <ele>60.0</ele>
      </trkpt>
      <trkpt lat="24.98248" lon="121.514095">
        <ele>55.0</ele>
      </trkpt>
      <trkpt lat="24.982595" lon="121.513985">
        <ele>51.0</ele>
      </trkpt>
      <trkpt lat="24.982859" lon="121.513875">
        <ele>46.0</ele>
      </trkpt>
      <trkpt lat="24.98293" lon="121.513869">
        <ele>45.0</ele>
      </trkpt>
      <trkpt lat="24.98279" lon="121.514002">
        <ele>48.0</ele>
      </trkpt>
      <trkpt lat="24.98268" lon="121.514058">
        <ele>51.0</ele>
      </trkpt>
      <trkpt lat="24.98268" lon="121.514058">
        <ele>51.0</ele>
      </trkpt>
      <trkpt lat="24.98279" lon="121.514002">
        <ele>48.0</ele>
      </trkpt>
      <trkpt lat="24.98293" lon="121.513869">
        <ele>45.0</ele>
      </trkpt>
      <trkpt lat="24.983497" lon="121.513838">
        <ele>38.0</ele>
      </trkpt>
      <trkpt lat="24.983609" lon="121.513857">
        <ele>38.0</ele>
      </trkpt>
      <trkpt lat="24.983694" lon="121.513936">
        <ele>38.0</ele>
      </trkpt>
      <trkpt lat="24.984066" lon="121.514426">
        <ele>37.0</ele>
      </trkpt>
      <trkpt lat="24.984154" lon="121.514452">
        <ele>37.0</ele>
      </trkpt>
      <trkpt lat="24.984315" lon="121.514545">
        <ele>38.0</ele>
      </trkpt>
      <trkpt lat="24.984507" lon="121.514682">
        <ele>38.0</ele>
      </trkpt>
      <trkpt lat="24.98461" lon="121.514669">
        <ele>39.0</ele>
      </trkpt>
      <trkpt lat="24.984926" lon="121.514565">
        <ele>40.0</ele>
      </trkpt>
      <trkpt lat="24.98502" lon="121.514563">
        <ele>40.0</ele>
      </trkpt>
      <trkpt lat="24.985129" lon="121.514644">
        <ele>41.0</ele>
      </trkpt>
      <trkpt lat="24.985305" lon="121.514727">
        <ele>42.0</ele>
      </trkpt>
      <trkpt lat="24.985533" lon="121.514783">
        <ele>43.0</ele>
      </trkpt>
      <trkpt lat="24.985576" lon="121.514875">
        <ele>43.0</ele>
      </trkpt>
      <trkpt lat="24.985656" lon="121.514904">
        <ele>44.0</ele>
      </trkpt>
      <trkpt lat="24.985723" lon="121.514869">
        <ele>43.0</ele>
      </trkpt>
      <trkpt lat="24.985768" lon="121.514898">
        <ele>44.0</ele>
      </trkpt>
      <trkpt lat="24.985827" lon="121.515028">
        <ele>44.0</ele>
      </trkpt>
      <trkpt lat="24.985937" lon="121.515081">
        <ele>41.0</ele>
      </trkpt>
      <trkpt lat="24.986015" lon="121.515058">
        <ele>39.0</ele>
      </trkpt>
      <trkpt lat="24.986055" lon="121.515099">
        <ele>38.0</ele>
      </trkpt>
      <trkpt lat="24.986165" lon="121.515152">
        <ele>35.0</ele>
      </trkpt>
      <trkpt lat="24.986205" lon="121.51522">
        <ele>34.0</ele>
      </trkpt>
      <trkpt lat="24.986258" lon="121.515238">
        <ele>33.0</ele>
      </trkpt>
      <trkpt lat="24.986322" lon="121.51535">
        <ele>31.0</ele>
      </trkpt>
      <trkpt lat="24.986431" lon="121.515452">
        <ele>29.0</ele>
      </trkpt>
      <trkpt lat="24.986431" lon="121.515452">
        <ele>29.0</ele>
      </trkpt>
      <trkpt lat="24.986454" lon="121.515468">
        <ele>29.0</ele>
      </trkpt>
      <trkpt lat="24.986658" lon="121.514649">
        <ele>25.0</ele>
      </trkpt>
      <trkpt lat="24.986748" lon="121.514346">
        <ele>26.0</ele>
      </trkpt>
      <trkpt lat="24.986828" lon="121.514192">
        <ele>25.0</ele>
      </trkpt>
      <trkpt lat="24.986991" lon="121.513958">
        <ele>23.0</ele>
      </trkpt>
      <trkpt lat="24.987208" lon="121.513752">
        <ele>20.0</ele>
      </trkpt>
      <trkpt lat="24.987388" lon="121.513661">
        <ele>19.0</ele>
      </trkpt>
      <trkpt lat="24.986914" lon="121.512448">
        <ele>20.0</ele>
      </trkpt>
      <trkpt lat="24.98684" lon="121.512195">
        <ele>19.0</ele>
      </trkpt>
      <trkpt lat="24.986781" lon="121.512065">
        <ele>19.0</ele>
      </trkpt>
      <trkpt lat="24.986711" lon="121.511884">
        <ele>19.0</ele>
      </trkpt>
      <trkpt lat="24.986685" lon="121.511779">
        <ele>18.0</ele>
      </trkpt>
      <trkpt lat="24.988338" lon="121.511048">
        <ele>16.0</ele>
      </trkpt>
      <trkpt lat="24.989726" lon="121.510401">
        <ele>16.0</ele>
      </trkpt>
      <trkpt lat="24.9893217" lon="121.5101321">
        <ele>16.0</ele>
      </trkpt>
    </trkseg>
  </trk>
</gpx>
