<?xml version="1.0" encoding="UTF-8"?>
<gpx xmlns="http://www.topografix.com/GPX/1/1" xmlns:xsi="http://www.w3.org/2001/XMLSchema-instance" xsi:schemaLocation="http://www.topografix.com/GPX/1/1 http://www.topografix.com/GPX/1/1/gpx.xsd" version="1.1" creator="Martin Schneider">
  <wpt lat="24.894154" lon="121.308938">
    <ele>118.0</ele>
    <name>Start</name>
  </wpt>
  <wpt lat="24.93634" lon="121.3738364">
    <ele>46.0</ele>
    <name>End</name>
  </wpt>
  <wpt lat="24.926617" lon="121.345115">
    <ele>299.0</ele>
    <name>Summit Yuanshan</name>
  </wpt>
  <wpt lat="24.927907" lon="121.341803">
    <name>1</name>
    <desc>Alternative trailhead</desc>
  </wpt>
  <wpt lat="24.9093901" lon="121.322945">
    <name>2</name>
    <desc>Summit Wutukushan</desc>
  </wpt>
  <wpt lat="24.9181861" lon="121.336926">
    <name>3</name>
    <desc>Summit Wushifenshan</desc>
  </wpt>
  <wpt lat="24.9324344" lon="121.3586431">
    <name>4</name>
    <desc>Trailhead (enter)</desc>
  </wpt>
  <trk>
    <name>19_Yuanshan</name>
    <trkseg>
      <trkpt lat="24.894154" lon="121.308938">
        <ele>118.0</ele>
      </trkpt>
      <trkpt lat="24.8941853" lon="121.3089402">
        <ele>118.0</ele>
      </trkpt>
      <trkpt lat="24.894322" lon="121.30895">
        <ele>120.0</ele>
      </trkpt>
      <trkpt lat="24.894507" lon="121.308925">
        <ele>124.0</ele>
      </trkpt>
      <trkpt lat="24.894633" lon="121.308865">
        <ele>127.0</ele>
      </trkpt>
      <trkpt lat="24.895082" lon="121.30885">
        <ele>133.0</ele>
      </trkpt>
      <trkpt lat="24.895332" lon="121.308821">
        <ele>136.0</ele>
      </trkpt>
      <trkpt lat="24.895459" lon="121.308768">
        <ele>137.0</ele>
      </trkpt>
      <trkpt lat="24.895597" lon="121.308687">
        <ele>139.0</ele>
      </trkpt>
      <trkpt lat="24.895762" lon="121.308536">
        <ele>139.0</ele>
      </trkpt>
      <trkpt lat="24.895964" lon="121.308408">
        <ele>139.0</ele>
      </trkpt>
      <trkpt lat="24.896106" lon="121.308375">
        <ele>138.0</ele>
      </trkpt>
      <trkpt lat="24.896461" lon="121.308046">
        <ele>143.0</ele>
      </trkpt>
      <trkpt lat="24.896607" lon="121.307974">
        <ele>143.0</ele>
      </trkpt>
      <trkpt lat="24.896686" lon="121.307875">
        <ele>144.0</ele>
      </trkpt>
      <trkpt lat="24.896733" lon="121.307701">
        <ele>146.0</ele>
      </trkpt>
      <trkpt lat="24.896733" lon="121.307701">
        <ele>146.0</ele>
      </trkpt>
      <trkpt lat="24.896763" lon="121.307592">
        <ele>147.0</ele>
      </trkpt>
      <trkpt lat="24.89681" lon="121.307527">
        <ele>148.0</ele>
      </trkpt>
      <trkpt lat="24.897036" lon="121.307425">
        <ele>151.0</ele>
      </trkpt>
      <trkpt lat="24.897097" lon="121.307425">
        <ele>151.0</ele>
      </trkpt>
      <trkpt lat="24.897338" lon="121.30779">
        <ele>146.0</ele>
      </trkpt>
      <trkpt lat="24.897474" lon="121.307912">
        <ele>145.0</ele>
      </trkpt>
      <trkpt lat="24.897595" lon="121.307848">
        <ele>147.0</ele>
      </trkpt>
      <trkpt lat="24.897578" lon="121.307683">
        <ele>148.0</ele>
      </trkpt>
      <trkpt lat="24.897569" lon="121.307505">
        <ele>150.0</ele>
      </trkpt>
      <trkpt lat="24.897583" lon="121.30698">
        <ele>166.0</ele>
      </trkpt>
      <trkpt lat="24.89748" lon="121.30672">
        <ele>173.0</ele>
      </trkpt>
      <trkpt lat="24.897505" lon="121.306623">
        <ele>176.0</ele>
      </trkpt>
      <trkpt lat="24.89749" lon="121.306521">
        <ele>178.0</ele>
      </trkpt>
      <trkpt lat="24.8975" lon="121.306382">
        <ele>181.0</ele>
      </trkpt>
      <trkpt lat="24.897534" lon="121.306307">
        <ele>183.0</ele>
      </trkpt>
      <trkpt lat="24.897592" lon="121.306264">
        <ele>185.0</ele>
      </trkpt>
      <trkpt lat="24.897612" lon="121.306221">
        <ele>186.0</ele>
      </trkpt>
      <trkpt lat="24.897787" lon="121.306071">
        <ele>189.0</ele>
      </trkpt>
      <trkpt lat="24.89785" lon="121.305947">
        <ele>192.0</ele>
      </trkpt>
      <trkpt lat="24.897972" lon="121.305937">
        <ele>192.0</ele>
      </trkpt>
      <trkpt lat="24.89804" lon="121.305969">
        <ele>192.0</ele>
      </trkpt>
      <trkpt lat="24.89821" lon="121.30591">
        <ele>193.0</ele>
      </trkpt>
      <trkpt lat="24.898395" lon="121.305947">
        <ele>192.0</ele>
      </trkpt>
      <trkpt lat="24.898527" lon="121.305996">
        <ele>191.0</ele>
      </trkpt>
      <trkpt lat="24.898663" lon="121.305974">
        <ele>190.0</ele>
      </trkpt>
      <trkpt lat="24.898711" lon="121.306087">
        <ele>189.0</ele>
      </trkpt>
      <trkpt lat="24.898789" lon="121.306146">
        <ele>189.0</ele>
      </trkpt>
      <trkpt lat="24.898901" lon="121.306194">
        <ele>188.0</ele>
      </trkpt>
      <trkpt lat="24.89911" lon="121.306226">
        <ele>188.0</ele>
      </trkpt>
      <trkpt lat="24.899237" lon="121.306296">
        <ele>187.0</ele>
      </trkpt>
      <trkpt lat="24.899368" lon="121.306323">
        <ele>188.0</ele>
      </trkpt>
      <trkpt lat="24.899446" lon="121.306275">
        <ele>187.0</ele>
      </trkpt>
      <trkpt lat="24.899529" lon="121.306301">
        <ele>187.0</ele>
      </trkpt>
      <trkpt lat="24.899582" lon="121.30636">
        <ele>188.0</ele>
      </trkpt>
      <trkpt lat="24.899685" lon="121.306414">
        <ele>190.0</ele>
      </trkpt>
      <trkpt lat="24.899763" lon="121.30643">
        <ele>191.0</ele>
      </trkpt>
      <trkpt lat="24.899826" lon="121.3065">
        <ele>193.0</ele>
      </trkpt>
      <trkpt lat="24.899913" lon="121.306532">
        <ele>195.0</ele>
      </trkpt>
      <trkpt lat="24.899938" lon="121.306645">
        <ele>199.0</ele>
      </trkpt>
      <trkpt lat="24.900122" lon="121.306693">
        <ele>203.0</ele>
      </trkpt>
      <trkpt lat="24.900176" lon="121.306757">
        <ele>204.0</ele>
      </trkpt>
      <trkpt lat="24.900269" lon="121.306757">
        <ele>205.0</ele>
      </trkpt>
      <trkpt lat="24.900371" lon="121.306827">
        <ele>207.0</ele>
      </trkpt>
      <trkpt lat="24.900429" lon="121.306902">
        <ele>209.0</ele>
      </trkpt>
      <trkpt lat="24.900535" lon="121.306996">
        <ele>211.0</ele>
      </trkpt>
      <trkpt lat="24.900615" lon="121.307012">
        <ele>213.0</ele>
      </trkpt>
      <trkpt lat="24.900701" lon="121.306999">
        <ele>214.0</ele>
      </trkpt>
      <trkpt lat="24.900701" lon="121.306999">
        <ele>214.0</ele>
      </trkpt>
      <trkpt lat="24.900815" lon="121.30697">
        <ele>215.0</ele>
      </trkpt>
      <trkpt lat="24.900858" lon="121.306996">
        <ele>216.0</ele>
      </trkpt>
      <trkpt lat="24.900776" lon="121.307074">
        <ele>216.0</ele>
      </trkpt>
      <trkpt lat="24.900709" lon="121.307184">
        <ele>216.0</ele>
      </trkpt>
      <trkpt lat="24.900714" lon="121.307313">
        <ele>218.0</ele>
      </trkpt>
      <trkpt lat="24.900733" lon="121.307393">
        <ele>220.0</ele>
      </trkpt>
      <trkpt lat="24.900714" lon="121.307468">
        <ele>220.0</ele>
      </trkpt>
      <trkpt lat="24.900733" lon="121.307699">
        <ele>221.0</ele>
      </trkpt>
      <trkpt lat="24.900826" lon="121.307967">
        <ele>223.0</ele>
      </trkpt>
      <trkpt lat="24.900806" lon="121.308117">
        <ele>222.0</ele>
      </trkpt>
      <trkpt lat="24.900806" lon="121.308246">
        <ele>223.0</ele>
      </trkpt>
      <trkpt lat="24.900821" lon="121.3083">
        <ele>223.0</ele>
      </trkpt>
      <trkpt lat="24.900811" lon="121.308396">
        <ele>223.0</ele>
      </trkpt>
      <trkpt lat="24.900855" lon="121.308461">
        <ele>223.0</ele>
      </trkpt>
      <trkpt lat="24.900869" lon="121.308541">
        <ele>222.0</ele>
      </trkpt>
      <trkpt lat="24.900957" lon="121.30867">
        <ele>222.0</ele>
      </trkpt>
      <trkpt lat="24.901093" lon="121.308922">
        <ele>223.0</ele>
      </trkpt>
      <trkpt lat="24.90122" lon="121.309083">
        <ele>225.0</ele>
      </trkpt>
      <trkpt lat="24.901249" lon="121.309201">
        <ele>226.0</ele>
      </trkpt>
      <trkpt lat="24.901473" lon="121.309356">
        <ele>230.0</ele>
      </trkpt>
      <trkpt lat="24.901444" lon="121.309448">
        <ele>231.0</ele>
      </trkpt>
      <trkpt lat="24.901521" lon="121.30955">
        <ele>233.0</ele>
      </trkpt>
      <trkpt lat="24.901541" lon="121.309646">
        <ele>235.0</ele>
      </trkpt>
      <trkpt lat="24.90177" lon="121.309893">
        <ele>238.0</ele>
      </trkpt>
      <trkpt lat="24.901935" lon="121.310038">
        <ele>237.0</ele>
      </trkpt>
      <trkpt lat="24.902052" lon="121.310107">
        <ele>235.0</ele>
      </trkpt>
      <trkpt lat="24.902086" lon="121.310177">
        <ele>234.0</ele>
      </trkpt>
      <trkpt lat="24.902198" lon="121.310279">
        <ele>231.0</ele>
      </trkpt>
      <trkpt lat="24.902407" lon="121.310338">
        <ele>229.0</ele>
      </trkpt>
      <trkpt lat="24.902456" lon="121.310381">
        <ele>228.0</ele>
      </trkpt>
      <trkpt lat="24.902534" lon="121.310403">
        <ele>227.0</ele>
      </trkpt>
      <trkpt lat="24.902577" lon="121.310445">
        <ele>225.0</ele>
      </trkpt>
      <trkpt lat="24.90265" lon="121.310553">
        <ele>223.0</ele>
      </trkpt>
      <trkpt lat="24.902597" lon="121.310644">
        <ele>224.0</ele>
      </trkpt>
      <trkpt lat="24.902597" lon="121.31074">
        <ele>224.0</ele>
      </trkpt>
      <trkpt lat="24.902699" lon="121.310789">
        <ele>222.0</ele>
      </trkpt>
      <trkpt lat="24.902816" lon="121.310934">
        <ele>218.0</ele>
      </trkpt>
      <trkpt lat="24.903088" lon="121.310982">
        <ele>213.0</ele>
      </trkpt>
      <trkpt lat="24.903234" lon="121.311041">
        <ele>211.0</ele>
      </trkpt>
      <trkpt lat="24.903317" lon="121.311127">
        <ele>210.0</ele>
      </trkpt>
      <trkpt lat="24.9034" lon="121.311175">
        <ele>209.0</ele>
      </trkpt>
      <trkpt lat="24.903492" lon="121.31118">
        <ele>208.0</ele>
      </trkpt>
      <trkpt lat="24.903594" lon="121.311363">
        <ele>208.0</ele>
      </trkpt>
      <trkpt lat="24.90358" lon="121.311459">
        <ele>210.0</ele>
      </trkpt>
      <trkpt lat="24.903516" lon="121.311577">
        <ele>212.0</ele>
      </trkpt>
      <trkpt lat="24.903531" lon="121.311685">
        <ele>213.0</ele>
      </trkpt>
      <trkpt lat="24.90357" lon="121.311776">
        <ele>212.0</ele>
      </trkpt>
      <trkpt lat="24.903662" lon="121.311803">
        <ele>212.0</ele>
      </trkpt>
      <trkpt lat="24.903705" lon="121.312171">
        <ele>210.0</ele>
      </trkpt>
      <trkpt lat="24.903705" lon="121.312171">
        <ele>210.0</ele>
      </trkpt>
      <trkpt lat="24.903711" lon="121.312226">
        <ele>210.0</ele>
      </trkpt>
      <trkpt lat="24.90376" lon="121.312302">
        <ele>209.0</ele>
      </trkpt>
      <trkpt lat="24.903803" lon="121.312409">
        <ele>209.0</ele>
      </trkpt>
      <trkpt lat="24.903872" lon="121.312462">
        <ele>208.0</ele>
      </trkpt>
      <trkpt lat="24.90392" lon="121.312548">
        <ele>208.0</ele>
      </trkpt>
      <trkpt lat="24.903988" lon="121.312602">
        <ele>208.0</ele>
      </trkpt>
      <trkpt lat="24.903993" lon="121.312656">
        <ele>208.0</ele>
      </trkpt>
      <trkpt lat="24.904086" lon="121.312822">
        <ele>209.0</ele>
      </trkpt>
      <trkpt lat="24.904042" lon="121.312918">
        <ele>209.0</ele>
      </trkpt>
      <trkpt lat="24.903935" lon="121.312977">
        <ele>209.0</ele>
      </trkpt>
      <trkpt lat="24.903876" lon="121.313063">
        <ele>209.0</ele>
      </trkpt>
      <trkpt lat="24.903872" lon="121.313197">
        <ele>209.0</ele>
      </trkpt>
      <trkpt lat="24.903886" lon="121.313358">
        <ele>210.0</ele>
      </trkpt>
      <trkpt lat="24.903998" lon="121.313809">
        <ele>212.0</ele>
      </trkpt>
      <trkpt lat="24.904042" lon="121.313889">
        <ele>213.0</ele>
      </trkpt>
      <trkpt lat="24.904032" lon="121.314018">
        <ele>213.0</ele>
      </trkpt>
      <trkpt lat="24.904091" lon="121.314179">
        <ele>214.0</ele>
      </trkpt>
      <trkpt lat="24.904159" lon="121.314265">
        <ele>215.0</ele>
      </trkpt>
      <trkpt lat="24.904183" lon="121.314351">
        <ele>214.0</ele>
      </trkpt>
      <trkpt lat="24.904261" lon="121.31442">
        <ele>212.0</ele>
      </trkpt>
      <trkpt lat="24.904373" lon="121.314442">
        <ele>210.0</ele>
      </trkpt>
      <trkpt lat="24.904441" lon="121.314496">
        <ele>210.0</ele>
      </trkpt>
      <trkpt lat="24.904548" lon="121.314496">
        <ele>208.0</ele>
      </trkpt>
      <trkpt lat="24.904631" lon="121.31456">
        <ele>207.0</ele>
      </trkpt>
      <trkpt lat="24.904874" lon="121.314608">
        <ele>205.0</ele>
      </trkpt>
      <trkpt lat="24.905044" lon="121.314753">
        <ele>204.0</ele>
      </trkpt>
      <trkpt lat="24.905088" lon="121.315037">
        <ele>207.0</ele>
      </trkpt>
      <trkpt lat="24.90519" lon="121.315429">
        <ele>202.0</ele>
      </trkpt>
      <trkpt lat="24.905263" lon="121.315617">
        <ele>201.0</ele>
      </trkpt>
      <trkpt lat="24.905365" lon="121.315794">
        <ele>200.0</ele>
      </trkpt>
      <trkpt lat="24.905443" lon="121.315853">
        <ele>199.0</ele>
      </trkpt>
      <trkpt lat="24.905477" lon="121.315917">
        <ele>199.0</ele>
      </trkpt>
      <trkpt lat="24.905565" lon="121.315971">
        <ele>199.0</ele>
      </trkpt>
      <trkpt lat="24.90556" lon="121.316089">
        <ele>200.0</ele>
      </trkpt>
      <trkpt lat="24.905609" lon="121.316169">
        <ele>201.0</ele>
      </trkpt>
      <trkpt lat="24.905701" lon="121.316196">
        <ele>202.0</ele>
      </trkpt>
      <trkpt lat="24.905745" lon="121.31626">
        <ele>203.0</ele>
      </trkpt>
      <trkpt lat="24.905813" lon="121.316303">
        <ele>204.0</ele>
      </trkpt>
      <trkpt lat="24.905925" lon="121.316346">
        <ele>205.0</ele>
      </trkpt>
      <trkpt lat="24.906032" lon="121.316352">
        <ele>206.0</ele>
      </trkpt>
      <trkpt lat="24.906085" lon="121.316448">
        <ele>208.0</ele>
      </trkpt>
      <trkpt lat="24.90609" lon="121.316534">
        <ele>211.0</ele>
      </trkpt>
      <trkpt lat="24.906343" lon="121.316679">
        <ele>216.0</ele>
      </trkpt>
      <trkpt lat="24.906426" lon="121.316684">
        <ele>217.0</ele>
      </trkpt>
      <trkpt lat="24.906514" lon="121.316754">
        <ele>217.0</ele>
      </trkpt>
      <trkpt lat="24.90663" lon="121.31677">
        <ele>218.0</ele>
      </trkpt>
      <trkpt lat="24.906733" lon="121.316759">
        <ele>219.0</ele>
      </trkpt>
      <trkpt lat="24.906791" lon="121.316813">
        <ele>218.0</ele>
      </trkpt>
      <trkpt lat="24.906883" lon="121.316824">
        <ele>218.0</ele>
      </trkpt>
      <trkpt lat="24.907044" lon="121.316872">
        <ele>217.0</ele>
      </trkpt>
      <trkpt lat="24.907151" lon="121.317022">
        <ele>217.0</ele>
      </trkpt>
      <trkpt lat="24.90717" lon="121.317119">
        <ele>216.0</ele>
      </trkpt>
      <trkpt lat="24.907219" lon="121.317215">
        <ele>216.0</ele>
      </trkpt>
      <trkpt lat="24.907204" lon="121.317349">
        <ele>216.0</ele>
      </trkpt>
      <trkpt lat="24.907248" lon="121.317419">
        <ele>216.0</ele>
      </trkpt>
      <trkpt lat="24.907224" lon="121.317569">
        <ele>215.0</ele>
      </trkpt>
      <trkpt lat="24.907354" lon="121.318087">
        <ele>208.0</ele>
      </trkpt>
      <trkpt lat="24.907448" lon="121.318225">
        <ele>208.0</ele>
      </trkpt>
      <trkpt lat="24.907692" lon="121.318658">
        <ele>204.0</ele>
      </trkpt>
      <trkpt lat="24.907725" lon="121.318884">
        <ele>205.0</ele>
      </trkpt>
      <trkpt lat="24.907759" lon="121.31898">
        <ele>206.0</ele>
      </trkpt>
      <trkpt lat="24.907915" lon="121.319125">
        <ele>206.0</ele>
      </trkpt>
      <trkpt lat="24.907925" lon="121.319206">
        <ele>206.0</ele>
      </trkpt>
      <trkpt lat="24.908056" lon="121.319447">
        <ele>205.0</ele>
      </trkpt>
      <trkpt lat="24.908146" lon="121.319836">
        <ele>207.0</ele>
      </trkpt>
      <trkpt lat="24.908191" lon="121.319906">
        <ele>208.0</ele>
      </trkpt>
      <trkpt lat="24.908333" lon="121.320185">
        <ele>212.0</ele>
      </trkpt>
      <trkpt lat="24.908431" lon="121.320256">
        <ele>212.0</ele>
      </trkpt>
      <trkpt lat="24.908594" lon="121.320343">
        <ele>212.0</ele>
      </trkpt>
      <trkpt lat="24.908723" lon="121.320488">
        <ele>212.0</ele>
      </trkpt>
      <trkpt lat="24.908791" lon="121.320611">
        <ele>212.0</ele>
      </trkpt>
      <trkpt lat="24.908868" lon="121.320686">
        <ele>213.0</ele>
      </trkpt>
      <trkpt lat="24.908898" lon="121.32089">
        <ele>215.0</ele>
      </trkpt>
      <trkpt lat="24.90882" lon="121.321169">
        <ele>222.0</ele>
      </trkpt>
      <trkpt lat="24.908839" lon="121.321223">
        <ele>223.0</ele>
      </trkpt>
      <trkpt lat="24.908825" lon="121.321314">
        <ele>226.0</ele>
      </trkpt>
      <trkpt lat="24.908752" lon="121.321373">
        <ele>227.0</ele>
      </trkpt>
      <trkpt lat="24.908766" lon="121.321464">
        <ele>229.0</ele>
      </trkpt>
      <trkpt lat="24.908757" lon="121.321566">
        <ele>232.0</ele>
      </trkpt>
      <trkpt lat="24.908781" lon="121.32162">
        <ele>233.0</ele>
      </trkpt>
      <trkpt lat="24.908747" lon="121.321754">
        <ele>236.0</ele>
      </trkpt>
      <trkpt lat="24.908825" lon="121.321845">
        <ele>238.0</ele>
      </trkpt>
      <trkpt lat="24.908757" lon="121.321893">
        <ele>239.0</ele>
      </trkpt>
      <trkpt lat="24.908786" lon="121.321947">
        <ele>241.0</ele>
      </trkpt>
      <trkpt lat="24.908747" lon="121.322038">
        <ele>242.0</ele>
      </trkpt>
      <trkpt lat="24.908791" lon="121.322108">
        <ele>244.0</ele>
      </trkpt>
      <trkpt lat="24.908854" lon="121.322156">
        <ele>246.0</ele>
      </trkpt>
      <trkpt lat="24.908873" lon="121.32222">
        <ele>248.0</ele>
      </trkpt>
      <trkpt lat="24.908941" lon="121.322338">
        <ele>253.0</ele>
      </trkpt>
      <trkpt lat="24.909014" lon="121.322376">
        <ele>255.0</ele>
      </trkpt>
      <trkpt lat="24.909194" lon="121.322413">
        <ele>258.0</ele>
      </trkpt>
      <trkpt lat="24.909306" lon="121.322462">
        <ele>254.0</ele>
      </trkpt>
      <trkpt lat="24.90936" lon="121.322564">
        <ele>254.0</ele>
      </trkpt>
      <trkpt lat="24.909406" lon="121.322733">
        <ele>254.0</ele>
      </trkpt>
      <trkpt lat="24.909413" lon="121.322847">
        <ele>255.0</ele>
      </trkpt>
      <trkpt lat="24.909394" lon="121.32293">
        <ele>256.0</ele>
      </trkpt>
      <trkpt lat="24.909394" lon="121.32293">
        <ele>256.0</ele>
      </trkpt>
      <trkpt lat="24.90962" lon="121.323318">
        <ele>255.0</ele>
      </trkpt>
      <trkpt lat="24.909693" lon="121.323577">
        <ele>251.0</ele>
      </trkpt>
      <trkpt lat="24.909716" lon="121.323769">
        <ele>248.0</ele>
      </trkpt>
      <trkpt lat="24.909789" lon="121.324121">
        <ele>244.0</ele>
      </trkpt>
      <trkpt lat="24.909773" lon="121.32452">
        <ele>237.0</ele>
      </trkpt>
      <trkpt lat="24.909705" lon="121.324644">
        <ele>234.0</ele>
      </trkpt>
      <trkpt lat="24.909525" lon="121.325059">
        <ele>228.0</ele>
      </trkpt>
      <trkpt lat="24.909379" lon="121.325195">
        <ele>228.0</ele>
      </trkpt>
      <trkpt lat="24.90939" lon="121.325688">
        <ele>224.0</ele>
      </trkpt>
      <trkpt lat="24.909331" lon="121.325945">
        <ele>223.0</ele>
      </trkpt>
      <trkpt lat="24.909231" lon="121.326063">
        <ele>224.0</ele>
      </trkpt>
      <trkpt lat="24.909092" lon="121.326131">
        <ele>224.0</ele>
      </trkpt>
      <trkpt lat="24.908982" lon="121.326325">
        <ele>221.0</ele>
      </trkpt>
      <trkpt lat="24.908934" lon="121.326469">
        <ele>219.0</ele>
      </trkpt>
      <trkpt lat="24.909036" lon="121.326701">
        <ele>218.0</ele>
      </trkpt>
      <trkpt lat="24.909134" lon="121.326858">
        <ele>217.0</ele>
      </trkpt>
      <trkpt lat="24.909252" lon="121.327174">
        <ele>213.0</ele>
      </trkpt>
      <trkpt lat="24.909258" lon="121.327531">
        <ele>211.0</ele>
      </trkpt>
      <trkpt lat="24.909214" lon="121.327719">
        <ele>214.0</ele>
      </trkpt>
      <trkpt lat="24.909248" lon="121.327923">
        <ele>217.0</ele>
      </trkpt>
      <trkpt lat="24.909287" lon="121.328009">
        <ele>218.0</ele>
      </trkpt>
      <trkpt lat="24.909312" lon="121.328131">
        <ele>219.0</ele>
      </trkpt>
      <trkpt lat="24.909279" lon="121.328299">
        <ele>222.0</ele>
      </trkpt>
      <trkpt lat="24.909279" lon="121.328299">
        <ele>222.0</ele>
      </trkpt>
      <trkpt lat="24.909259" lon="121.32836">
        <ele>223.0</ele>
      </trkpt>
      <trkpt lat="24.909218" lon="121.328418">
        <ele>223.0</ele>
      </trkpt>
      <trkpt lat="24.909194" lon="121.328518">
        <ele>222.0</ele>
      </trkpt>
      <trkpt lat="24.909598" lon="121.328701">
        <ele>221.0</ele>
      </trkpt>
      <trkpt lat="24.90971" lon="121.328786">
        <ele>222.0</ele>
      </trkpt>
      <trkpt lat="24.909783" lon="121.328904">
        <ele>223.0</ele>
      </trkpt>
      <trkpt lat="24.910005" lon="121.329191">
        <ele>228.0</ele>
      </trkpt>
      <trkpt lat="24.910241" lon="121.329462">
        <ele>220.0</ele>
      </trkpt>
      <trkpt lat="24.910878" lon="121.330004">
        <ele>223.0</ele>
      </trkpt>
      <trkpt lat="24.910961" lon="121.330122">
        <ele>220.0</ele>
      </trkpt>
      <trkpt lat="24.911189" lon="121.330283">
        <ele>219.0</ele>
      </trkpt>
      <trkpt lat="24.911311" lon="121.330455">
        <ele>219.0</ele>
      </trkpt>
      <trkpt lat="24.911515" lon="121.3306">
        <ele>223.0</ele>
      </trkpt>
      <trkpt lat="24.912036" lon="121.33105">
        <ele>226.0</ele>
      </trkpt>
      <trkpt lat="24.91212" lon="121.331051">
        <ele>226.0</ele>
      </trkpt>
      <trkpt lat="24.912274" lon="121.331161">
        <ele>226.0</ele>
      </trkpt>
      <trkpt lat="24.912543" lon="121.331388">
        <ele>225.0</ele>
      </trkpt>
      <trkpt lat="24.912519" lon="121.331729">
        <ele>226.0</ele>
      </trkpt>
      <trkpt lat="24.912542" lon="121.332015">
        <ele>221.0</ele>
      </trkpt>
      <trkpt lat="24.912581" lon="121.332103">
        <ele>219.0</ele>
      </trkpt>
      <trkpt lat="24.912715" lon="121.331977">
        <ele>221.0</ele>
      </trkpt>
      <trkpt lat="24.912825" lon="121.331941">
        <ele>221.0</ele>
      </trkpt>
      <trkpt lat="24.913064" lon="121.332084">
        <ele>218.0</ele>
      </trkpt>
      <trkpt lat="24.913222" lon="121.332263">
        <ele>217.0</ele>
      </trkpt>
      <trkpt lat="24.913377" lon="121.332342">
        <ele>217.0</ele>
      </trkpt>
      <trkpt lat="24.913535" lon="121.332518">
        <ele>218.0</ele>
      </trkpt>
      <trkpt lat="24.913569" lon="121.33254">
        <ele>218.0</ele>
      </trkpt>
      <trkpt lat="24.913569" lon="121.33254">
        <ele>218.0</ele>
      </trkpt>
      <trkpt lat="24.913689" lon="121.332615">
        <ele>218.0</ele>
      </trkpt>
      <trkpt lat="24.913768" lon="121.332735">
        <ele>217.0</ele>
      </trkpt>
      <trkpt lat="24.913826" lon="121.332928">
        <ele>216.0</ele>
      </trkpt>
      <trkpt lat="24.913836" lon="121.333067">
        <ele>214.0</ele>
      </trkpt>
      <trkpt lat="24.913812" lon="121.33318">
        <ele>213.0</ele>
      </trkpt>
      <trkpt lat="24.913831" lon="121.333357">
        <ele>211.0</ele>
      </trkpt>
      <trkpt lat="24.913875" lon="121.333448">
        <ele>211.0</ele>
      </trkpt>
      <trkpt lat="24.914016" lon="121.333566">
        <ele>211.0</ele>
      </trkpt>
      <trkpt lat="24.91411" lon="121.333593">
        <ele>212.0</ele>
      </trkpt>
      <trkpt lat="24.914205" lon="121.333534">
        <ele>214.0</ele>
      </trkpt>
      <trkpt lat="24.914271" lon="121.333388">
        <ele>217.0</ele>
      </trkpt>
      <trkpt lat="24.91449" lon="121.333132">
        <ele>220.0</ele>
      </trkpt>
      <trkpt lat="24.914578" lon="121.333081">
        <ele>221.0</ele>
      </trkpt>
      <trkpt lat="24.914663" lon="121.333126">
        <ele>220.0</ele>
      </trkpt>
      <trkpt lat="24.914721" lon="121.333196">
        <ele>219.0</ele>
      </trkpt>
      <trkpt lat="24.914794" lon="121.333228">
        <ele>218.0</ele>
      </trkpt>
      <trkpt lat="24.914968" lon="121.333148">
        <ele>219.0</ele>
      </trkpt>
      <trkpt lat="24.915073" lon="121.333161">
        <ele>220.0</ele>
      </trkpt>
      <trkpt lat="24.915197" lon="121.333322">
        <ele>219.0</ele>
      </trkpt>
      <trkpt lat="24.915276" lon="121.333551">
        <ele>217.0</ele>
      </trkpt>
      <trkpt lat="24.915448" lon="121.333667">
        <ele>219.0</ele>
      </trkpt>
      <trkpt lat="24.915559" lon="121.333779">
        <ele>220.0</ele>
      </trkpt>
      <trkpt lat="24.91555" lon="121.333873">
        <ele>218.0</ele>
      </trkpt>
      <trkpt lat="24.915493" lon="121.333958">
        <ele>215.0</ele>
      </trkpt>
      <trkpt lat="24.915499" lon="121.334035">
        <ele>214.0</ele>
      </trkpt>
      <trkpt lat="24.915585" lon="121.334124">
        <ele>215.0</ele>
      </trkpt>
      <trkpt lat="24.915699" lon="121.334153">
        <ele>218.0</ele>
      </trkpt>
      <trkpt lat="24.915928" lon="121.334293">
        <ele>223.0</ele>
      </trkpt>
      <trkpt lat="24.916095" lon="121.334592">
        <ele>227.0</ele>
      </trkpt>
      <trkpt lat="24.916247" lon="121.334811">
        <ele>231.0</ele>
      </trkpt>
      <trkpt lat="24.916416" lon="121.334888">
        <ele>234.0</ele>
      </trkpt>
      <trkpt lat="24.916625" lon="121.334945">
        <ele>238.0</ele>
      </trkpt>
      <trkpt lat="24.916748" lon="121.335037">
        <ele>240.0</ele>
      </trkpt>
      <trkpt lat="24.91685" lon="121.335075">
        <ele>240.0</ele>
      </trkpt>
      <trkpt lat="24.916835" lon="121.335151">
        <ele>242.0</ele>
      </trkpt>
      <trkpt lat="24.91674" lon="121.335226">
        <ele>244.0</ele>
      </trkpt>
      <trkpt lat="24.916585" lon="121.335269">
        <ele>243.0</ele>
      </trkpt>
      <trkpt lat="24.916554" lon="121.335323">
        <ele>244.0</ele>
      </trkpt>
      <trkpt lat="24.916504" lon="121.33554">
        <ele>247.0</ele>
      </trkpt>
      <trkpt lat="24.916485" lon="121.335714">
        <ele>250.0</ele>
      </trkpt>
      <trkpt lat="24.9165" lon="121.335854">
        <ele>253.0</ele>
      </trkpt>
      <trkpt lat="24.916711" lon="121.33596">
        <ele>255.0</ele>
      </trkpt>
      <trkpt lat="24.916849" lon="121.336066">
        <ele>254.0</ele>
      </trkpt>
      <trkpt lat="24.916913" lon="121.336079">
        <ele>255.0</ele>
      </trkpt>
      <trkpt lat="24.917044" lon="121.336065">
        <ele>256.0</ele>
      </trkpt>
      <trkpt lat="24.917251" lon="121.335967">
        <ele>258.0</ele>
      </trkpt>
      <trkpt lat="24.917328" lon="121.336014">
        <ele>259.0</ele>
      </trkpt>
      <trkpt lat="24.917552" lon="121.336252">
        <ele>262.0</ele>
      </trkpt>
      <trkpt lat="24.917552" lon="121.336252">
        <ele>262.0</ele>
      </trkpt>
      <trkpt lat="24.917723" lon="121.336472">
        <ele>263.0</ele>
      </trkpt>
      <trkpt lat="24.917872" lon="121.336606">
        <ele>265.0</ele>
      </trkpt>
      <trkpt lat="24.918025" lon="121.336783">
        <ele>266.0</ele>
      </trkpt>
      <trkpt lat="24.918189" lon="121.33693">
        <ele>266.0</ele>
      </trkpt>
      <trkpt lat="24.918203" lon="121.337016">
        <ele>267.0</ele>
      </trkpt>
      <trkpt lat="24.918165" lon="121.337149">
        <ele>268.0</ele>
      </trkpt>
      <trkpt lat="24.918202" lon="121.33735">
        <ele>269.0</ele>
      </trkpt>
      <trkpt lat="24.918418" lon="121.337993">
        <ele>267.0</ele>
      </trkpt>
      <trkpt lat="24.918443" lon="121.338201">
        <ele>265.0</ele>
      </trkpt>
      <trkpt lat="24.918429" lon="121.338342">
        <ele>265.0</ele>
      </trkpt>
      <trkpt lat="24.918513" lon="121.338487">
        <ele>261.0</ele>
      </trkpt>
      <trkpt lat="24.91874" lon="121.338538">
        <ele>256.0</ele>
      </trkpt>
      <trkpt lat="24.918948" lon="121.338869">
        <ele>254.0</ele>
      </trkpt>
      <trkpt lat="24.918988" lon="121.338979">
        <ele>255.0</ele>
      </trkpt>
      <trkpt lat="24.919105" lon="121.33914">
        <ele>256.0</ele>
      </trkpt>
      <trkpt lat="24.919197" lon="121.339215">
        <ele>255.0</ele>
      </trkpt>
      <trkpt lat="24.919236" lon="121.339283">
        <ele>252.0</ele>
      </trkpt>
      <trkpt lat="24.919386" lon="121.33935">
        <ele>247.0</ele>
      </trkpt>
      <trkpt lat="24.919489" lon="121.339365">
        <ele>244.0</ele>
      </trkpt>
      <trkpt lat="24.919633" lon="121.339419">
        <ele>239.0</ele>
      </trkpt>
      <trkpt lat="24.919731" lon="121.339553">
        <ele>235.0</ele>
      </trkpt>
      <trkpt lat="24.919917" lon="121.339617">
        <ele>230.0</ele>
      </trkpt>
      <trkpt lat="24.919971" lon="121.339601">
        <ele>229.0</ele>
      </trkpt>
      <trkpt lat="24.920039" lon="121.339641">
        <ele>228.0</ele>
      </trkpt>
      <trkpt lat="24.920231" lon="121.339569">
        <ele>230.0</ele>
      </trkpt>
      <trkpt lat="24.920297" lon="121.339567">
        <ele>231.0</ele>
      </trkpt>
      <trkpt lat="24.920499" lon="121.33958">
        <ele>232.0</ele>
      </trkpt>
      <trkpt lat="24.920622" lon="121.339694">
        <ele>234.0</ele>
      </trkpt>
      <trkpt lat="24.920622" lon="121.339694">
        <ele>234.0</ele>
      </trkpt>
      <trkpt lat="24.920667" lon="121.339735">
        <ele>235.0</ele>
      </trkpt>
      <trkpt lat="24.920898" lon="121.339836">
        <ele>240.0</ele>
      </trkpt>
      <trkpt lat="24.92108" lon="121.339944">
        <ele>247.0</ele>
      </trkpt>
      <trkpt lat="24.921257" lon="121.339881">
        <ele>251.0</ele>
      </trkpt>
      <trkpt lat="24.921337" lon="121.339805">
        <ele>253.0</ele>
      </trkpt>
      <trkpt lat="24.921314" lon="121.339512">
        <ele>250.0</ele>
      </trkpt>
      <trkpt lat="24.921371" lon="121.339475">
        <ele>252.0</ele>
      </trkpt>
      <trkpt lat="24.921449" lon="121.33948">
        <ele>255.0</ele>
      </trkpt>
      <trkpt lat="24.921471" lon="121.339527">
        <ele>256.0</ele>
      </trkpt>
      <trkpt lat="24.921455" lon="121.339633">
        <ele>256.0</ele>
      </trkpt>
      <trkpt lat="24.921537" lon="121.339746">
        <ele>259.0</ele>
      </trkpt>
      <trkpt lat="24.921688" lon="121.339758">
        <ele>264.0</ele>
      </trkpt>
      <trkpt lat="24.921834" lon="121.339703">
        <ele>267.0</ele>
      </trkpt>
      <trkpt lat="24.921931" lon="121.339644">
        <ele>269.0</ele>
      </trkpt>
      <trkpt lat="24.922082" lon="121.339612">
        <ele>272.0</ele>
      </trkpt>
      <trkpt lat="24.922238" lon="121.339622">
        <ele>276.0</ele>
      </trkpt>
      <trkpt lat="24.922325" lon="121.339585">
        <ele>278.0</ele>
      </trkpt>
      <trkpt lat="24.922495" lon="121.339641">
        <ele>282.0</ele>
      </trkpt>
      <trkpt lat="24.922583" lon="121.3398">
        <ele>282.0</ele>
      </trkpt>
      <trkpt lat="24.922678" lon="121.340037">
        <ele>282.0</ele>
      </trkpt>
      <trkpt lat="24.922804" lon="121.340175">
        <ele>278.0</ele>
      </trkpt>
      <trkpt lat="24.922864" lon="121.340547">
        <ele>275.0</ele>
      </trkpt>
      <trkpt lat="24.922946" lon="121.340776">
        <ele>274.0</ele>
      </trkpt>
      <trkpt lat="24.922974" lon="121.34082">
        <ele>274.0</ele>
      </trkpt>
      <trkpt lat="24.923115" lon="121.341043">
        <ele>273.0</ele>
      </trkpt>
      <trkpt lat="24.923226" lon="121.341219">
        <ele>274.0</ele>
      </trkpt>
      <trkpt lat="24.923271" lon="121.341443">
        <ele>275.0</ele>
      </trkpt>
      <trkpt lat="24.92328" lon="121.341487">
        <ele>275.0</ele>
      </trkpt>
      <trkpt lat="24.923606" lon="121.341927">
        <ele>267.0</ele>
      </trkpt>
      <trkpt lat="24.92402" lon="121.34212">
        <ele>265.0</ele>
      </trkpt>
      <trkpt lat="24.924267" lon="121.34263">
        <ele>273.0</ele>
      </trkpt>
      <trkpt lat="24.924652" lon="121.343228">
        <ele>280.0</ele>
      </trkpt>
      <trkpt lat="24.924918" lon="121.343356">
        <ele>290.0</ele>
      </trkpt>
      <trkpt lat="24.924918" lon="121.343506">
        <ele>290.0</ele>
      </trkpt>
      <trkpt lat="24.924977" lon="121.34378">
        <ele>293.0</ele>
      </trkpt>
      <trkpt lat="24.924977" lon="121.344">
        <ele>294.0</ele>
      </trkpt>
      <trkpt lat="24.924935" lon="121.344027">
        <ele>292.0</ele>
      </trkpt>
      <trkpt lat="24.924935" lon="121.344027">
        <ele>292.0</ele>
      </trkpt>
      <trkpt lat="24.924977" lon="121.344">
        <ele>294.0</ele>
      </trkpt>
      <trkpt lat="24.925176" lon="121.344145">
        <ele>292.0</ele>
      </trkpt>
      <trkpt lat="24.925196" lon="121.344188">
        <ele>291.0</ele>
      </trkpt>
      <trkpt lat="24.925381" lon="121.344311">
        <ele>288.0</ele>
      </trkpt>
      <trkpt lat="24.92541" lon="121.344391">
        <ele>287.0</ele>
      </trkpt>
      <trkpt lat="24.925419" lon="121.344477">
        <ele>287.0</ele>
      </trkpt>
      <trkpt lat="24.925478" lon="121.344547">
        <ele>287.0</ele>
      </trkpt>
      <trkpt lat="24.925527" lon="121.344536">
        <ele>287.0</ele>
      </trkpt>
      <trkpt lat="24.925823" lon="121.344665">
        <ele>289.0</ele>
      </trkpt>
      <trkpt lat="24.925877" lon="121.344724">
        <ele>290.0</ele>
      </trkpt>
      <trkpt lat="24.925945" lon="121.344751">
        <ele>290.0</ele>
      </trkpt>
      <trkpt lat="24.926067" lon="121.344746">
        <ele>290.0</ele>
      </trkpt>
      <trkpt lat="24.926271" lon="121.344799">
        <ele>291.0</ele>
      </trkpt>
      <trkpt lat="24.926392" lon="121.344788">
        <ele>291.0</ele>
      </trkpt>
      <trkpt lat="24.926485" lon="121.344837">
        <ele>293.0</ele>
      </trkpt>
      <trkpt lat="24.926525" lon="121.345003">
        <ele>299.0</ele>
      </trkpt>
      <trkpt lat="24.92654" lon="121.345059">
        <ele>299.0</ele>
      </trkpt>
      <trkpt lat="24.926617" lon="121.345115">
        <ele>299.0</ele>
      </trkpt>
      <trkpt lat="24.926654" lon="121.345249">
        <ele>299.0</ele>
      </trkpt>
      <trkpt lat="24.926689" lon="121.345578">
        <ele>296.0</ele>
      </trkpt>
      <trkpt lat="24.926731" lon="121.345791">
        <ele>294.0</ele>
      </trkpt>
      <trkpt lat="24.926814" lon="121.345914">
        <ele>288.0</ele>
      </trkpt>
      <trkpt lat="24.927152" lon="121.346258">
        <ele>275.0</ele>
      </trkpt>
      <trkpt lat="24.927197" lon="121.346322">
        <ele>274.0</ele>
      </trkpt>
      <trkpt lat="24.9271972" lon="121.3463217">
        <ele>274.0</ele>
      </trkpt>
      <trkpt lat="24.927497" lon="121.346744">
        <ele>280.0</ele>
      </trkpt>
      <trkpt lat="24.927571" lon="121.346928">
        <ele>279.0</ele>
      </trkpt>
      <trkpt lat="24.927762" lon="121.347233">
        <ele>277.0</ele>
      </trkpt>
      <trkpt lat="24.927931" lon="121.347417">
        <ele>277.0</ele>
      </trkpt>
      <trkpt lat="24.927984" lon="121.34762">
        <ele>277.0</ele>
      </trkpt>
      <trkpt lat="24.927997" lon="121.347938">
        <ele>274.0</ele>
      </trkpt>
      <trkpt lat="24.927883" lon="121.348078">
        <ele>275.0</ele>
      </trkpt>
      <trkpt lat="24.927802" lon="121.348209">
        <ele>275.0</ele>
      </trkpt>
      <trkpt lat="24.927736" lon="121.348426">
        <ele>273.0</ele>
      </trkpt>
      <trkpt lat="24.92733" lon="121.348882">
        <ele>271.0</ele>
      </trkpt>
      <trkpt lat="24.927363" lon="121.349349">
        <ele>271.0</ele>
      </trkpt>
      <trkpt lat="24.927363" lon="121.349349">
        <ele>271.0</ele>
      </trkpt>
      <trkpt lat="24.927405" lon="121.349491">
        <ele>272.0</ele>
      </trkpt>
      <trkpt lat="24.927405" lon="121.349491">
        <ele>272.0</ele>
      </trkpt>
      <trkpt lat="24.927464" lon="121.349692">
        <ele>274.0</ele>
      </trkpt>
      <trkpt lat="24.9276196" lon="121.3499547">
        <ele>274.0</ele>
      </trkpt>
      <trkpt lat="24.92762" lon="121.349955">
        <ele>274.0</ele>
      </trkpt>
      <trkpt lat="24.927791" lon="121.350244">
        <ele>272.0</ele>
      </trkpt>
      <trkpt lat="24.927935" lon="121.350365">
        <ele>271.0</ele>
      </trkpt>
      <trkpt lat="24.927975" lon="121.350397">
        <ele>272.0</ele>
      </trkpt>
      <trkpt lat="24.928088" lon="121.350418">
        <ele>272.0</ele>
      </trkpt>
      <trkpt lat="24.928203" lon="121.350469">
        <ele>273.0</ele>
      </trkpt>
      <trkpt lat="24.92837" lon="121.350411">
        <ele>273.0</ele>
      </trkpt>
      <trkpt lat="24.9288512" lon="121.3507346">
        <ele>272.0</ele>
      </trkpt>
      <trkpt lat="24.928998" lon="121.350895">
        <ele>272.0</ele>
      </trkpt>
      <trkpt lat="24.929132" lon="121.350999">
        <ele>271.0</ele>
      </trkpt>
      <trkpt lat="24.9291523" lon="121.3510551">
        <ele>271.0</ele>
      </trkpt>
      <trkpt lat="24.929182" lon="121.351137">
        <ele>270.0</ele>
      </trkpt>
      <trkpt lat="24.929228" lon="121.35145">
        <ele>268.0</ele>
      </trkpt>
      <trkpt lat="24.929239" lon="121.351529">
        <ele>268.0</ele>
      </trkpt>
      <trkpt lat="24.92929" lon="121.351609">
        <ele>267.0</ele>
      </trkpt>
      <trkpt lat="24.929422" lon="121.351699">
        <ele>266.0</ele>
      </trkpt>
      <trkpt lat="24.929643" lon="121.351721">
        <ele>264.0</ele>
      </trkpt>
      <trkpt lat="24.929733" lon="121.351774">
        <ele>263.0</ele>
      </trkpt>
      <trkpt lat="24.929874" lon="121.35197">
        <ele>265.0</ele>
      </trkpt>
      <trkpt lat="24.930131" lon="121.352476">
        <ele>268.0</ele>
      </trkpt>
      <trkpt lat="24.930435" lon="121.352804">
        <ele>259.0</ele>
      </trkpt>
      <trkpt lat="24.930516" lon="121.352985">
        <ele>260.0</ele>
      </trkpt>
      <trkpt lat="24.930713" lon="121.353242">
        <ele>265.0</ele>
      </trkpt>
      <trkpt lat="24.930901" lon="121.353333">
        <ele>264.0</ele>
      </trkpt>
      <trkpt lat="24.930978" lon="121.353448">
        <ele>258.0</ele>
      </trkpt>
      <trkpt lat="24.931026" lon="121.353563">
        <ele>254.0</ele>
      </trkpt>
      <trkpt lat="24.931206" lon="121.35365">
        <ele>242.0</ele>
      </trkpt>
      <trkpt lat="24.931169" lon="121.353697">
        <ele>244.0</ele>
      </trkpt>
      <trkpt lat="24.931038" lon="121.353661">
        <ele>252.0</ele>
      </trkpt>
      <trkpt lat="24.931011" lon="121.35371">
        <ele>253.0</ele>
      </trkpt>
      <trkpt lat="24.931047" lon="121.353743">
        <ele>251.0</ele>
      </trkpt>
      <trkpt lat="24.931076" lon="121.353938">
        <ele>248.0</ele>
      </trkpt>
      <trkpt lat="24.930971" lon="121.35431">
        <ele>248.0</ele>
      </trkpt>
      <trkpt lat="24.931016" lon="121.354475">
        <ele>243.0</ele>
      </trkpt>
      <trkpt lat="24.931031" lon="121.35461">
        <ele>241.0</ele>
      </trkpt>
      <trkpt lat="24.931096" lon="121.354707">
        <ele>237.0</ele>
      </trkpt>
      <trkpt lat="24.931096" lon="121.354707">
        <ele>237.0</ele>
      </trkpt>
      <trkpt lat="24.931116" lon="121.354736">
        <ele>237.0</ele>
      </trkpt>
      <trkpt lat="24.931181" lon="121.354863">
        <ele>234.0</ele>
      </trkpt>
      <trkpt lat="24.931175" lon="121.355139">
        <ele>232.0</ele>
      </trkpt>
      <trkpt lat="24.931192" lon="121.35542">
        <ele>232.0</ele>
      </trkpt>
      <trkpt lat="24.931217" lon="121.355465">
        <ele>231.0</ele>
      </trkpt>
      <trkpt lat="24.931279" lon="121.355489">
        <ele>232.0</ele>
      </trkpt>
      <trkpt lat="24.931341" lon="121.355481">
        <ele>232.0</ele>
      </trkpt>
      <trkpt lat="24.93138" lon="121.355445">
        <ele>231.0</ele>
      </trkpt>
      <trkpt lat="24.931392" lon="121.355316">
        <ele>231.0</ele>
      </trkpt>
      <trkpt lat="24.93145" lon="121.355435">
        <ele>231.0</ele>
      </trkpt>
      <trkpt lat="24.931488" lon="121.355593">
        <ele>232.0</ele>
      </trkpt>
      <trkpt lat="24.93149" lon="121.355762">
        <ele>234.0</ele>
      </trkpt>
      <trkpt lat="24.931573" lon="121.356021">
        <ele>234.0</ele>
      </trkpt>
      <trkpt lat="24.931584" lon="121.356366">
        <ele>232.0</ele>
      </trkpt>
      <trkpt lat="24.931654" lon="121.356449">
        <ele>233.0</ele>
      </trkpt>
      <trkpt lat="24.931731" lon="121.356731">
        <ele>230.0</ele>
      </trkpt>
      <trkpt lat="24.931865" lon="121.35704">
        <ele>222.0</ele>
      </trkpt>
      <trkpt lat="24.931735" lon="121.357368">
        <ele>219.0</ele>
      </trkpt>
      <trkpt lat="24.931765" lon="121.357516">
        <ele>217.0</ele>
      </trkpt>
      <trkpt lat="24.931876" lon="121.357512">
        <ele>217.0</ele>
      </trkpt>
      <trkpt lat="24.931928" lon="121.357578">
        <ele>215.0</ele>
      </trkpt>
      <trkpt lat="24.932079" lon="121.358055">
        <ele>200.0</ele>
      </trkpt>
      <trkpt lat="24.93217" lon="121.358265">
        <ele>195.0</ele>
      </trkpt>
      <trkpt lat="24.932249" lon="121.358399">
        <ele>193.0</ele>
      </trkpt>
      <trkpt lat="24.932418" lon="121.35863">
        <ele>195.0</ele>
      </trkpt>
      <trkpt lat="24.932522" lon="121.358774">
        <ele>196.0</ele>
      </trkpt>
      <trkpt lat="24.932498" lon="121.359142">
        <ele>197.0</ele>
      </trkpt>
      <trkpt lat="24.932545" lon="121.359313">
        <ele>197.0</ele>
      </trkpt>
      <trkpt lat="24.932626" lon="121.359489">
        <ele>196.0</ele>
      </trkpt>
      <trkpt lat="24.932751" lon="121.359645">
        <ele>195.0</ele>
      </trkpt>
      <trkpt lat="24.932878" lon="121.359688">
        <ele>193.0</ele>
      </trkpt>
      <trkpt lat="24.933052" lon="121.359667">
        <ele>189.0</ele>
      </trkpt>
      <trkpt lat="24.933185" lon="121.359724">
        <ele>188.0</ele>
      </trkpt>
      <trkpt lat="24.933412" lon="121.359875">
        <ele>187.0</ele>
      </trkpt>
      <trkpt lat="24.933577" lon="121.359965">
        <ele>183.0</ele>
      </trkpt>
      <trkpt lat="24.933682" lon="121.360067">
        <ele>180.0</ele>
      </trkpt>
      <trkpt lat="24.933706" lon="121.360184">
        <ele>179.0</ele>
      </trkpt>
      <trkpt lat="24.933786" lon="121.36027">
        <ele>176.0</ele>
      </trkpt>
      <trkpt lat="24.93389" lon="121.360344">
        <ele>172.0</ele>
      </trkpt>
      <trkpt lat="24.933937" lon="121.360484">
        <ele>172.0</ele>
      </trkpt>
      <trkpt lat="24.933986" lon="121.36057">
        <ele>171.0</ele>
      </trkpt>
      <trkpt lat="24.933798" lon="121.360976">
        <ele>174.0</ele>
      </trkpt>
      <trkpt lat="24.933723" lon="121.361233">
        <ele>170.0</ele>
      </trkpt>
      <trkpt lat="24.933651" lon="121.361339">
        <ele>169.0</ele>
      </trkpt>
      <trkpt lat="24.933665" lon="121.361456">
        <ele>166.0</ele>
      </trkpt>
      <trkpt lat="24.933471" lon="121.361557">
        <ele>166.0</ele>
      </trkpt>
      <trkpt lat="24.933455" lon="121.361666">
        <ele>164.0</ele>
      </trkpt>
      <trkpt lat="24.933287" lon="121.361887">
        <ele>162.0</ele>
      </trkpt>
      <trkpt lat="24.933205" lon="121.362078">
        <ele>159.0</ele>
      </trkpt>
      <trkpt lat="24.933117" lon="121.362218">
        <ele>157.0</ele>
      </trkpt>
      <trkpt lat="24.933029" lon="121.362455">
        <ele>153.0</ele>
      </trkpt>
      <trkpt lat="24.93304" lon="121.362733">
        <ele>151.0</ele>
      </trkpt>
      <trkpt lat="24.933252" lon="121.363093">
        <ele>149.0</ele>
      </trkpt>
      <trkpt lat="24.93333" lon="121.363175">
        <ele>149.0</ele>
      </trkpt>
      <trkpt lat="24.933432" lon="121.363211">
        <ele>146.0</ele>
      </trkpt>
      <trkpt lat="24.933579" lon="121.36319">
        <ele>142.0</ele>
      </trkpt>
      <trkpt lat="24.934056" lon="121.363445">
        <ele>127.0</ele>
      </trkpt>
      <trkpt lat="24.934189" lon="121.363576">
        <ele>123.0</ele>
      </trkpt>
      <trkpt lat="24.934213" lon="121.363732">
        <ele>120.0</ele>
      </trkpt>
      <trkpt lat="24.934275" lon="121.363896">
        <ele>115.0</ele>
      </trkpt>
      <trkpt lat="24.934271" lon="121.364034">
        <ele>114.0</ele>
      </trkpt>
      <trkpt lat="24.934324" lon="121.364181">
        <ele>110.0</ele>
      </trkpt>
      <trkpt lat="24.934277" lon="121.364341">
        <ele>108.0</ele>
      </trkpt>
      <trkpt lat="24.934248" lon="121.364514">
        <ele>105.0</ele>
      </trkpt>
      <trkpt lat="24.934242" lon="121.364654">
        <ele>102.0</ele>
      </trkpt>
      <trkpt lat="24.934306" lon="121.364769">
        <ele>97.0</ele>
      </trkpt>
      <trkpt lat="24.934373" lon="121.364821">
        <ele>94.0</ele>
      </trkpt>
      <trkpt lat="24.934379" lon="121.364963">
        <ele>91.0</ele>
      </trkpt>
      <trkpt lat="24.934576" lon="121.365347">
        <ele>77.0</ele>
      </trkpt>
      <trkpt lat="24.934647" lon="121.365457">
        <ele>74.0</ele>
      </trkpt>
      <trkpt lat="24.934647" lon="121.365595">
        <ele>72.0</ele>
      </trkpt>
      <trkpt lat="24.934604" lon="121.365795">
        <ele>69.0</ele>
      </trkpt>
      <trkpt lat="24.934608" lon="121.36591">
        <ele>66.0</ele>
      </trkpt>
      <trkpt lat="24.934674" lon="121.365971">
        <ele>65.0</ele>
      </trkpt>
      <trkpt lat="24.934759" lon="121.36598">
        <ele>64.0</ele>
      </trkpt>
      <trkpt lat="24.934823" lon="121.365868">
        <ele>65.0</ele>
      </trkpt>
      <trkpt lat="24.934925" lon="121.36587">
        <ele>64.0</ele>
      </trkpt>
      <trkpt lat="24.934978" lon="121.366053">
        <ele>61.0</ele>
      </trkpt>
      <trkpt lat="24.935019" lon="121.366294">
        <ele>57.0</ele>
      </trkpt>
      <trkpt lat="24.935019" lon="121.366294">
        <ele>57.0</ele>
      </trkpt>
      <trkpt lat="24.935154" lon="121.366235">
        <ele>57.0</ele>
      </trkpt>
      <trkpt lat="24.935273" lon="121.366132">
        <ele>57.0</ele>
      </trkpt>
      <trkpt lat="24.935428" lon="121.36603">
        <ele>57.0</ele>
      </trkpt>
      <trkpt lat="24.93553" lon="121.366058">
        <ele>56.0</ele>
      </trkpt>
      <trkpt lat="24.935627" lon="121.366055">
        <ele>55.0</ele>
      </trkpt>
      <trkpt lat="24.935205" lon="121.366787">
        <ele>51.0</ele>
      </trkpt>
      <trkpt lat="24.935205" lon="121.366787">
        <ele>51.0</ele>
      </trkpt>
      <trkpt lat="24.934833" lon="121.367393">
        <ele>49.0</ele>
      </trkpt>
      <trkpt lat="24.934623" lon="121.367822">
        <ele>47.0</ele>
      </trkpt>
      <trkpt lat="24.934531" lon="121.368078">
        <ele>47.0</ele>
      </trkpt>
      <trkpt lat="24.934479" lon="121.36841">
        <ele>46.0</ele>
      </trkpt>
      <trkpt lat="24.933102" lon="121.368451">
        <ele>47.0</ele>
      </trkpt>
      <trkpt lat="24.932988" lon="121.368552">
        <ele>46.0</ele>
      </trkpt>
      <trkpt lat="24.932756" lon="121.368614">
        <ele>47.0</ele>
      </trkpt>
      <trkpt lat="24.932476" lon="121.368715">
        <ele>47.0</ele>
      </trkpt>
      <trkpt lat="24.932196" lon="121.368638">
        <ele>48.0</ele>
      </trkpt>
      <trkpt lat="24.932148" lon="121.36866">
        <ele>48.0</ele>
      </trkpt>
      <trkpt lat="24.9321141" lon="121.3687144">
        <ele>47.0</ele>
      </trkpt>
      <trkpt lat="24.9320423" lon="121.3688421">
        <ele>46.0</ele>
      </trkpt>
      <trkpt lat="24.932319" lon="121.3689855">
        <ele>44.0</ele>
      </trkpt>
      <trkpt lat="24.932545" lon="121.369111">
        <ele>43.0</ele>
      </trkpt>
      <trkpt lat="24.932818" lon="121.3693">
        <ele>42.0</ele>
      </trkpt>
      <trkpt lat="24.932818" lon="121.3693">
        <ele>42.0</ele>
      </trkpt>
      <trkpt lat="24.933272" lon="121.36962">
        <ele>40.0</ele>
      </trkpt>
      <trkpt lat="24.933177" lon="121.369866">
        <ele>40.0</ele>
      </trkpt>
      <trkpt lat="24.933368" lon="121.370152">
        <ele>39.0</ele>
      </trkpt>
      <trkpt lat="24.933477" lon="121.370422">
        <ele>38.0</ele>
      </trkpt>
      <trkpt lat="24.933364" lon="121.370467">
        <ele>37.0</ele>
      </trkpt>
      <trkpt lat="24.933426" lon="121.370571">
        <ele>37.0</ele>
      </trkpt>
      <trkpt lat="24.933424" lon="121.370602">
        <ele>37.0</ele>
      </trkpt>
      <trkpt lat="24.933508" lon="121.370738">
        <ele>37.0</ele>
      </trkpt>
      <trkpt lat="24.933564" lon="121.370795">
        <ele>37.0</ele>
      </trkpt>
      <trkpt lat="24.933603" lon="121.370868">
        <ele>38.0</ele>
      </trkpt>
      <trkpt lat="24.933638" lon="121.370845">
        <ele>38.0</ele>
      </trkpt>
      <trkpt lat="24.934285" lon="121.372296">
        <ele>39.0</ele>
      </trkpt>
      <trkpt lat="24.934871" lon="121.373432">
        <ele>41.0</ele>
      </trkpt>
      <trkpt lat="24.934929" lon="121.373575">
        <ele>41.0</ele>
      </trkpt>
      <trkpt lat="24.934929" lon="121.373575">
        <ele>41.0</ele>
      </trkpt>
      <trkpt lat="24.934988" lon="121.373608">
        <ele>41.0</ele>
      </trkpt>
      <trkpt lat="24.935262" lon="121.373471">
        <ele>42.0</ele>
      </trkpt>
      <trkpt lat="24.935736" lon="121.3743124">
        <ele>41.0</ele>
      </trkpt>
      <trkpt lat="24.9357806" lon="121.3743943">
        <ele>41.0</ele>
      </trkpt>
      <trkpt lat="24.9360968" lon="121.3741153">
        <ele>44.0</ele>
      </trkpt>
      <trkpt lat="24.9362558" lon="121.3739367">
        <ele>45.0</ele>
      </trkpt>
      <trkpt lat="24.93634" lon="121.3738364">
        <ele>46.0</ele>
      </trkpt>
    </trkseg>
  </trk>
</gpx>
