<?xml version="1.0" encoding="UTF-8"?>
<gpx xmlns="http://www.topografix.com/GPX/1/1" xmlns:xsi="http://www.w3.org/2001/XMLSchema-instance" xsi:schemaLocation="http://www.topografix.com/GPX/1/1 http://www.topografix.com/GPX/1/1/gpx.xsd" version="1.1" creator="Martin Schneider">
  <wpt lat="24.902634" lon="121.501165">
    <ele>654.0</ele>
    <name>Start</name>
  </wpt>
  <wpt lat="24.902634" lon="121.501165">
    <ele>654.0</ele>
    <name>End</name>
  </wpt>
  <wpt lat="24.9038768" lon="121.4956576">
    <name>1</name>
    <desc>Guanshiping</desc>
  </wpt>
  <wpt lat="24.9032951" lon="121.493407">
    <name>2</name>
    <desc>Summit Shizitoushan Front Peak</desc>
  </wpt>
  <wpt lat="24.903582" lon="121.492516">
    <name>3</name>
    <desc>Fork (turn right)</desc>
  </wpt>
  <wpt lat="24.9036548" lon="121.4908027">
    <name>4</name>
    <desc>Ailiao Ruins</desc>
  </wpt>
  <wpt lat="24.9049387" lon="121.490246">
    <name>5</name>
    <desc>Small Earthen Cave</desc>
  </wpt>
  <wpt lat="24.9048611" lon="121.4900644">
    <name>6</name>
    <desc>Guanyin Cave</desc>
  </wpt>
  <wpt lat="24.9058086" lon="121.4906409">
    <name>7</name>
    <desc>Big Earthen Cave</desc>
  </wpt>
  <wpt lat="24.9090071" lon="121.4900869">
    <name>8</name>
    <desc>Trailhead (exit)</desc>
  </wpt>
  <wpt lat="24.9080854" lon="121.4911163">
    <name>9</name>
    <desc>Trailhead (enter)</desc>
  </wpt>
  <wpt lat="24.904697" lon="121.491127">
    <ele>830.0</ele>
    <name>Summit Shizitoushan</name>
  </wpt>
  <trk>
    <name>020_Shizitoushan</name>
    <trkseg>
      <trkpt lat="24.902634" lon="121.501165">
        <ele>654.0</ele>
      </trkpt>
      <trkpt lat="24.902634" lon="121.501165">
        <ele>654.0</ele>
      </trkpt>
      <trkpt lat="24.902657" lon="121.501076">
        <ele>655.0</ele>
      </trkpt>
      <trkpt lat="24.902702" lon="121.50108">
        <ele>654.0</ele>
      </trkpt>
      <trkpt lat="24.902756" lon="121.501075">
        <ele>654.0</ele>
      </trkpt>
      <trkpt lat="24.902913" lon="121.500865">
        <ele>656.0</ele>
      </trkpt>
      <trkpt lat="24.903098" lon="121.500811">
        <ele>657.0</ele>
      </trkpt>
      <trkpt lat="24.903257" lon="121.500797">
        <ele>657.0</ele>
      </trkpt>
      <trkpt lat="24.903366" lon="121.500724">
        <ele>657.0</ele>
      </trkpt>
      <trkpt lat="24.903583" lon="121.50049">
        <ele>658.0</ele>
      </trkpt>
      <trkpt lat="24.903716" lon="121.500387">
        <ele>659.0</ele>
      </trkpt>
      <trkpt lat="24.903798" lon="121.500346">
        <ele>660.0</ele>
      </trkpt>
      <trkpt lat="24.903894" lon="121.500228">
        <ele>663.0</ele>
      </trkpt>
      <trkpt lat="24.90397" lon="121.500071">
        <ele>669.0</ele>
      </trkpt>
      <trkpt lat="24.904157" lon="121.499826">
        <ele>676.0</ele>
      </trkpt>
      <trkpt lat="24.904331" lon="121.499548">
        <ele>680.0</ele>
      </trkpt>
      <trkpt lat="24.904558" lon="121.499262">
        <ele>683.0</ele>
      </trkpt>
      <trkpt lat="24.904617" lon="121.499125">
        <ele>685.0</ele>
      </trkpt>
      <trkpt lat="24.904638" lon="121.498887">
        <ele>691.0</ele>
      </trkpt>
      <trkpt lat="24.904838" lon="121.49842">
        <ele>704.0</ele>
      </trkpt>
      <trkpt lat="24.904844" lon="121.498259">
        <ele>708.0</ele>
      </trkpt>
      <trkpt lat="24.904906" lon="121.498029">
        <ele>710.0</ele>
      </trkpt>
      <trkpt lat="24.904874" lon="121.497786">
        <ele>713.0</ele>
      </trkpt>
      <trkpt lat="24.904874" lon="121.497786">
        <ele>713.0</ele>
      </trkpt>
      <trkpt lat="24.904862" lon="121.497696">
        <ele>714.0</ele>
      </trkpt>
      <trkpt lat="24.904697" lon="121.497444">
        <ele>719.0</ele>
      </trkpt>
      <trkpt lat="24.904528" lon="121.497261">
        <ele>724.0</ele>
      </trkpt>
      <trkpt lat="24.904434" lon="121.496951">
        <ele>731.0</ele>
      </trkpt>
      <trkpt lat="24.904416" lon="121.496687">
        <ele>736.0</ele>
      </trkpt>
      <trkpt lat="24.904322" lon="121.496468">
        <ele>742.0</ele>
      </trkpt>
      <trkpt lat="24.904171" lon="121.49643">
        <ele>751.0</ele>
      </trkpt>
      <trkpt lat="24.90404" lon="121.496307">
        <ele>749.0</ele>
      </trkpt>
      <trkpt lat="24.903913" lon="121.496124">
        <ele>749.0</ele>
      </trkpt>
      <trkpt lat="24.903902" lon="121.496047">
        <ele>750.0</ele>
      </trkpt>
      <trkpt lat="24.903902" lon="121.496047">
        <ele>750.0</ele>
      </trkpt>
      <trkpt lat="24.903845" lon="121.495583">
        <ele>757.0</ele>
      </trkpt>
      <trkpt lat="24.903829" lon="121.495536">
        <ele>757.0</ele>
      </trkpt>
      <trkpt lat="24.903782" lon="121.495402">
        <ele>760.0</ele>
      </trkpt>
      <trkpt lat="24.903705" lon="121.495261">
        <ele>764.0</ele>
      </trkpt>
      <trkpt lat="24.903719" lon="121.495203">
        <ele>765.0</ele>
      </trkpt>
      <trkpt lat="24.903711" lon="121.49513">
        <ele>767.0</ele>
      </trkpt>
      <trkpt lat="24.903702" lon="121.49508">
        <ele>768.0</ele>
      </trkpt>
      <trkpt lat="24.903669" lon="121.495046">
        <ele>770.0</ele>
      </trkpt>
      <trkpt lat="24.903664" lon="121.495">
        <ele>771.0</ele>
      </trkpt>
      <trkpt lat="24.903614" lon="121.494898">
        <ele>778.0</ele>
      </trkpt>
      <trkpt lat="24.903599" lon="121.494738">
        <ele>788.0</ele>
      </trkpt>
      <trkpt lat="24.903516" lon="121.494556">
        <ele>802.0</ele>
      </trkpt>
      <trkpt lat="24.903529" lon="121.494429">
        <ele>808.0</ele>
      </trkpt>
      <trkpt lat="24.903528" lon="121.494178">
        <ele>823.0</ele>
      </trkpt>
      <trkpt lat="24.903504" lon="121.494072">
        <ele>826.0</ele>
      </trkpt>
      <trkpt lat="24.903417" lon="121.493933">
        <ele>834.0</ele>
      </trkpt>
      <trkpt lat="24.903374" lon="121.493818">
        <ele>838.0</ele>
      </trkpt>
      <trkpt lat="24.903377" lon="121.493714">
        <ele>839.0</ele>
      </trkpt>
      <trkpt lat="24.90335" lon="121.493632">
        <ele>841.0</ele>
      </trkpt>
      <trkpt lat="24.90335" lon="121.49357">
        <ele>842.0</ele>
      </trkpt>
      <trkpt lat="24.90335" lon="121.49357">
        <ele>842.0</ele>
      </trkpt>
      <trkpt lat="24.903372" lon="121.493384">
        <ele>843.0</ele>
      </trkpt>
      <trkpt lat="24.903476" lon="121.49313">
        <ele>839.0</ele>
      </trkpt>
      <trkpt lat="24.903544" lon="121.492835">
        <ele>839.0</ele>
      </trkpt>
      <trkpt lat="24.903632" lon="121.492764">
        <ele>837.0</ele>
      </trkpt>
      <trkpt lat="24.90357" lon="121.49263">
        <ele>839.0</ele>
      </trkpt>
      <trkpt lat="24.903562" lon="121.492522">
        <ele>840.0</ele>
      </trkpt>
      <trkpt lat="24.903551" lon="121.492511">
        <ele>840.0</ele>
      </trkpt>
      <trkpt lat="24.903551" lon="121.492511">
        <ele>840.0</ele>
      </trkpt>
      <trkpt lat="24.903562" lon="121.492522">
        <ele>840.0</ele>
      </trkpt>
      <trkpt lat="24.903734" lon="121.492256">
        <ele>840.0</ele>
      </trkpt>
      <trkpt lat="24.90404" lon="121.49206">
        <ele>841.0</ele>
      </trkpt>
      <trkpt lat="24.904127" lon="121.491982">
        <ele>842.0</ele>
      </trkpt>
      <trkpt lat="24.904156" lon="121.491883">
        <ele>845.0</ele>
      </trkpt>
      <trkpt lat="24.904242" lon="121.491762">
        <ele>845.0</ele>
      </trkpt>
      <trkpt lat="24.904301" lon="121.49171">
        <ele>844.0</ele>
      </trkpt>
      <trkpt lat="24.904349" lon="121.491702">
        <ele>842.0</ele>
      </trkpt>
      <trkpt lat="24.904476" lon="121.491596">
        <ele>838.0</ele>
      </trkpt>
      <trkpt lat="24.90451" lon="121.491577">
        <ele>836.0</ele>
      </trkpt>
      <trkpt lat="24.904538" lon="121.491482">
        <ele>835.0</ele>
      </trkpt>
      <trkpt lat="24.904517" lon="121.491433">
        <ele>836.0</ele>
      </trkpt>
      <trkpt lat="24.904537" lon="121.491353">
        <ele>835.0</ele>
      </trkpt>
      <trkpt lat="24.904632" lon="121.491279">
        <ele>832.0</ele>
      </trkpt>
      <trkpt lat="24.904627" lon="121.491211">
        <ele>832.0</ele>
      </trkpt>
      <trkpt lat="24.904697" lon="121.491127">
        <ele>830.0</ele>
      </trkpt>
      <trkpt lat="24.904693" lon="121.490926">
        <ele>831.0</ele>
      </trkpt>
      <trkpt lat="24.904693" lon="121.490926">
        <ele>831.0</ele>
      </trkpt>
      <trkpt lat="24.904689" lon="121.490663">
        <ele>824.0</ele>
      </trkpt>
      <trkpt lat="24.904623" lon="121.490456">
        <ele>817.0</ele>
      </trkpt>
      <trkpt lat="24.904581" lon="121.490161">
        <ele>805.0</ele>
      </trkpt>
      <trkpt lat="24.904537" lon="121.490195">
        <ele>807.0</ele>
      </trkpt>
      <trkpt lat="24.904478" lon="121.490213">
        <ele>808.0</ele>
      </trkpt>
      <trkpt lat="24.904438" lon="121.490252">
        <ele>811.0</ele>
      </trkpt>
      <trkpt lat="24.904285" lon="121.490487">
        <ele>824.0</ele>
      </trkpt>
      <trkpt lat="24.904246" lon="121.490519">
        <ele>826.0</ele>
      </trkpt>
      <trkpt lat="24.904137" lon="121.490417">
        <ele>822.0</ele>
      </trkpt>
      <trkpt lat="24.90404" lon="121.490426">
        <ele>821.0</ele>
      </trkpt>
      <trkpt lat="24.903964" lon="121.490359">
        <ele>816.0</ele>
      </trkpt>
      <trkpt lat="24.903913" lon="121.490354">
        <ele>815.0</ele>
      </trkpt>
      <trkpt lat="24.903777" lon="121.490303">
        <ele>810.0</ele>
      </trkpt>
      <trkpt lat="24.90368" lon="121.490332">
        <ele>809.0</ele>
      </trkpt>
      <trkpt lat="24.903641" lon="121.490366">
        <ele>810.0</ele>
      </trkpt>
      <trkpt lat="24.903616" lon="121.490417">
        <ele>812.0</ele>
      </trkpt>
      <trkpt lat="24.903625" lon="121.49071">
        <ele>826.0</ele>
      </trkpt>
      <trkpt lat="24.903588" lon="121.490769">
        <ele>828.0</ele>
      </trkpt>
      <trkpt lat="24.903532" lon="121.490768">
        <ele>826.0</ele>
      </trkpt>
      <trkpt lat="24.903532" lon="121.490936">
        <ele>831.0</ele>
      </trkpt>
      <trkpt lat="24.903532" lon="121.490936">
        <ele>831.0</ele>
      </trkpt>
      <trkpt lat="24.903532" lon="121.490768">
        <ele>826.0</ele>
      </trkpt>
      <trkpt lat="24.903588" lon="121.490769">
        <ele>828.0</ele>
      </trkpt>
      <trkpt lat="24.903625" lon="121.49071">
        <ele>826.0</ele>
      </trkpt>
      <trkpt lat="24.903616" lon="121.490417">
        <ele>812.0</ele>
      </trkpt>
      <trkpt lat="24.903641" lon="121.490366">
        <ele>810.0</ele>
      </trkpt>
      <trkpt lat="24.90368" lon="121.490332">
        <ele>809.0</ele>
      </trkpt>
      <trkpt lat="24.903777" lon="121.490303">
        <ele>810.0</ele>
      </trkpt>
      <trkpt lat="24.903913" lon="121.490354">
        <ele>815.0</ele>
      </trkpt>
      <trkpt lat="24.903964" lon="121.490359">
        <ele>816.0</ele>
      </trkpt>
      <trkpt lat="24.90404" lon="121.490426">
        <ele>821.0</ele>
      </trkpt>
      <trkpt lat="24.904137" lon="121.490417">
        <ele>822.0</ele>
      </trkpt>
      <trkpt lat="24.904246" lon="121.490519">
        <ele>826.0</ele>
      </trkpt>
      <trkpt lat="24.904285" lon="121.490487">
        <ele>824.0</ele>
      </trkpt>
      <trkpt lat="24.904438" lon="121.490252">
        <ele>811.0</ele>
      </trkpt>
      <trkpt lat="24.904478" lon="121.490213">
        <ele>808.0</ele>
      </trkpt>
      <trkpt lat="24.904537" lon="121.490195">
        <ele>807.0</ele>
      </trkpt>
      <trkpt lat="24.904581" lon="121.490161">
        <ele>805.0</ele>
      </trkpt>
      <trkpt lat="24.90471" lon="121.490186">
        <ele>804.0</ele>
      </trkpt>
      <trkpt lat="24.904889" lon="121.490372">
        <ele>809.0</ele>
      </trkpt>
      <trkpt lat="24.904849" lon="121.490249">
        <ele>804.0</ele>
      </trkpt>
      <trkpt lat="24.904951" lon="121.490307">
        <ele>805.0</ele>
      </trkpt>
      <trkpt lat="24.905" lon="121.490318">
        <ele>805.0</ele>
      </trkpt>
      <trkpt lat="24.905" lon="121.490318">
        <ele>805.0</ele>
      </trkpt>
      <trkpt lat="24.905078" lon="121.490336">
        <ele>803.0</ele>
      </trkpt>
      <trkpt lat="24.905075" lon="121.49018">
        <ele>797.0</ele>
      </trkpt>
      <trkpt lat="24.905041" lon="121.490059">
        <ele>793.0</ele>
      </trkpt>
      <trkpt lat="24.904966" lon="121.490018">
        <ele>793.0</ele>
      </trkpt>
      <trkpt lat="24.904863" lon="121.490046">
        <ele>796.0</ele>
      </trkpt>
      <trkpt lat="24.904863" lon="121.490046">
        <ele>796.0</ele>
      </trkpt>
      <trkpt lat="24.904966" lon="121.490018">
        <ele>793.0</ele>
      </trkpt>
      <trkpt lat="24.905041" lon="121.490059">
        <ele>793.0</ele>
      </trkpt>
      <trkpt lat="24.905075" lon="121.49018">
        <ele>797.0</ele>
      </trkpt>
      <trkpt lat="24.905078" lon="121.490336">
        <ele>803.0</ele>
      </trkpt>
      <trkpt lat="24.905179" lon="121.490361">
        <ele>800.0</ele>
      </trkpt>
      <trkpt lat="24.905265" lon="121.490321">
        <ele>796.0</ele>
      </trkpt>
      <trkpt lat="24.905349" lon="121.490312">
        <ele>793.0</ele>
      </trkpt>
      <trkpt lat="24.905648" lon="121.490358">
        <ele>784.0</ele>
      </trkpt>
      <trkpt lat="24.90571" lon="121.490407">
        <ele>783.0</ele>
      </trkpt>
      <trkpt lat="24.905777" lon="121.490379">
        <ele>780.0</ele>
      </trkpt>
      <trkpt lat="24.905827" lon="121.490407">
        <ele>779.0</ele>
      </trkpt>
      <trkpt lat="24.90583" lon="121.490478">
        <ele>780.0</ele>
      </trkpt>
      <trkpt lat="24.905939" lon="121.490605">
        <ele>779.0</ele>
      </trkpt>
      <trkpt lat="24.90584" lon="121.490602">
        <ele>783.0</ele>
      </trkpt>
      <trkpt lat="24.905822" lon="121.490612">
        <ele>783.0</ele>
      </trkpt>
      <trkpt lat="24.905822" lon="121.490612">
        <ele>783.0</ele>
      </trkpt>
      <trkpt lat="24.90584" lon="121.490602">
        <ele>783.0</ele>
      </trkpt>
      <trkpt lat="24.905939" lon="121.490605">
        <ele>779.0</ele>
      </trkpt>
      <trkpt lat="24.906092" lon="121.490606">
        <ele>774.0</ele>
      </trkpt>
      <trkpt lat="24.906326" lon="121.490486">
        <ele>765.0</ele>
      </trkpt>
      <trkpt lat="24.906452" lon="121.490459">
        <ele>760.0</ele>
      </trkpt>
      <trkpt lat="24.90655" lon="121.490472">
        <ele>758.0</ele>
      </trkpt>
      <trkpt lat="24.906647" lon="121.490416">
        <ele>754.0</ele>
      </trkpt>
      <trkpt lat="24.906781" lon="121.490454">
        <ele>751.0</ele>
      </trkpt>
      <trkpt lat="24.90688" lon="121.4904">
        <ele>749.0</ele>
      </trkpt>
      <trkpt lat="24.90695" lon="121.49039">
        <ele>747.0</ele>
      </trkpt>
      <trkpt lat="24.906969" lon="121.490353">
        <ele>747.0</ele>
      </trkpt>
      <trkpt lat="24.906933" lon="121.490323">
        <ele>747.0</ele>
      </trkpt>
      <trkpt lat="24.90695" lon="121.490275">
        <ele>747.0</ele>
      </trkpt>
      <trkpt lat="24.907007" lon="121.490268">
        <ele>746.0</ele>
      </trkpt>
      <trkpt lat="24.907157" lon="121.49018">
        <ele>744.0</ele>
      </trkpt>
      <trkpt lat="24.907157" lon="121.49018">
        <ele>744.0</ele>
      </trkpt>
      <trkpt lat="24.907206" lon="121.490151">
        <ele>744.0</ele>
      </trkpt>
      <trkpt lat="24.907306" lon="121.490125">
        <ele>742.0</ele>
      </trkpt>
      <trkpt lat="24.907469" lon="121.490029">
        <ele>742.0</ele>
      </trkpt>
      <trkpt lat="24.907554" lon="121.489985">
        <ele>740.0</ele>
      </trkpt>
      <trkpt lat="24.907625" lon="121.48992">
        <ele>738.0</ele>
      </trkpt>
      <trkpt lat="24.907625" lon="121.48992">
        <ele>738.0</ele>
      </trkpt>
      <trkpt lat="24.907905" lon="121.489665">
        <ele>730.0</ele>
      </trkpt>
      <trkpt lat="24.908097" lon="121.489544">
        <ele>727.0</ele>
      </trkpt>
      <trkpt lat="24.90827" lon="121.489528">
        <ele>725.0</ele>
      </trkpt>
      <trkpt lat="24.908557" lon="121.489395">
        <ele>712.0</ele>
      </trkpt>
      <trkpt lat="24.908805" lon="121.489442">
        <ele>700.0</ele>
      </trkpt>
      <trkpt lat="24.909005" lon="121.489617">
        <ele>694.0</ele>
      </trkpt>
      <trkpt lat="24.909009" lon="121.489681">
        <ele>695.0</ele>
      </trkpt>
      <trkpt lat="24.908963" lon="121.489697">
        <ele>697.0</ele>
      </trkpt>
      <trkpt lat="24.908821" lon="121.489697">
        <ele>703.0</ele>
      </trkpt>
      <trkpt lat="24.908695" lon="121.489754">
        <ele>709.0</ele>
      </trkpt>
      <trkpt lat="24.908679" lon="121.489774">
        <ele>710.0</ele>
      </trkpt>
      <trkpt lat="24.908679" lon="121.489774">
        <ele>710.0</ele>
      </trkpt>
      <trkpt lat="24.908642" lon="121.489823">
        <ele>711.0</ele>
      </trkpt>
      <trkpt lat="24.908656" lon="121.489871">
        <ele>711.0</ele>
      </trkpt>
      <trkpt lat="24.908788" lon="121.489855">
        <ele>707.0</ele>
      </trkpt>
      <trkpt lat="24.908991" lon="121.490054">
        <ele>702.0</ele>
      </trkpt>
      <trkpt lat="24.908991" lon="121.490054">
        <ele>702.0</ele>
      </trkpt>
      <trkpt lat="24.909007" lon="121.490087">
        <ele>701.0</ele>
      </trkpt>
      <trkpt lat="24.908888" lon="121.490106">
        <ele>703.0</ele>
      </trkpt>
      <trkpt lat="24.908762" lon="121.490147">
        <ele>705.0</ele>
      </trkpt>
      <trkpt lat="24.908589" lon="121.490282">
        <ele>705.0</ele>
      </trkpt>
      <trkpt lat="24.908589" lon="121.490282">
        <ele>705.0</ele>
      </trkpt>
      <trkpt lat="24.908543" lon="121.490317">
        <ele>705.0</ele>
      </trkpt>
      <trkpt lat="24.908438" lon="121.490477">
        <ele>702.0</ele>
      </trkpt>
      <trkpt lat="24.908408" lon="121.490735">
        <ele>693.0</ele>
      </trkpt>
      <trkpt lat="24.908351" lon="121.490903">
        <ele>689.0</ele>
      </trkpt>
      <trkpt lat="24.908167" lon="121.491005">
        <ele>694.0</ele>
      </trkpt>
      <trkpt lat="24.908085" lon="121.491116">
        <ele>695.0</ele>
      </trkpt>
      <trkpt lat="24.907936" lon="121.491315">
        <ele>697.0</ele>
      </trkpt>
      <trkpt lat="24.907885" lon="121.491473">
        <ele>696.0</ele>
      </trkpt>
      <trkpt lat="24.907773" lon="121.491451">
        <ele>702.0</ele>
      </trkpt>
      <trkpt lat="24.907725" lon="121.491475">
        <ele>704.0</ele>
      </trkpt>
      <trkpt lat="24.90788" lon="121.491698">
        <ele>692.0</ele>
      </trkpt>
      <trkpt lat="24.907837" lon="121.491864">
        <ele>691.0</ele>
      </trkpt>
      <trkpt lat="24.907681" lon="121.492004">
        <ele>695.0</ele>
      </trkpt>
      <trkpt lat="24.907529" lon="121.492057">
        <ele>700.0</ele>
      </trkpt>
      <trkpt lat="24.907529" lon="121.492057">
        <ele>700.0</ele>
      </trkpt>
      <trkpt lat="24.907228" lon="121.492163">
        <ele>704.0</ele>
      </trkpt>
      <trkpt lat="24.906871" lon="121.492478">
        <ele>700.0</ele>
      </trkpt>
      <trkpt lat="24.906744" lon="121.492416">
        <ele>704.0</ele>
      </trkpt>
      <trkpt lat="24.906688" lon="121.492328">
        <ele>708.0</ele>
      </trkpt>
      <trkpt lat="24.906737" lon="121.492259">
        <ele>709.0</ele>
      </trkpt>
      <trkpt lat="24.906732" lon="121.49213">
        <ele>714.0</ele>
      </trkpt>
      <trkpt lat="24.906674" lon="121.49206">
        <ele>717.0</ele>
      </trkpt>
      <trkpt lat="24.906615" lon="121.492167">
        <ele>715.0</ele>
      </trkpt>
      <trkpt lat="24.906259" lon="121.491989">
        <ele>732.0</ele>
      </trkpt>
      <trkpt lat="24.906195" lon="121.491972">
        <ele>734.0</ele>
      </trkpt>
      <trkpt lat="24.906075" lon="121.492028">
        <ele>736.0</ele>
      </trkpt>
      <trkpt lat="24.905976" lon="121.491937">
        <ele>742.0</ele>
      </trkpt>
      <trkpt lat="24.905859" lon="121.491934">
        <ele>746.0</ele>
      </trkpt>
      <trkpt lat="24.905788" lon="121.491883">
        <ele>752.0</ele>
      </trkpt>
      <trkpt lat="24.905674" lon="121.491701">
        <ele>767.0</ele>
      </trkpt>
      <trkpt lat="24.905509" lon="121.491803">
        <ele>774.0</ele>
      </trkpt>
      <trkpt lat="24.905423" lon="121.491789">
        <ele>780.0</ele>
      </trkpt>
      <trkpt lat="24.905311" lon="121.491851">
        <ele>784.0</ele>
      </trkpt>
      <trkpt lat="24.905275" lon="121.492007">
        <ele>779.0</ele>
      </trkpt>
      <trkpt lat="24.905178" lon="121.49213">
        <ele>778.0</ele>
      </trkpt>
      <trkpt lat="24.905114" lon="121.492111">
        <ele>783.0</ele>
      </trkpt>
      <trkpt lat="24.905034" lon="121.492218">
        <ele>782.0</ele>
      </trkpt>
      <trkpt lat="24.904955" lon="121.492428">
        <ele>775.0</ele>
      </trkpt>
      <trkpt lat="24.904694" lon="121.492752">
        <ele>781.0</ele>
      </trkpt>
      <trkpt lat="24.904633" lon="121.492755">
        <ele>785.0</ele>
      </trkpt>
      <trkpt lat="24.904584" lon="121.49283">
        <ele>786.0</ele>
      </trkpt>
      <trkpt lat="24.904616" lon="121.492932">
        <ele>780.0</ele>
      </trkpt>
      <trkpt lat="24.904589" lon="121.492988">
        <ele>781.0</ele>
      </trkpt>
      <trkpt lat="24.904511" lon="121.492983">
        <ele>787.0</ele>
      </trkpt>
      <trkpt lat="24.904499" lon="121.493071">
        <ele>785.0</ele>
      </trkpt>
      <trkpt lat="24.90437" lon="121.493269">
        <ele>790.0</ele>
      </trkpt>
      <trkpt lat="24.90429" lon="121.493369">
        <ele>795.0</ele>
      </trkpt>
      <trkpt lat="24.904224" lon="121.493388">
        <ele>800.0</ele>
      </trkpt>
      <trkpt lat="24.904217" lon="121.493452">
        <ele>798.0</ele>
      </trkpt>
      <trkpt lat="24.904248" lon="121.493503">
        <ele>794.0</ele>
      </trkpt>
      <trkpt lat="24.904185" lon="121.493635">
        <ele>795.0</ele>
      </trkpt>
      <trkpt lat="24.904219" lon="121.493777">
        <ele>787.0</ele>
      </trkpt>
      <trkpt lat="24.904168" lon="121.493946">
        <ele>786.0</ele>
      </trkpt>
      <trkpt lat="24.904229" lon="121.494042">
        <ele>777.0</ele>
      </trkpt>
      <trkpt lat="24.90416" lon="121.494115">
        <ele>780.0</ele>
      </trkpt>
      <trkpt lat="24.90416" lon="121.494115">
        <ele>780.0</ele>
      </trkpt>
      <trkpt lat="24.904095" lon="121.494184">
        <ele>783.0</ele>
      </trkpt>
      <trkpt lat="24.903947" lon="121.494501">
        <ele>780.0</ele>
      </trkpt>
      <trkpt lat="24.904034" lon="121.494579">
        <ele>773.0</ele>
      </trkpt>
      <trkpt lat="24.904042" lon="121.494662">
        <ele>769.0</ele>
      </trkpt>
      <trkpt lat="24.903893" lon="121.49504">
        <ele>762.0</ele>
      </trkpt>
      <trkpt lat="24.90393" lon="121.495126">
        <ele>760.0</ele>
      </trkpt>
      <trkpt lat="24.903852" lon="121.495292">
        <ele>760.0</ele>
      </trkpt>
      <trkpt lat="24.903925" lon="121.495365">
        <ele>758.0</ele>
      </trkpt>
      <trkpt lat="24.903891" lon="121.495524">
        <ele>757.0</ele>
      </trkpt>
      <trkpt lat="24.903845" lon="121.495583">
        <ele>757.0</ele>
      </trkpt>
      <trkpt lat="24.903849" lon="121.495682">
        <ele>755.0</ele>
      </trkpt>
      <trkpt lat="24.903913" lon="121.496124">
        <ele>749.0</ele>
      </trkpt>
      <trkpt lat="24.90404" lon="121.496307">
        <ele>749.0</ele>
      </trkpt>
      <trkpt lat="24.904171" lon="121.49643">
        <ele>751.0</ele>
      </trkpt>
      <trkpt lat="24.904322" lon="121.496468">
        <ele>742.0</ele>
      </trkpt>
      <trkpt lat="24.904416" lon="121.496687">
        <ele>736.0</ele>
      </trkpt>
      <trkpt lat="24.904434" lon="121.496951">
        <ele>731.0</ele>
      </trkpt>
      <trkpt lat="24.904528" lon="121.497261">
        <ele>724.0</ele>
      </trkpt>
      <trkpt lat="24.904697" lon="121.497444">
        <ele>719.0</ele>
      </trkpt>
      <trkpt lat="24.904862" lon="121.497696">
        <ele>714.0</ele>
      </trkpt>
      <trkpt lat="24.904906" lon="121.498029">
        <ele>710.0</ele>
      </trkpt>
      <trkpt lat="24.904844" lon="121.498259">
        <ele>708.0</ele>
      </trkpt>
      <trkpt lat="24.904838" lon="121.49842">
        <ele>704.0</ele>
      </trkpt>
      <trkpt lat="24.904638" lon="121.498887">
        <ele>691.0</ele>
      </trkpt>
      <trkpt lat="24.904617" lon="121.499125">
        <ele>685.0</ele>
      </trkpt>
      <trkpt lat="24.904558" lon="121.499262">
        <ele>683.0</ele>
      </trkpt>
      <trkpt lat="24.904331" lon="121.499548">
        <ele>680.0</ele>
      </trkpt>
      <trkpt lat="24.904157" lon="121.499826">
        <ele>676.0</ele>
      </trkpt>
      <trkpt lat="24.90397" lon="121.500071">
        <ele>669.0</ele>
      </trkpt>
      <trkpt lat="24.903894" lon="121.500228">
        <ele>663.0</ele>
      </trkpt>
      <trkpt lat="24.903798" lon="121.500346">
        <ele>660.0</ele>
      </trkpt>
      <trkpt lat="24.903716" lon="121.500387">
        <ele>659.0</ele>
      </trkpt>
      <trkpt lat="24.903583" lon="121.50049">
        <ele>658.0</ele>
      </trkpt>
      <trkpt lat="24.903366" lon="121.500724">
        <ele>657.0</ele>
      </trkpt>
      <trkpt lat="24.903257" lon="121.500797">
        <ele>657.0</ele>
      </trkpt>
      <trkpt lat="24.903098" lon="121.500811">
        <ele>657.0</ele>
      </trkpt>
      <trkpt lat="24.902913" lon="121.500865">
        <ele>656.0</ele>
      </trkpt>
      <trkpt lat="24.902756" lon="121.501075">
        <ele>654.0</ele>
      </trkpt>
      <trkpt lat="24.902702" lon="121.50108">
        <ele>654.0</ele>
      </trkpt>
      <trkpt lat="24.902657" lon="121.501076">
        <ele>655.0</ele>
      </trkpt>
      <trkpt lat="24.902634" lon="121.501165">
        <ele>654.0</ele>
      </trkpt>
    </trkseg>
  </trk>
</gpx>
