<?xml version="1.0" encoding="UTF-8"?>
<gpx xmlns="http://www.topografix.com/GPX/1/1" xmlns:xsi="http://www.w3.org/2001/XMLSchema-instance" xsi:schemaLocation="http://www.topografix.com/GPX/1/1 http://www.topografix.com/GPX/1/1/gpx.xsd" version="1.1" creator="Martin Schneider">
  <wpt lat="24.867992" lon="121.327494">
    <ele>335.0</ele>
    <name>Start</name>
  </wpt>
  <wpt lat="24.812051" lon="121.247312">
    <ele>250.0</ele>
    <name>End</name>
  </wpt>
  <wpt lat="24.866486" lon="121.335442">
    <ele>613.0</ele>
    <name>Summit Jinmianshan</name>
  </wpt>
  <wpt lat="24.824455" lon="121.277244">
    <ele>555.0</ele>
    <name>Summit Xizhoushan</name>
  </wpt>
  <wpt lat="24.864945" lon="121.334606">
    <name>1</name>
    <desc>Fork (turn left)</desc>
  </wpt>
  <wpt lat="24.863467" lon="121.335969">
    <name>2</name>
    <desc>Fork (turn right)</desc>
  </wpt>
  <wpt lat="24.8578782" lon="121.3253074">
    <name>3</name>
    <desc>Shisanfenshan</desc>
  </wpt>
  <wpt lat="24.8526502" lon="121.3176028">
    <name>4</name>
    <desc>Baishishan</desc>
  </wpt>
  <wpt lat="24.846658" lon="121.311006">
    <name>5</name>
    <desc>Dongxing bridge</desc>
  </wpt>
  <wpt lat="24.8431786" lon="121.3108152">
    <name>6</name>
    <desc>Shiguikengshan</desc>
  </wpt>
  <wpt lat="24.8345929" lon="121.2969817">
    <name>7</name>
    <desc>Touliaoshan</desc>
  </wpt>
  <wpt lat="24.8326771" lon="121.2938259">
    <name>8</name>
    <desc>Neinagoushan</desc>
  </wpt>
  <wpt lat="24.8317118" lon="121.2936298">
    <name>9</name>
    <desc>Niujiaonanshan South West Peak</desc>
  </wpt>
  <wpt lat="24.8159211" lon="121.257621">
    <name>10</name>
    <desc>Xinxizhoushan</desc>
  </wpt>
  <trk>
    <name>021_023_Jinmianshan_Xizhoushan</name>
    <trkseg>
      <trkpt lat="24.867992" lon="121.327494">
        <ele>335.0</ele>
      </trkpt>
      <trkpt lat="24.867992" lon="121.327494">
        <ele>335.0</ele>
      </trkpt>
      <trkpt lat="24.868072" lon="121.327498">
        <ele>333.0</ele>
      </trkpt>
      <trkpt lat="24.868209" lon="121.32741">
        <ele>328.0</ele>
      </trkpt>
      <trkpt lat="24.868346" lon="121.327289">
        <ele>323.0</ele>
      </trkpt>
      <trkpt lat="24.868558" lon="121.327297">
        <ele>328.0</ele>
      </trkpt>
      <trkpt lat="24.868633" lon="121.327261">
        <ele>329.0</ele>
      </trkpt>
      <trkpt lat="24.868879" lon="121.32691">
        <ele>328.0</ele>
      </trkpt>
      <trkpt lat="24.86891" lon="121.326768">
        <ele>326.0</ele>
      </trkpt>
      <trkpt lat="24.86905" lon="121.326613">
        <ele>326.0</ele>
      </trkpt>
      <trkpt lat="24.869663" lon="121.326348">
        <ele>336.0</ele>
      </trkpt>
      <trkpt lat="24.86989" lon="121.326413">
        <ele>345.0</ele>
      </trkpt>
      <trkpt lat="24.869977" lon="121.326395">
        <ele>347.0</ele>
      </trkpt>
      <trkpt lat="24.869977" lon="121.326395">
        <ele>347.0</ele>
      </trkpt>
      <trkpt lat="24.870172" lon="121.326354">
        <ele>352.0</ele>
      </trkpt>
      <trkpt lat="24.870527" lon="121.326555">
        <ele>368.0</ele>
      </trkpt>
      <trkpt lat="24.870813" lon="121.326793">
        <ele>380.0</ele>
      </trkpt>
      <trkpt lat="24.87099" lon="121.327002">
        <ele>383.0</ele>
      </trkpt>
      <trkpt lat="24.870917" lon="121.327549">
        <ele>396.0</ele>
      </trkpt>
      <trkpt lat="24.870933" lon="121.327942">
        <ele>402.0</ele>
      </trkpt>
      <trkpt lat="24.87068" lon="121.328482">
        <ele>411.0</ele>
      </trkpt>
      <trkpt lat="24.870707" lon="121.328636">
        <ele>414.0</ele>
      </trkpt>
      <trkpt lat="24.870567" lon="121.329016">
        <ele>422.0</ele>
      </trkpt>
      <trkpt lat="24.870532" lon="121.32926">
        <ele>424.0</ele>
      </trkpt>
      <trkpt lat="24.869902" lon="121.329417">
        <ele>428.0</ele>
      </trkpt>
      <trkpt lat="24.869419" lon="121.329783">
        <ele>436.0</ele>
      </trkpt>
      <trkpt lat="24.869223" lon="121.329692">
        <ele>437.0</ele>
      </trkpt>
      <trkpt lat="24.868839" lon="121.32992">
        <ele>451.0</ele>
      </trkpt>
      <trkpt lat="24.868671" lon="121.330118">
        <ele>456.0</ele>
      </trkpt>
      <trkpt lat="24.868318" lon="121.330247">
        <ele>466.0</ele>
      </trkpt>
      <trkpt lat="24.868023" lon="121.330532">
        <ele>476.0</ele>
      </trkpt>
      <trkpt lat="24.868023" lon="121.330532">
        <ele>476.0</ele>
      </trkpt>
      <trkpt lat="24.867865" lon="121.330685">
        <ele>486.0</ele>
      </trkpt>
      <trkpt lat="24.867737" lon="121.33087">
        <ele>498.0</ele>
      </trkpt>
      <trkpt lat="24.867576" lon="121.330972">
        <ele>504.0</ele>
      </trkpt>
      <trkpt lat="24.867506" lon="121.331314">
        <ele>506.0</ele>
      </trkpt>
      <trkpt lat="24.867352" lon="121.331418">
        <ele>509.0</ele>
      </trkpt>
      <trkpt lat="24.867236" lon="121.331272">
        <ele>510.0</ele>
      </trkpt>
      <trkpt lat="24.86713" lon="121.331272">
        <ele>511.0</ele>
      </trkpt>
      <trkpt lat="24.866878" lon="121.331194">
        <ele>512.0</ele>
      </trkpt>
      <trkpt lat="24.866567" lon="121.331289">
        <ele>516.0</ele>
      </trkpt>
      <trkpt lat="24.866507" lon="121.331537">
        <ele>524.0</ele>
      </trkpt>
      <trkpt lat="24.866359" lon="121.331724">
        <ele>530.0</ele>
      </trkpt>
      <trkpt lat="24.865992" lon="121.331949">
        <ele>539.0</ele>
      </trkpt>
      <trkpt lat="24.865781" lon="121.332213">
        <ele>553.0</ele>
      </trkpt>
      <trkpt lat="24.865547" lon="121.332801">
        <ele>573.0</ele>
      </trkpt>
      <trkpt lat="24.865536" lon="121.332996">
        <ele>579.0</ele>
      </trkpt>
      <trkpt lat="24.865421" lon="121.333093">
        <ele>583.0</ele>
      </trkpt>
      <trkpt lat="24.865112" lon="121.333214">
        <ele>593.0</ele>
      </trkpt>
      <trkpt lat="24.865124" lon="121.333286">
        <ele>595.0</ele>
      </trkpt>
      <trkpt lat="24.865232" lon="121.333546">
        <ele>597.0</ele>
      </trkpt>
      <trkpt lat="24.865573" lon="121.333909">
        <ele>600.0</ele>
      </trkpt>
      <trkpt lat="24.865769" lon="121.33447">
        <ele>613.0</ele>
      </trkpt>
      <trkpt lat="24.866048" lon="121.334634">
        <ele>609.0</ele>
      </trkpt>
      <trkpt lat="24.866009" lon="121.334749">
        <ele>614.0</ele>
      </trkpt>
      <trkpt lat="24.866153" lon="121.335028">
        <ele>617.0</ele>
      </trkpt>
      <trkpt lat="24.866374" lon="121.33519">
        <ele>612.0</ele>
      </trkpt>
      <trkpt lat="24.866486" lon="121.335442">
        <ele>613.0</ele>
      </trkpt>
      <trkpt lat="24.866486" lon="121.335442">
        <ele>613.0</ele>
      </trkpt>
      <trkpt lat="24.866565" lon="121.335619">
        <ele>615.0</ele>
      </trkpt>
      <trkpt lat="24.866566" lon="121.335726">
        <ele>617.0</ele>
      </trkpt>
      <trkpt lat="24.866499" lon="121.335864">
        <ele>617.0</ele>
      </trkpt>
      <trkpt lat="24.86642" lon="121.335912">
        <ele>614.0</ele>
      </trkpt>
      <trkpt lat="24.866366" lon="121.335893">
        <ele>614.0</ele>
      </trkpt>
      <trkpt lat="24.866322" lon="121.335765">
        <ele>616.0</ele>
      </trkpt>
      <trkpt lat="24.86605" lon="121.335602">
        <ele>616.0</ele>
      </trkpt>
      <trkpt lat="24.865748" lon="121.335355">
        <ele>617.0</ele>
      </trkpt>
      <trkpt lat="24.865748" lon="121.335355">
        <ele>617.0</ele>
      </trkpt>
      <trkpt lat="24.865689" lon="121.335307">
        <ele>615.0</ele>
      </trkpt>
      <trkpt lat="24.865435" lon="121.334984">
        <ele>610.0</ele>
      </trkpt>
      <trkpt lat="24.865366" lon="121.334827">
        <ele>607.0</ele>
      </trkpt>
      <trkpt lat="24.865319" lon="121.33465">
        <ele>605.0</ele>
      </trkpt>
      <trkpt lat="24.865181" lon="121.334613">
        <ele>601.0</ele>
      </trkpt>
      <trkpt lat="24.864958" lon="121.334604">
        <ele>595.0</ele>
      </trkpt>
      <trkpt lat="24.864794" lon="121.334638">
        <ele>590.0</ele>
      </trkpt>
      <trkpt lat="24.864727" lon="121.334776">
        <ele>588.0</ele>
      </trkpt>
      <trkpt lat="24.864699" lon="121.334894">
        <ele>588.0</ele>
      </trkpt>
      <trkpt lat="24.864318" lon="121.335227">
        <ele>582.0</ele>
      </trkpt>
      <trkpt lat="24.863673" lon="121.335928">
        <ele>592.0</ele>
      </trkpt>
      <trkpt lat="24.863467" lon="121.335969">
        <ele>595.0</ele>
      </trkpt>
      <trkpt lat="24.863386" lon="121.335986">
        <ele>597.0</ele>
      </trkpt>
      <trkpt lat="24.863229" lon="121.335909">
        <ele>596.0</ele>
      </trkpt>
      <trkpt lat="24.863002" lon="121.335928">
        <ele>592.0</ele>
      </trkpt>
      <trkpt lat="24.862854" lon="121.335784">
        <ele>590.0</ele>
      </trkpt>
      <trkpt lat="24.862784" lon="121.335659">
        <ele>586.0</ele>
      </trkpt>
      <trkpt lat="24.862471" lon="121.335227">
        <ele>578.0</ele>
      </trkpt>
      <trkpt lat="24.862435" lon="121.335225">
        <ele>578.0</ele>
      </trkpt>
      <trkpt lat="24.862435" lon="121.335225">
        <ele>578.0</ele>
      </trkpt>
      <trkpt lat="24.86207" lon="121.335208">
        <ele>585.0</ele>
      </trkpt>
      <trkpt lat="24.861852" lon="121.334977">
        <ele>593.0</ele>
      </trkpt>
      <trkpt lat="24.861573" lon="121.334824">
        <ele>595.0</ele>
      </trkpt>
      <trkpt lat="24.861164" lon="121.334728">
        <ele>593.0</ele>
      </trkpt>
      <trkpt lat="24.861112" lon="121.334584">
        <ele>593.0</ele>
      </trkpt>
      <trkpt lat="24.861112" lon="121.334392">
        <ele>592.0</ele>
      </trkpt>
      <trkpt lat="24.860911" lon="121.334046">
        <ele>592.0</ele>
      </trkpt>
      <trkpt lat="24.860746" lon="121.333998">
        <ele>590.0</ele>
      </trkpt>
      <trkpt lat="24.860754" lon="121.333748">
        <ele>583.0</ele>
      </trkpt>
      <trkpt lat="24.860537" lon="121.333527">
        <ele>579.0</ele>
      </trkpt>
      <trkpt lat="24.860284" lon="121.333345">
        <ele>582.0</ele>
      </trkpt>
      <trkpt lat="24.86004" lon="121.333105">
        <ele>582.0</ele>
      </trkpt>
      <trkpt lat="24.859787" lon="121.332596">
        <ele>572.0</ele>
      </trkpt>
      <trkpt lat="24.85943" lon="121.331953">
        <ele>555.0</ele>
      </trkpt>
      <trkpt lat="24.859308" lon="121.331837">
        <ele>554.0</ele>
      </trkpt>
      <trkpt lat="24.85923" lon="121.33153">
        <ele>551.0</ele>
      </trkpt>
      <trkpt lat="24.859038" lon="121.33128">
        <ele>549.0</ele>
      </trkpt>
      <trkpt lat="24.859023" lon="121.331063">
        <ele>547.0</ele>
      </trkpt>
      <trkpt lat="24.859003" lon="121.330868">
        <ele>546.0</ele>
      </trkpt>
      <trkpt lat="24.858948" lon="121.330601">
        <ele>544.0</ele>
      </trkpt>
      <trkpt lat="24.858948" lon="121.330601">
        <ele>544.0</ele>
      </trkpt>
      <trkpt lat="24.858933" lon="121.330503">
        <ele>543.0</ele>
      </trkpt>
      <trkpt lat="24.858584" lon="121.329975">
        <ele>546.0</ele>
      </trkpt>
      <trkpt lat="24.858198" lon="121.32964">
        <ele>545.0</ele>
      </trkpt>
      <trkpt lat="24.858132" lon="121.329188">
        <ele>541.0</ele>
      </trkpt>
      <trkpt lat="24.858236" lon="121.328659">
        <ele>540.0</ele>
      </trkpt>
      <trkpt lat="24.858141" lon="121.328304">
        <ele>539.0</ele>
      </trkpt>
      <trkpt lat="24.857905" lon="121.32791">
        <ele>546.0</ele>
      </trkpt>
      <trkpt lat="24.857966" lon="121.327487">
        <ele>552.0</ele>
      </trkpt>
      <trkpt lat="24.857888" lon="121.327228">
        <ele>559.0</ele>
      </trkpt>
      <trkpt lat="24.857855" lon="121.326645">
        <ele>573.0</ele>
      </trkpt>
      <trkpt lat="24.857738" lon="121.326214">
        <ele>582.0</ele>
      </trkpt>
      <trkpt lat="24.857729" lon="121.325958">
        <ele>586.0</ele>
      </trkpt>
      <trkpt lat="24.85798" lon="121.325434">
        <ele>581.0</ele>
      </trkpt>
      <trkpt lat="24.857871" lon="121.325302">
        <ele>583.0</ele>
      </trkpt>
      <trkpt lat="24.857779" lon="121.325154">
        <ele>586.0</ele>
      </trkpt>
      <trkpt lat="24.857795" lon="121.324852">
        <ele>580.0</ele>
      </trkpt>
      <trkpt lat="24.857586" lon="121.324575">
        <ele>575.0</ele>
      </trkpt>
      <trkpt lat="24.857586" lon="121.324575">
        <ele>575.0</ele>
      </trkpt>
      <trkpt lat="24.857522" lon="121.324491">
        <ele>573.0</ele>
      </trkpt>
      <trkpt lat="24.8572" lon="121.324463">
        <ele>573.0</ele>
      </trkpt>
      <trkpt lat="24.856895" lon="121.324261">
        <ele>575.0</ele>
      </trkpt>
      <trkpt lat="24.856703" lon="121.324107">
        <ele>578.0</ele>
      </trkpt>
      <trkpt lat="24.856747" lon="121.323877">
        <ele>569.0</ele>
      </trkpt>
      <trkpt lat="24.856686" lon="121.323694">
        <ele>564.0</ele>
      </trkpt>
      <trkpt lat="24.856276" lon="121.323646">
        <ele>563.0</ele>
      </trkpt>
      <trkpt lat="24.856267" lon="121.323502">
        <ele>561.0</ele>
      </trkpt>
      <trkpt lat="24.856148" lon="121.323426">
        <ele>560.0</ele>
      </trkpt>
      <trkpt lat="24.85612" lon="121.32347">
        <ele>561.0</ele>
      </trkpt>
      <trkpt lat="24.855845" lon="121.323617">
        <ele>564.0</ele>
      </trkpt>
      <trkpt lat="24.855696" lon="121.323507">
        <ele>563.0</ele>
      </trkpt>
      <trkpt lat="24.855634" lon="121.323361">
        <ele>564.0</ele>
      </trkpt>
      <trkpt lat="24.85544" lon="121.323339">
        <ele>564.0</ele>
      </trkpt>
      <trkpt lat="24.855315" lon="121.323227">
        <ele>563.0</ele>
      </trkpt>
      <trkpt lat="24.855293" lon="121.323062">
        <ele>561.0</ele>
      </trkpt>
      <trkpt lat="24.855135" lon="121.323028">
        <ele>563.0</ele>
      </trkpt>
      <trkpt lat="24.854956" lon="121.322683">
        <ele>564.0</ele>
      </trkpt>
      <trkpt lat="24.854886" lon="121.322487">
        <ele>562.0</ele>
      </trkpt>
      <trkpt lat="24.854814" lon="121.322343">
        <ele>558.0</ele>
      </trkpt>
      <trkpt lat="24.854731" lon="121.322245">
        <ele>555.0</ele>
      </trkpt>
      <trkpt lat="24.854354" lon="121.321666">
        <ele>556.0</ele>
      </trkpt>
      <trkpt lat="24.854278" lon="121.321422">
        <ele>560.0</ele>
      </trkpt>
      <trkpt lat="24.854269" lon="121.321132">
        <ele>564.0</ele>
      </trkpt>
      <trkpt lat="24.854148" lon="121.320959">
        <ele>570.0</ele>
      </trkpt>
      <trkpt lat="24.854066" lon="121.320808">
        <ele>570.0</ele>
      </trkpt>
      <trkpt lat="24.853845" lon="121.320223">
        <ele>573.0</ele>
      </trkpt>
      <trkpt lat="24.853791" lon="121.319899">
        <ele>578.0</ele>
      </trkpt>
      <trkpt lat="24.853616" lon="121.319561">
        <ele>583.0</ele>
      </trkpt>
      <trkpt lat="24.853478" lon="121.319142">
        <ele>591.0</ele>
      </trkpt>
      <trkpt lat="24.853322" lon="121.318883">
        <ele>594.0</ele>
      </trkpt>
      <trkpt lat="24.853324" lon="121.318877">
        <ele>594.0</ele>
      </trkpt>
      <trkpt lat="24.852835" lon="121.318072">
        <ele>590.0</ele>
      </trkpt>
      <trkpt lat="24.852732" lon="121.3178">
        <ele>590.0</ele>
      </trkpt>
      <trkpt lat="24.852627" lon="121.317582">
        <ele>592.0</ele>
      </trkpt>
      <trkpt lat="24.852591" lon="121.31755">
        <ele>593.0</ele>
      </trkpt>
      <trkpt lat="24.852591" lon="121.31755">
        <ele>593.0</ele>
      </trkpt>
      <trkpt lat="24.851555" lon="121.316615">
        <ele>565.0</ele>
      </trkpt>
      <trkpt lat="24.851425" lon="121.316527">
        <ele>560.0</ele>
      </trkpt>
      <trkpt lat="24.851065" lon="121.316218">
        <ele>550.0</ele>
      </trkpt>
      <trkpt lat="24.850881" lon="121.316082">
        <ele>549.0</ele>
      </trkpt>
      <trkpt lat="24.850726" lon="121.315926">
        <ele>548.0</ele>
      </trkpt>
      <trkpt lat="24.850209" lon="121.315637">
        <ele>537.0</ele>
      </trkpt>
      <trkpt lat="24.849906" lon="121.315581">
        <ele>535.0</ele>
      </trkpt>
      <trkpt lat="24.849684" lon="121.315488">
        <ele>531.0</ele>
      </trkpt>
      <trkpt lat="24.849438" lon="121.315332">
        <ele>529.0</ele>
      </trkpt>
      <trkpt lat="24.849304" lon="121.315093">
        <ele>528.0</ele>
      </trkpt>
      <trkpt lat="24.849233" lon="121.315048">
        <ele>529.0</ele>
      </trkpt>
      <trkpt lat="24.849233" lon="121.315048">
        <ele>529.0</ele>
      </trkpt>
      <trkpt lat="24.849173" lon="121.31501">
        <ele>530.0</ele>
      </trkpt>
      <trkpt lat="24.849198" lon="121.314982">
        <ele>528.0</ele>
      </trkpt>
      <trkpt lat="24.849327" lon="121.314982">
        <ele>526.0</ele>
      </trkpt>
      <trkpt lat="24.849498" lon="121.31486">
        <ele>516.0</ele>
      </trkpt>
      <trkpt lat="24.849565" lon="121.314721">
        <ele>508.0</ele>
      </trkpt>
      <trkpt lat="24.84966" lon="121.314646">
        <ele>502.0</ele>
      </trkpt>
      <trkpt lat="24.849748" lon="121.314814">
        <ele>510.0</ele>
      </trkpt>
      <trkpt lat="24.849898" lon="121.314802">
        <ele>506.0</ele>
      </trkpt>
      <trkpt lat="24.849895" lon="121.314681">
        <ele>500.0</ele>
      </trkpt>
      <trkpt lat="24.850116" lon="121.314649">
        <ele>496.0</ele>
      </trkpt>
      <trkpt lat="24.850156" lon="121.31459">
        <ele>492.0</ele>
      </trkpt>
      <trkpt lat="24.85006" lon="121.314536">
        <ele>490.0</ele>
      </trkpt>
      <trkpt lat="24.850062" lon="121.314054">
        <ele>467.0</ele>
      </trkpt>
      <trkpt lat="24.850136" lon="121.313621">
        <ele>450.0</ele>
      </trkpt>
      <trkpt lat="24.850085" lon="121.313224">
        <ele>434.0</ele>
      </trkpt>
      <trkpt lat="24.850097" lon="121.31298">
        <ele>425.0</ele>
      </trkpt>
      <trkpt lat="24.850055" lon="121.31279">
        <ele>417.0</ele>
      </trkpt>
      <trkpt lat="24.849835" lon="121.312827">
        <ele>419.0</ele>
      </trkpt>
      <trkpt lat="24.849755" lon="121.31296">
        <ele>425.0</ele>
      </trkpt>
      <trkpt lat="24.849694" lon="121.312957">
        <ele>425.0</ele>
      </trkpt>
      <trkpt lat="24.849663" lon="121.312891">
        <ele>422.0</ele>
      </trkpt>
      <trkpt lat="24.849661" lon="121.312495">
        <ele>406.0</ele>
      </trkpt>
      <trkpt lat="24.849861" lon="121.312315">
        <ele>406.0</ele>
      </trkpt>
      <trkpt lat="24.849908" lon="121.312205">
        <ele>406.0</ele>
      </trkpt>
      <trkpt lat="24.849812" lon="121.312069">
        <ele>405.0</ele>
      </trkpt>
      <trkpt lat="24.849642" lon="121.311981">
        <ele>402.0</ele>
      </trkpt>
      <trkpt lat="24.849372" lon="121.311991">
        <ele>398.0</ele>
      </trkpt>
      <trkpt lat="24.849255" lon="121.311892">
        <ele>394.0</ele>
      </trkpt>
      <trkpt lat="24.84905" lon="121.311791">
        <ele>389.0</ele>
      </trkpt>
      <trkpt lat="24.848986" lon="121.311727">
        <ele>386.0</ele>
      </trkpt>
      <trkpt lat="24.848986" lon="121.311727">
        <ele>386.0</ele>
      </trkpt>
      <trkpt lat="24.848924" lon="121.311666">
        <ele>383.0</ele>
      </trkpt>
      <trkpt lat="24.848829" lon="121.31164">
        <ele>382.0</ele>
      </trkpt>
      <trkpt lat="24.848728" lon="121.311686">
        <ele>381.0</ele>
      </trkpt>
      <trkpt lat="24.848353" lon="121.311627">
        <ele>375.0</ele>
      </trkpt>
      <trkpt lat="24.848178" lon="121.311702">
        <ele>377.0</ele>
      </trkpt>
      <trkpt lat="24.848079" lon="121.311715">
        <ele>378.0</ele>
      </trkpt>
      <trkpt lat="24.848" lon="121.311635">
        <ele>377.0</ele>
      </trkpt>
      <trkpt lat="24.847876" lon="121.311421">
        <ele>375.0</ele>
      </trkpt>
      <trkpt lat="24.847485" lon="121.311287">
        <ele>371.0</ele>
      </trkpt>
      <trkpt lat="24.847341" lon="121.311303">
        <ele>369.0</ele>
      </trkpt>
      <trkpt lat="24.847236" lon="121.311412">
        <ele>370.0</ele>
      </trkpt>
      <trkpt lat="24.847185" lon="121.311541">
        <ele>373.0</ele>
      </trkpt>
      <trkpt lat="24.847003" lon="121.311708">
        <ele>376.0</ele>
      </trkpt>
      <trkpt lat="24.84675" lon="121.311751">
        <ele>375.0</ele>
      </trkpt>
      <trkpt lat="24.846519" lon="121.311928">
        <ele>381.0</ele>
      </trkpt>
      <trkpt lat="24.846184" lon="121.312133">
        <ele>383.0</ele>
      </trkpt>
      <trkpt lat="24.84608" lon="121.31225">
        <ele>384.0</ele>
      </trkpt>
      <trkpt lat="24.845863" lon="121.312354">
        <ele>379.0</ele>
      </trkpt>
      <trkpt lat="24.845329" lon="121.312969">
        <ele>397.0</ele>
      </trkpt>
      <trkpt lat="24.845046" lon="121.313223">
        <ele>393.0</ele>
      </trkpt>
      <trkpt lat="24.84504" lon="121.313205">
        <ele>393.0</ele>
      </trkpt>
      <trkpt lat="24.84504" lon="121.313205">
        <ele>393.0</ele>
      </trkpt>
      <trkpt lat="24.845029" lon="121.313174">
        <ele>392.0</ele>
      </trkpt>
      <trkpt lat="24.845029" lon="121.313174">
        <ele>392.0</ele>
      </trkpt>
      <trkpt lat="24.844922" lon="121.312882">
        <ele>393.0</ele>
      </trkpt>
      <trkpt lat="24.844896" lon="121.312603">
        <ele>395.0</ele>
      </trkpt>
      <trkpt lat="24.844714" lon="121.312171">
        <ele>407.0</ele>
      </trkpt>
      <trkpt lat="24.844635" lon="121.312037">
        <ele>413.0</ele>
      </trkpt>
      <trkpt lat="24.844635" lon="121.312037">
        <ele>413.0</ele>
      </trkpt>
      <trkpt lat="24.844419" lon="121.311671">
        <ele>434.0</ele>
      </trkpt>
      <trkpt lat="24.844218" lon="121.311294">
        <ele>446.0</ele>
      </trkpt>
      <trkpt lat="24.843972" lon="121.311061">
        <ele>451.0</ele>
      </trkpt>
      <trkpt lat="24.843112" lon="121.310797">
        <ele>461.0</ele>
      </trkpt>
      <trkpt lat="24.843112" lon="121.310797">
        <ele>461.0</ele>
      </trkpt>
      <trkpt lat="24.84277" lon="121.310692">
        <ele>458.0</ele>
      </trkpt>
      <trkpt lat="24.842319" lon="121.310832">
        <ele>464.0</ele>
      </trkpt>
      <trkpt lat="24.842108" lon="121.310919">
        <ele>461.0</ele>
      </trkpt>
      <trkpt lat="24.842006" lon="121.311095">
        <ele>459.0</ele>
      </trkpt>
      <trkpt lat="24.841907" lon="121.310875">
        <ele>460.0</ele>
      </trkpt>
      <trkpt lat="24.841756" lon="121.310715">
        <ele>455.0</ele>
      </trkpt>
      <trkpt lat="24.841495" lon="121.31062">
        <ele>448.0</ele>
      </trkpt>
      <trkpt lat="24.841284" lon="121.310488">
        <ele>441.0</ele>
      </trkpt>
      <trkpt lat="24.841093" lon="121.310326">
        <ele>438.0</ele>
      </trkpt>
      <trkpt lat="24.84101" lon="121.310142">
        <ele>437.0</ele>
      </trkpt>
      <trkpt lat="24.840933" lon="121.309634">
        <ele>424.0</ele>
      </trkpt>
      <trkpt lat="24.840804" lon="121.309535">
        <ele>421.0</ele>
      </trkpt>
      <trkpt lat="24.840429" lon="121.309328">
        <ele>413.0</ele>
      </trkpt>
      <trkpt lat="24.84022" lon="121.30915">
        <ele>411.0</ele>
      </trkpt>
      <trkpt lat="24.839875" lon="121.309056">
        <ele>406.0</ele>
      </trkpt>
      <trkpt lat="24.839727" lon="121.309038">
        <ele>404.0</ele>
      </trkpt>
      <trkpt lat="24.839516" lon="121.309162">
        <ele>404.0</ele>
      </trkpt>
      <trkpt lat="24.839363" lon="121.309202">
        <ele>401.0</ele>
      </trkpt>
      <trkpt lat="24.839098" lon="121.309183">
        <ele>396.0</ele>
      </trkpt>
      <trkpt lat="24.838873" lon="121.309098">
        <ele>389.0</ele>
      </trkpt>
      <trkpt lat="24.838873" lon="121.309098">
        <ele>389.0</ele>
      </trkpt>
      <trkpt lat="24.838618" lon="121.30895">
        <ele>378.0</ele>
      </trkpt>
      <trkpt lat="24.838494" lon="121.308915">
        <ele>374.0</ele>
      </trkpt>
      <trkpt lat="24.837923" lon="121.308965">
        <ele>363.0</ele>
      </trkpt>
      <trkpt lat="24.83776" lon="121.308834">
        <ele>361.0</ele>
      </trkpt>
      <trkpt lat="24.837395" lon="121.308423">
        <ele>363.0</ele>
      </trkpt>
      <trkpt lat="24.837347" lon="121.308251">
        <ele>364.0</ele>
      </trkpt>
      <trkpt lat="24.837248" lon="121.307644">
        <ele>370.0</ele>
      </trkpt>
      <trkpt lat="24.83712" lon="121.307468">
        <ele>372.0</ele>
      </trkpt>
      <trkpt lat="24.836827" lon="121.307466">
        <ele>374.0</ele>
      </trkpt>
      <trkpt lat="24.836593" lon="121.307314">
        <ele>371.0</ele>
      </trkpt>
      <trkpt lat="24.836521" lon="121.307078">
        <ele>368.0</ele>
      </trkpt>
      <trkpt lat="24.836398" lon="121.30693">
        <ele>367.0</ele>
      </trkpt>
      <trkpt lat="24.836398" lon="121.30693">
        <ele>367.0</ele>
      </trkpt>
      <trkpt lat="24.83633" lon="121.30685">
        <ele>367.0</ele>
      </trkpt>
      <trkpt lat="24.83602" lon="121.306757">
        <ele>369.0</ele>
      </trkpt>
      <trkpt lat="24.835871" lon="121.306555">
        <ele>369.0</ele>
      </trkpt>
      <trkpt lat="24.835601" lon="121.306284">
        <ele>365.0</ele>
      </trkpt>
      <trkpt lat="24.835497" lon="121.306268">
        <ele>365.0</ele>
      </trkpt>
      <trkpt lat="24.835443" lon="121.30616">
        <ele>365.0</ele>
      </trkpt>
      <trkpt lat="24.835445" lon="121.305982">
        <ele>364.0</ele>
      </trkpt>
      <trkpt lat="24.8355" lon="121.305856">
        <ele>362.0</ele>
      </trkpt>
      <trkpt lat="24.835428" lon="121.30554">
        <ele>360.0</ele>
      </trkpt>
      <trkpt lat="24.835161" lon="121.305036">
        <ele>365.0</ele>
      </trkpt>
      <trkpt lat="24.835016" lon="121.30481">
        <ele>366.0</ele>
      </trkpt>
      <trkpt lat="24.834672" lon="121.304651">
        <ele>359.0</ele>
      </trkpt>
      <trkpt lat="24.834501" lon="121.304405">
        <ele>354.0</ele>
      </trkpt>
      <trkpt lat="24.834506" lon="121.304229">
        <ele>353.0</ele>
      </trkpt>
      <trkpt lat="24.834379" lon="121.303975">
        <ele>350.0</ele>
      </trkpt>
      <trkpt lat="24.834159" lon="121.303925">
        <ele>352.0</ele>
      </trkpt>
      <trkpt lat="24.834159" lon="121.303925">
        <ele>352.0</ele>
      </trkpt>
      <trkpt lat="24.834072" lon="121.303916">
        <ele>351.0</ele>
      </trkpt>
      <trkpt lat="24.834013" lon="121.303879">
        <ele>351.0</ele>
      </trkpt>
      <trkpt lat="24.833996" lon="121.303812">
        <ele>350.0</ele>
      </trkpt>
      <trkpt lat="24.83399" lon="121.303682">
        <ele>350.0</ele>
      </trkpt>
      <trkpt lat="24.833947" lon="121.303605">
        <ele>350.0</ele>
      </trkpt>
      <trkpt lat="24.833777" lon="121.303166">
        <ele>354.0</ele>
      </trkpt>
      <trkpt lat="24.833608" lon="121.302813">
        <ele>360.0</ele>
      </trkpt>
      <trkpt lat="24.83348" lon="121.302427">
        <ele>367.0</ele>
      </trkpt>
      <trkpt lat="24.833345" lon="121.302209">
        <ele>370.0</ele>
      </trkpt>
      <trkpt lat="24.833018" lon="121.301956">
        <ele>366.0</ele>
      </trkpt>
      <trkpt lat="24.832952" lon="121.301799">
        <ele>367.0</ele>
      </trkpt>
      <trkpt lat="24.833025" lon="121.301552">
        <ele>367.0</ele>
      </trkpt>
      <trkpt lat="24.832998" lon="121.301446">
        <ele>368.0</ele>
      </trkpt>
      <trkpt lat="24.832869" lon="121.301249">
        <ele>368.0</ele>
      </trkpt>
      <trkpt lat="24.832821" lon="121.301069">
        <ele>368.0</ele>
      </trkpt>
      <trkpt lat="24.83286" lon="121.30093">
        <ele>368.0</ele>
      </trkpt>
      <trkpt lat="24.83286" lon="121.30093">
        <ele>368.0</ele>
      </trkpt>
      <trkpt lat="24.83299" lon="121.300613">
        <ele>369.0</ele>
      </trkpt>
      <trkpt lat="24.833121" lon="121.300418">
        <ele>372.0</ele>
      </trkpt>
      <trkpt lat="24.833269" lon="121.300098">
        <ele>381.0</ele>
      </trkpt>
      <trkpt lat="24.833463" lon="121.299842">
        <ele>387.0</ele>
      </trkpt>
      <trkpt lat="24.833548" lon="121.299702">
        <ele>390.0</ele>
      </trkpt>
      <trkpt lat="24.833812" lon="121.299534">
        <ele>400.0</ele>
      </trkpt>
      <trkpt lat="24.834155" lon="121.299407">
        <ele>414.0</ele>
      </trkpt>
      <trkpt lat="24.8343" lon="121.299187">
        <ele>419.0</ele>
      </trkpt>
      <trkpt lat="24.834321" lon="121.298647">
        <ele>425.0</ele>
      </trkpt>
      <trkpt lat="24.834268" lon="121.298137">
        <ele>435.0</ele>
      </trkpt>
      <trkpt lat="24.83444" lon="121.297624">
        <ele>446.0</ele>
      </trkpt>
      <trkpt lat="24.834575" lon="121.297032">
        <ele>454.0</ele>
      </trkpt>
      <trkpt lat="24.834575" lon="121.297032">
        <ele>454.0</ele>
      </trkpt>
      <trkpt lat="24.834591" lon="121.296979">
        <ele>454.0</ele>
      </trkpt>
      <trkpt lat="24.834311" lon="121.296793">
        <ele>466.0</ele>
      </trkpt>
      <trkpt lat="24.8341" lon="121.296105">
        <ele>474.0</ele>
      </trkpt>
      <trkpt lat="24.833834" lon="121.29558">
        <ele>475.0</ele>
      </trkpt>
      <trkpt lat="24.833618" lon="121.295246">
        <ele>479.0</ele>
      </trkpt>
      <trkpt lat="24.833676" lon="121.294931">
        <ele>482.0</ele>
      </trkpt>
      <trkpt lat="24.833665" lon="121.294772">
        <ele>480.0</ele>
      </trkpt>
      <trkpt lat="24.833426" lon="121.294506">
        <ele>481.0</ele>
      </trkpt>
      <trkpt lat="24.833195" lon="121.294329">
        <ele>480.0</ele>
      </trkpt>
      <trkpt lat="24.833131" lon="121.294202">
        <ele>479.0</ele>
      </trkpt>
      <trkpt lat="24.832948" lon="121.294098">
        <ele>476.0</ele>
      </trkpt>
      <trkpt lat="24.832674" lon="121.293879">
        <ele>472.0</ele>
      </trkpt>
      <trkpt lat="24.832176" lon="121.293665">
        <ele>464.0</ele>
      </trkpt>
      <trkpt lat="24.832086" lon="121.293704">
        <ele>462.0</ele>
      </trkpt>
      <trkpt lat="24.831737" lon="121.293681">
        <ele>455.0</ele>
      </trkpt>
      <trkpt lat="24.83143" lon="121.293532">
        <ele>450.0</ele>
      </trkpt>
      <trkpt lat="24.830998" lon="121.293286">
        <ele>446.0</ele>
      </trkpt>
      <trkpt lat="24.830829" lon="121.292877">
        <ele>448.0</ele>
      </trkpt>
      <trkpt lat="24.830788" lon="121.292645">
        <ele>449.0</ele>
      </trkpt>
      <trkpt lat="24.830783" lon="121.292456">
        <ele>450.0</ele>
      </trkpt>
      <trkpt lat="24.830927" lon="121.292258">
        <ele>444.0</ele>
      </trkpt>
      <trkpt lat="24.830761" lon="121.291908">
        <ele>440.0</ele>
      </trkpt>
      <trkpt lat="24.830442" lon="121.291004">
        <ele>433.0</ele>
      </trkpt>
      <trkpt lat="24.830058" lon="121.290448">
        <ele>443.0</ele>
      </trkpt>
      <trkpt lat="24.829904" lon="121.290371">
        <ele>442.0</ele>
      </trkpt>
      <trkpt lat="24.829454" lon="121.290277">
        <ele>430.0</ele>
      </trkpt>
      <trkpt lat="24.829393" lon="121.289874">
        <ele>432.0</ele>
      </trkpt>
      <trkpt lat="24.829585" lon="121.289845">
        <ele>437.0</ele>
      </trkpt>
      <trkpt lat="24.829655" lon="121.289586">
        <ele>436.0</ele>
      </trkpt>
      <trkpt lat="24.829611" lon="121.28924">
        <ele>432.0</ele>
      </trkpt>
      <trkpt lat="24.829297" lon="121.288722">
        <ele>418.0</ele>
      </trkpt>
      <trkpt lat="24.829324" lon="121.288395">
        <ele>417.0</ele>
      </trkpt>
      <trkpt lat="24.82921" lon="121.287752">
        <ele>401.0</ele>
      </trkpt>
      <trkpt lat="24.8293" lon="121.287564">
        <ele>400.0</ele>
      </trkpt>
      <trkpt lat="24.829533" lon="121.28733">
        <ele>404.0</ele>
      </trkpt>
      <trkpt lat="24.829538" lon="121.287173">
        <ele>402.0</ele>
      </trkpt>
      <trkpt lat="24.829226" lon="121.287132">
        <ele>395.0</ele>
      </trkpt>
      <trkpt lat="24.828983" lon="121.28673">
        <ele>390.0</ele>
      </trkpt>
      <trkpt lat="24.828987" lon="121.286585">
        <ele>389.0</ele>
      </trkpt>
      <trkpt lat="24.828903" lon="121.286322">
        <ele>387.0</ele>
      </trkpt>
      <trkpt lat="24.828839" lon="121.286248">
        <ele>387.0</ele>
      </trkpt>
      <trkpt lat="24.828796" lon="121.286143">
        <ele>387.0</ele>
      </trkpt>
      <trkpt lat="24.828686" lon="121.286057">
        <ele>388.0</ele>
      </trkpt>
      <trkpt lat="24.828616" lon="121.28593">
        <ele>391.0</ele>
      </trkpt>
      <trkpt lat="24.828569" lon="121.285706">
        <ele>393.0</ele>
      </trkpt>
      <trkpt lat="24.828473" lon="121.285581">
        <ele>396.0</ele>
      </trkpt>
      <trkpt lat="24.828339" lon="121.285468">
        <ele>402.0</ele>
      </trkpt>
      <trkpt lat="24.828105" lon="121.285214">
        <ele>404.0</ele>
      </trkpt>
      <trkpt lat="24.82802" lon="121.284995">
        <ele>409.0</ele>
      </trkpt>
      <trkpt lat="24.827912" lon="121.28459">
        <ele>415.0</ele>
      </trkpt>
      <trkpt lat="24.827795" lon="121.284492">
        <ele>420.0</ele>
      </trkpt>
      <trkpt lat="24.827423" lon="121.284117">
        <ele>439.0</ele>
      </trkpt>
      <trkpt lat="24.827325" lon="121.283985">
        <ele>439.0</ele>
      </trkpt>
      <trkpt lat="24.82726" lon="121.283838">
        <ele>440.0</ele>
      </trkpt>
      <trkpt lat="24.82726" lon="121.283233">
        <ele>448.0</ele>
      </trkpt>
      <trkpt lat="24.827224" lon="121.283122">
        <ele>451.0</ele>
      </trkpt>
      <trkpt lat="24.827255" lon="121.283003">
        <ele>455.0</ele>
      </trkpt>
      <trkpt lat="24.827264" lon="121.282724">
        <ele>463.0</ele>
      </trkpt>
      <trkpt lat="24.827361" lon="121.282564">
        <ele>467.0</ele>
      </trkpt>
      <trkpt lat="24.827366" lon="121.282407">
        <ele>471.0</ele>
      </trkpt>
      <trkpt lat="24.827448" lon="121.28235">
        <ele>471.0</ele>
      </trkpt>
      <trkpt lat="24.827523" lon="121.282247">
        <ele>471.0</ele>
      </trkpt>
      <trkpt lat="24.827414" lon="121.282028">
        <ele>476.0</ele>
      </trkpt>
      <trkpt lat="24.827366" lon="121.281851">
        <ele>480.0</ele>
      </trkpt>
      <trkpt lat="24.827184" lon="121.281641">
        <ele>486.0</ele>
      </trkpt>
      <trkpt lat="24.827038" lon="121.281331">
        <ele>486.0</ele>
      </trkpt>
      <trkpt lat="24.826907" lon="121.28128">
        <ele>489.0</ele>
      </trkpt>
      <trkpt lat="24.82687" lon="121.2813">
        <ele>491.0</ele>
      </trkpt>
      <trkpt lat="24.826648" lon="121.281275">
        <ele>498.0</ele>
      </trkpt>
      <trkpt lat="24.826575" lon="121.281228">
        <ele>501.0</ele>
      </trkpt>
      <trkpt lat="24.826418" lon="121.281202">
        <ele>507.0</ele>
      </trkpt>
      <trkpt lat="24.826323" lon="121.281363">
        <ele>509.0</ele>
      </trkpt>
      <trkpt lat="24.826196" lon="121.281287">
        <ele>515.0</ele>
      </trkpt>
      <trkpt lat="24.826177" lon="121.281247">
        <ele>516.0</ele>
      </trkpt>
      <trkpt lat="24.826109" lon="121.281105">
        <ele>521.0</ele>
      </trkpt>
      <trkpt lat="24.825872" lon="121.281081">
        <ele>532.0</ele>
      </trkpt>
      <trkpt lat="24.825787" lon="121.281018">
        <ele>534.0</ele>
      </trkpt>
      <trkpt lat="24.825713" lon="121.280924">
        <ele>536.0</ele>
      </trkpt>
      <trkpt lat="24.825598" lon="121.280628">
        <ele>535.0</ele>
      </trkpt>
      <trkpt lat="24.825604" lon="121.28055">
        <ele>534.0</ele>
      </trkpt>
      <trkpt lat="24.825349" lon="121.280033">
        <ele>533.0</ele>
      </trkpt>
      <trkpt lat="24.825227" lon="121.279699">
        <ele>533.0</ele>
      </trkpt>
      <trkpt lat="24.824892" lon="121.279376">
        <ele>538.0</ele>
      </trkpt>
      <trkpt lat="24.824696" lon="121.279007">
        <ele>535.0</ele>
      </trkpt>
      <trkpt lat="24.824489" lon="121.278788">
        <ele>534.0</ele>
      </trkpt>
      <trkpt lat="24.824551" lon="121.278391">
        <ele>538.0</ele>
      </trkpt>
      <trkpt lat="24.824626" lon="121.278107">
        <ele>542.0</ele>
      </trkpt>
      <trkpt lat="24.824604" lon="121.277658">
        <ele>551.0</ele>
      </trkpt>
      <trkpt lat="24.824455" lon="121.277244">
        <ele>555.0</ele>
      </trkpt>
      <trkpt lat="24.824455" lon="121.277244">
        <ele>555.0</ele>
      </trkpt>
      <trkpt lat="24.824328" lon="121.276955">
        <ele>558.0</ele>
      </trkpt>
      <trkpt lat="24.824287" lon="121.276771">
        <ele>560.0</ele>
      </trkpt>
      <trkpt lat="24.824074" lon="121.276427">
        <ele>556.0</ele>
      </trkpt>
      <trkpt lat="24.823916" lon="121.276117">
        <ele>548.0</ele>
      </trkpt>
      <trkpt lat="24.823676" lon="121.27576">
        <ele>546.0</ele>
      </trkpt>
      <trkpt lat="24.82348" lon="121.275588">
        <ele>545.0</ele>
      </trkpt>
      <trkpt lat="24.823148" lon="121.275237">
        <ele>540.0</ele>
      </trkpt>
      <trkpt lat="24.82305" lon="121.275035">
        <ele>538.0</ele>
      </trkpt>
      <trkpt lat="24.822877" lon="121.274742">
        <ele>530.0</ele>
      </trkpt>
      <trkpt lat="24.822419" lon="121.274208">
        <ele>529.0</ele>
      </trkpt>
      <trkpt lat="24.822295" lon="121.273684">
        <ele>516.0</ele>
      </trkpt>
      <trkpt lat="24.82211" lon="121.273482">
        <ele>514.0</ele>
      </trkpt>
      <trkpt lat="24.821793" lon="121.272835">
        <ele>514.0</ele>
      </trkpt>
      <trkpt lat="24.821711" lon="121.27249">
        <ele>516.0</ele>
      </trkpt>
      <trkpt lat="24.821699" lon="121.272335">
        <ele>512.0</ele>
      </trkpt>
      <trkpt lat="24.821748" lon="121.272278">
        <ele>508.0</ele>
      </trkpt>
      <trkpt lat="24.821792" lon="121.272033">
        <ele>500.0</ele>
      </trkpt>
      <trkpt lat="24.82189" lon="121.271777">
        <ele>490.0</ele>
      </trkpt>
      <trkpt lat="24.822025" lon="121.271552">
        <ele>480.0</ele>
      </trkpt>
      <trkpt lat="24.82228" lon="121.271333">
        <ele>468.0</ele>
      </trkpt>
      <trkpt lat="24.82236" lon="121.271218">
        <ele>465.0</ele>
      </trkpt>
      <trkpt lat="24.822519" lon="121.271139">
        <ele>460.0</ele>
      </trkpt>
      <trkpt lat="24.822568" lon="121.27105">
        <ele>455.0</ele>
      </trkpt>
      <trkpt lat="24.822546" lon="121.270866">
        <ele>453.0</ele>
      </trkpt>
      <trkpt lat="24.82244" lon="121.270619">
        <ele>450.0</ele>
      </trkpt>
      <trkpt lat="24.822343" lon="121.270453">
        <ele>446.0</ele>
      </trkpt>
      <trkpt lat="24.821934" lon="121.270084">
        <ele>440.0</ele>
      </trkpt>
      <trkpt lat="24.821796" lon="121.269697">
        <ele>437.0</ele>
      </trkpt>
      <trkpt lat="24.821822" lon="121.269579">
        <ele>435.0</ele>
      </trkpt>
      <trkpt lat="24.821913" lon="121.269337">
        <ele>430.0</ele>
      </trkpt>
      <trkpt lat="24.821977" lon="121.269242">
        <ele>427.0</ele>
      </trkpt>
      <trkpt lat="24.822097" lon="121.26895">
        <ele>418.0</ele>
      </trkpt>
      <trkpt lat="24.822047" lon="121.268494">
        <ele>410.0</ele>
      </trkpt>
      <trkpt lat="24.822012" lon="121.268437">
        <ele>410.0</ele>
      </trkpt>
      <trkpt lat="24.821568" lon="121.268332">
        <ele>424.0</ele>
      </trkpt>
      <trkpt lat="24.821484" lon="121.268238">
        <ele>423.0</ele>
      </trkpt>
      <trkpt lat="24.821329" lon="121.268188">
        <ele>424.0</ele>
      </trkpt>
      <trkpt lat="24.821019" lon="121.267791">
        <ele>429.0</ele>
      </trkpt>
      <trkpt lat="24.820978" lon="121.267506">
        <ele>433.0</ele>
      </trkpt>
      <trkpt lat="24.820857" lon="121.266995">
        <ele>434.0</ele>
      </trkpt>
      <trkpt lat="24.820699" lon="121.266796">
        <ele>434.0</ele>
      </trkpt>
      <trkpt lat="24.820608" lon="121.266329">
        <ele>430.0</ele>
      </trkpt>
      <trkpt lat="24.820529" lon="121.266117">
        <ele>428.0</ele>
      </trkpt>
      <trkpt lat="24.820379" lon="121.265916">
        <ele>427.0</ele>
      </trkpt>
      <trkpt lat="24.819999" lon="121.265966">
        <ele>428.0</ele>
      </trkpt>
      <trkpt lat="24.81985" lon="121.266031">
        <ele>428.0</ele>
      </trkpt>
      <trkpt lat="24.819489" lon="121.266048">
        <ele>428.0</ele>
      </trkpt>
      <trkpt lat="24.818996" lon="121.265554">
        <ele>425.0</ele>
      </trkpt>
      <trkpt lat="24.818874" lon="121.265192">
        <ele>425.0</ele>
      </trkpt>
      <trkpt lat="24.818724" lon="121.264534">
        <ele>436.0</ele>
      </trkpt>
      <trkpt lat="24.818718" lon="121.264197">
        <ele>444.0</ele>
      </trkpt>
      <trkpt lat="24.818674" lon="121.263686">
        <ele>451.0</ele>
      </trkpt>
      <trkpt lat="24.818612" lon="121.26355">
        <ele>454.0</ele>
      </trkpt>
      <trkpt lat="24.81833" lon="121.26323">
        <ele>464.0</ele>
      </trkpt>
      <trkpt lat="24.818137" lon="121.263156">
        <ele>455.0</ele>
      </trkpt>
      <trkpt lat="24.818054" lon="121.263002">
        <ele>450.0</ele>
      </trkpt>
      <trkpt lat="24.817963" lon="121.262617">
        <ele>444.0</ele>
      </trkpt>
      <trkpt lat="24.817802" lon="121.262286">
        <ele>437.0</ele>
      </trkpt>
      <trkpt lat="24.817497" lon="121.26181">
        <ele>438.0</ele>
      </trkpt>
      <trkpt lat="24.817179" lon="121.261701">
        <ele>437.0</ele>
      </trkpt>
      <trkpt lat="24.817" lon="121.261535">
        <ele>438.0</ele>
      </trkpt>
      <trkpt lat="24.816944" lon="121.261409">
        <ele>440.0</ele>
      </trkpt>
      <trkpt lat="24.816672" lon="121.260818">
        <ele>455.0</ele>
      </trkpt>
      <trkpt lat="24.816485" lon="121.260512">
        <ele>454.0</ele>
      </trkpt>
      <trkpt lat="24.816341" lon="121.260362">
        <ele>455.0</ele>
      </trkpt>
      <trkpt lat="24.816308" lon="121.260223">
        <ele>456.0</ele>
      </trkpt>
      <trkpt lat="24.81629" lon="121.260027">
        <ele>458.0</ele>
      </trkpt>
      <trkpt lat="24.816246" lon="121.259867">
        <ele>459.0</ele>
      </trkpt>
      <trkpt lat="24.816316" lon="121.259499">
        <ele>458.0</ele>
      </trkpt>
      <trkpt lat="24.816313" lon="121.259218">
        <ele>457.0</ele>
      </trkpt>
      <trkpt lat="24.816181" lon="121.258731">
        <ele>455.0</ele>
      </trkpt>
      <trkpt lat="24.816151" lon="121.25838">
        <ele>451.0</ele>
      </trkpt>
      <trkpt lat="24.815955" lon="121.258048">
        <ele>452.0</ele>
      </trkpt>
      <trkpt lat="24.81593" lon="121.257664">
        <ele>447.0</ele>
      </trkpt>
      <trkpt lat="24.815776" lon="121.25742">
        <ele>445.0</ele>
      </trkpt>
      <trkpt lat="24.815776" lon="121.25742">
        <ele>445.0</ele>
      </trkpt>
      <trkpt lat="24.815319" lon="121.256699">
        <ele>418.0</ele>
      </trkpt>
      <trkpt lat="24.815155" lon="121.256319">
        <ele>407.0</ele>
      </trkpt>
      <trkpt lat="24.815156" lon="121.25613">
        <ele>400.0</ele>
      </trkpt>
      <trkpt lat="24.815054" lon="121.25591">
        <ele>397.0</ele>
      </trkpt>
      <trkpt lat="24.81501" lon="121.255677">
        <ele>391.0</ele>
      </trkpt>
      <trkpt lat="24.814833" lon="121.255341">
        <ele>377.0</ele>
      </trkpt>
      <trkpt lat="24.814536" lon="121.254931">
        <ele>365.0</ele>
      </trkpt>
      <trkpt lat="24.814334" lon="121.254098">
        <ele>353.0</ele>
      </trkpt>
      <trkpt lat="24.814245" lon="121.253804">
        <ele>355.0</ele>
      </trkpt>
      <trkpt lat="24.814132" lon="121.253258">
        <ele>351.0</ele>
      </trkpt>
      <trkpt lat="24.814125" lon="121.253085">
        <ele>346.0</ele>
      </trkpt>
      <trkpt lat="24.813967" lon="121.25297">
        <ele>339.0</ele>
      </trkpt>
      <trkpt lat="24.813697" lon="121.252535">
        <ele>329.0</ele>
      </trkpt>
      <trkpt lat="24.8136" lon="121.252416">
        <ele>329.0</ele>
      </trkpt>
      <trkpt lat="24.813536" lon="121.252269">
        <ele>328.0</ele>
      </trkpt>
      <trkpt lat="24.813557" lon="121.252189">
        <ele>327.0</ele>
      </trkpt>
      <trkpt lat="24.813579" lon="121.252019">
        <ele>325.0</ele>
      </trkpt>
      <trkpt lat="24.813572" lon="121.251944">
        <ele>325.0</ele>
      </trkpt>
      <trkpt lat="24.813537" lon="121.251862">
        <ele>325.0</ele>
      </trkpt>
      <trkpt lat="24.813399" lon="121.251822">
        <ele>331.0</ele>
      </trkpt>
      <trkpt lat="24.813358" lon="121.2518">
        <ele>333.0</ele>
      </trkpt>
      <trkpt lat="24.813338" lon="121.251761">
        <ele>334.0</ele>
      </trkpt>
      <trkpt lat="24.813328" lon="121.251697">
        <ele>335.0</ele>
      </trkpt>
      <trkpt lat="24.813339" lon="121.25154">
        <ele>333.0</ele>
      </trkpt>
      <trkpt lat="24.813305" lon="121.251265">
        <ele>330.0</ele>
      </trkpt>
      <trkpt lat="24.813329" lon="121.251127">
        <ele>330.0</ele>
      </trkpt>
      <trkpt lat="24.813318" lon="121.251087">
        <ele>329.0</ele>
      </trkpt>
      <trkpt lat="24.813153" lon="121.250918">
        <ele>323.0</ele>
      </trkpt>
      <trkpt lat="24.813089" lon="121.250831">
        <ele>322.0</ele>
      </trkpt>
      <trkpt lat="24.813043" lon="121.250691">
        <ele>318.0</ele>
      </trkpt>
      <trkpt lat="24.812964" lon="121.250573">
        <ele>314.0</ele>
      </trkpt>
      <trkpt lat="24.812926" lon="121.250334">
        <ele>310.0</ele>
      </trkpt>
      <trkpt lat="24.81287" lon="121.250164">
        <ele>308.0</ele>
      </trkpt>
      <trkpt lat="24.812806" lon="121.249882">
        <ele>304.0</ele>
      </trkpt>
      <trkpt lat="24.812709" lon="121.249734">
        <ele>303.0</ele>
      </trkpt>
      <trkpt lat="24.812671" lon="121.249626">
        <ele>302.0</ele>
      </trkpt>
      <trkpt lat="24.812678" lon="121.249549">
        <ele>301.0</ele>
      </trkpt>
      <trkpt lat="24.812728" lon="121.249452">
        <ele>296.0</ele>
      </trkpt>
      <trkpt lat="24.812733" lon="121.249264">
        <ele>292.0</ele>
      </trkpt>
      <trkpt lat="24.81278" lon="121.249173">
        <ele>287.0</ele>
      </trkpt>
      <trkpt lat="24.812792" lon="121.24912">
        <ele>286.0</ele>
      </trkpt>
      <trkpt lat="24.81279" lon="121.248962">
        <ele>284.0</ele>
      </trkpt>
      <trkpt lat="24.812777" lon="121.248862">
        <ele>283.0</ele>
      </trkpt>
      <trkpt lat="24.812581" lon="121.248512">
        <ele>289.0</ele>
      </trkpt>
      <trkpt lat="24.812581" lon="121.248512">
        <ele>289.0</ele>
      </trkpt>
      <trkpt lat="24.81255" lon="121.248458">
        <ele>290.0</ele>
      </trkpt>
      <trkpt lat="24.812611" lon="121.248351">
        <ele>285.0</ele>
      </trkpt>
      <trkpt lat="24.812616" lon="121.2483">
        <ele>283.0</ele>
      </trkpt>
      <trkpt lat="24.812593" lon="121.248287">
        <ele>283.0</ele>
      </trkpt>
      <trkpt lat="24.812475" lon="121.248369">
        <ele>291.0</ele>
      </trkpt>
      <trkpt lat="24.812342" lon="121.248325">
        <ele>286.0</ele>
      </trkpt>
      <trkpt lat="24.812338" lon="121.248362">
        <ele>286.0</ele>
      </trkpt>
      <trkpt lat="24.812338" lon="121.248362">
        <ele>286.0</ele>
      </trkpt>
      <trkpt lat="24.812342" lon="121.248325">
        <ele>286.0</ele>
      </trkpt>
      <trkpt lat="24.81225" lon="121.248423">
        <ele>284.0</ele>
      </trkpt>
      <trkpt lat="24.812195" lon="121.248349">
        <ele>282.0</ele>
      </trkpt>
      <trkpt lat="24.812071" lon="121.248254">
        <ele>276.0</ele>
      </trkpt>
      <trkpt lat="24.811987" lon="121.247916">
        <ele>266.0</ele>
      </trkpt>
      <trkpt lat="24.811947" lon="121.247926">
        <ele>266.0</ele>
      </trkpt>
      <trkpt lat="24.811947" lon="121.247926">
        <ele>266.0</ele>
      </trkpt>
      <trkpt lat="24.811921" lon="121.247932">
        <ele>266.0</ele>
      </trkpt>
      <trkpt lat="24.811991" lon="121.248134">
        <ele>271.0</ele>
      </trkpt>
      <trkpt lat="24.812067" lon="121.248423">
        <ele>278.0</ele>
      </trkpt>
      <trkpt lat="24.812068" lon="121.248504">
        <ele>278.0</ele>
      </trkpt>
      <trkpt lat="24.811938" lon="121.248707">
        <ele>274.0</ele>
      </trkpt>
      <trkpt lat="24.81193" lon="121.24899">
        <ele>273.0</ele>
      </trkpt>
      <trkpt lat="24.811886" lon="121.249106">
        <ele>271.0</ele>
      </trkpt>
      <trkpt lat="24.811781" lon="121.249183">
        <ele>266.0</ele>
      </trkpt>
      <trkpt lat="24.811703" lon="121.248503">
        <ele>266.0</ele>
      </trkpt>
      <trkpt lat="24.811616" lon="121.24791">
        <ele>261.0</ele>
      </trkpt>
      <trkpt lat="24.811627" lon="121.24742">
        <ele>257.0</ele>
      </trkpt>
      <trkpt lat="24.811602" lon="121.247274">
        <ele>252.0</ele>
      </trkpt>
      <trkpt lat="24.811742" lon="121.247199">
        <ele>250.0</ele>
      </trkpt>
      <trkpt lat="24.81185" lon="121.247199">
        <ele>248.0</ele>
      </trkpt>
      <trkpt lat="24.812051" lon="121.247312">
        <ele>250.0</ele>
      </trkpt>
    </trkseg>
  </trk>
</gpx>
