<?xml version="1.0" encoding="UTF-8"?>
<gpx xmlns="http://www.topografix.com/GPX/1/1" xmlns:xsi="http://www.w3.org/2001/XMLSchema-instance" xsi:schemaLocation="http://www.topografix.com/GPX/1/1 http://www.topografix.com/GPX/1/1/gpx.xsd" version="1.1" creator="Martin Schneider">
  <wpt lat="25.016749" lon="121.330594">
    <ele>248.0</ele>
    <name>Summit Hutoushan</name>
  </wpt>
  <wpt lat="24.997175" lon="121.324773">
    <name>1</name>
    <desc>Park entrance</desc>
  </wpt>
  <wpt lat="24.9984689" lon="121.329074">
    <name>2</name>
    <desc>Hutoushan Far South Peak</desc>
  </wpt>
  <wpt lat="24.9999418" lon="121.3295113">
    <name>2</name>
    <desc>Hutoushan South Peak</desc>
  </wpt>
  <wpt lat="25.002828" lon="121.3310581">
    <name>3</name>
    <desc>Sanfenshan</desc>
  </wpt>
  <wpt lat="25.0099411" lon="121.3316833">
    <name>4</name>
    <desc>Wanggongkengshan</desc>
  </wpt>
  <wpt lat="25.005674" lon="121.331274">
    <name>5</name>
    <desc>Wufenshan</desc>
  </wpt>
  <wpt lat="25.0127688" lon="121.3289824">
    <name>7</name>
    <desc>Trailhead</desc>
  </wpt>
  <wpt lat="25.0166531" lon="121.3297731">
    <name>8</name>
    <desc>Trailhead</desc>
  </wpt>
  <wpt lat="25.009468" lon="121.329204">
    <name>9</name>
    <desc>Hutoushan West Peak</desc>
  </wpt>
  <wpt lat="24.99774" lon="121.325248">
    <ele>100.0</ele>
    <name>Start</name>
  </wpt>
  <wpt lat="24.99774" lon="121.325248">
    <ele>100.0</ele>
    <name>End</name>
  </wpt>
  <trk>
    <name>021a_Hutoushan</name>
    <trkseg>
      <trkpt lat="24.99774" lon="121.325248">
        <ele>100.0</ele>
      </trkpt>
      <trkpt lat="24.99774" lon="121.325248">
        <ele>100.0</ele>
      </trkpt>
      <trkpt lat="24.997607" lon="121.325127">
        <ele>100.0</ele>
      </trkpt>
      <trkpt lat="24.997581" lon="121.325103">
        <ele>100.0</ele>
      </trkpt>
      <trkpt lat="24.99725" lon="121.324801">
        <ele>98.0</ele>
      </trkpt>
      <trkpt lat="24.997198" lon="121.324754">
        <ele>98.0</ele>
      </trkpt>
      <trkpt lat="24.997178" lon="121.324781">
        <ele>98.0</ele>
      </trkpt>
      <trkpt lat="24.997175" lon="121.324778">
        <ele>98.0</ele>
      </trkpt>
      <trkpt lat="24.997175" lon="121.324778">
        <ele>98.0</ele>
      </trkpt>
      <trkpt lat="24.997169" lon="121.324773">
        <ele>98.0</ele>
      </trkpt>
      <trkpt lat="24.997136" lon="121.324829">
        <ele>98.0</ele>
      </trkpt>
      <trkpt lat="24.997136" lon="121.324829">
        <ele>98.0</ele>
      </trkpt>
      <trkpt lat="24.997108" lon="121.324911">
        <ele>98.0</ele>
      </trkpt>
      <trkpt lat="24.997115" lon="121.325072">
        <ele>98.0</ele>
      </trkpt>
      <trkpt lat="24.997116" lon="121.325079">
        <ele>98.0</ele>
      </trkpt>
      <trkpt lat="24.997098" lon="121.325084">
        <ele>98.0</ele>
      </trkpt>
      <trkpt lat="24.997153" lon="121.325524">
        <ele>97.0</ele>
      </trkpt>
      <trkpt lat="24.997195" lon="121.325725">
        <ele>97.0</ele>
      </trkpt>
      <trkpt lat="24.997195" lon="121.325725">
        <ele>97.0</ele>
      </trkpt>
      <trkpt lat="24.9973659" lon="121.3264639">
        <ele>97.0</ele>
      </trkpt>
      <trkpt lat="24.997586" lon="121.327101">
        <ele>101.0</ele>
      </trkpt>
      <trkpt lat="24.997611" lon="121.327166">
        <ele>102.0</ele>
      </trkpt>
      <trkpt lat="24.997584" lon="121.327184">
        <ele>101.0</ele>
      </trkpt>
      <trkpt lat="24.997612" lon="121.327246">
        <ele>102.0</ele>
      </trkpt>
      <trkpt lat="24.997638" lon="121.327236">
        <ele>102.0</ele>
      </trkpt>
      <trkpt lat="24.997712" lon="121.327413">
        <ele>104.0</ele>
      </trkpt>
      <trkpt lat="24.997712" lon="121.327413">
        <ele>104.0</ele>
      </trkpt>
      <trkpt lat="24.997859" lon="121.327768">
        <ele>110.0</ele>
      </trkpt>
      <trkpt lat="24.998033" lon="121.328124">
        <ele>117.0</ele>
      </trkpt>
      <trkpt lat="24.998145" lon="121.328359">
        <ele>123.0</ele>
      </trkpt>
      <trkpt lat="24.998194" lon="121.328412">
        <ele>125.0</ele>
      </trkpt>
      <trkpt lat="24.998159" lon="121.328688">
        <ele>127.0</ele>
      </trkpt>
      <trkpt lat="24.998131" lon="121.328778">
        <ele>127.0</ele>
      </trkpt>
      <trkpt lat="24.998072" lon="121.328806">
        <ele>126.0</ele>
      </trkpt>
      <trkpt lat="24.998123" lon="121.328861">
        <ele>128.0</ele>
      </trkpt>
      <trkpt lat="24.998176" lon="121.328886">
        <ele>129.0</ele>
      </trkpt>
      <trkpt lat="24.998175" lon="121.328914">
        <ele>130.0</ele>
      </trkpt>
      <trkpt lat="24.99821" lon="121.328914">
        <ele>131.0</ele>
      </trkpt>
      <trkpt lat="24.998355" lon="121.329013">
        <ele>135.0</ele>
      </trkpt>
      <trkpt lat="24.998469" lon="121.329029">
        <ele>137.0</ele>
      </trkpt>
      <trkpt lat="24.998469" lon="121.329029">
        <ele>137.0</ele>
      </trkpt>
      <trkpt lat="24.998876" lon="121.329088">
        <ele>142.0</ele>
      </trkpt>
      <trkpt lat="24.999086" lon="121.329135">
        <ele>145.0</ele>
      </trkpt>
      <trkpt lat="24.999086" lon="121.329135">
        <ele>145.0</ele>
      </trkpt>
      <trkpt lat="24.999605" lon="121.329314">
        <ele>151.0</ele>
      </trkpt>
      <trkpt lat="24.999632" lon="121.329325">
        <ele>151.0</ele>
      </trkpt>
      <trkpt lat="24.999676" lon="121.329344">
        <ele>152.0</ele>
      </trkpt>
      <trkpt lat="24.999855" lon="121.329454">
        <ele>154.0</ele>
      </trkpt>
      <trkpt lat="24.999894" lon="121.329501">
        <ele>155.0</ele>
      </trkpt>
      <trkpt lat="24.999894" lon="121.329501">
        <ele>155.0</ele>
      </trkpt>
      <trkpt lat="25.000195" lon="121.329882">
        <ele>161.0</ele>
      </trkpt>
      <trkpt lat="25.000563" lon="121.330032">
        <ele>169.0</ele>
      </trkpt>
      <trkpt lat="25.000669" lon="121.330007">
        <ele>171.0</ele>
      </trkpt>
      <trkpt lat="25.000926" lon="121.329954">
        <ele>173.0</ele>
      </trkpt>
      <trkpt lat="25.001002" lon="121.329956">
        <ele>174.0</ele>
      </trkpt>
      <trkpt lat="25.001161" lon="121.330041">
        <ele>175.0</ele>
      </trkpt>
      <trkpt lat="25.001402" lon="121.330118">
        <ele>176.0</ele>
      </trkpt>
      <trkpt lat="25.001402" lon="121.330118">
        <ele>176.0</ele>
      </trkpt>
      <trkpt lat="25.00166" lon="121.330197">
        <ele>178.0</ele>
      </trkpt>
      <trkpt lat="25.001753" lon="121.330241">
        <ele>178.0</ele>
      </trkpt>
      <trkpt lat="25.001974" lon="121.330549">
        <ele>182.0</ele>
      </trkpt>
      <trkpt lat="25.002278" lon="121.330674">
        <ele>187.0</ele>
      </trkpt>
      <trkpt lat="25.002321" lon="121.330716">
        <ele>188.0</ele>
      </trkpt>
      <trkpt lat="25.002512" lon="121.330904">
        <ele>192.0</ele>
      </trkpt>
      <trkpt lat="25.002591" lon="121.331023">
        <ele>191.0</ele>
      </trkpt>
      <trkpt lat="25.002682" lon="121.331078">
        <ele>190.0</ele>
      </trkpt>
      <trkpt lat="25.002693" lon="121.331076">
        <ele>190.0</ele>
      </trkpt>
      <trkpt lat="25.002696" lon="121.331112">
        <ele>190.0</ele>
      </trkpt>
      <trkpt lat="25.00271" lon="121.33111">
        <ele>190.0</ele>
      </trkpt>
      <trkpt lat="25.002736" lon="121.331069">
        <ele>190.0</ele>
      </trkpt>
      <trkpt lat="25.002822" lon="121.331059">
        <ele>190.0</ele>
      </trkpt>
      <trkpt lat="25.002822" lon="121.331059">
        <ele>190.0</ele>
      </trkpt>
      <trkpt lat="25.002828" lon="121.331058">
        <ele>190.0</ele>
      </trkpt>
      <trkpt lat="25.002948" lon="121.331105">
        <ele>189.0</ele>
      </trkpt>
      <trkpt lat="25.003039" lon="121.331144">
        <ele>188.0</ele>
      </trkpt>
      <trkpt lat="25.003379" lon="121.33117">
        <ele>187.0</ele>
      </trkpt>
      <trkpt lat="25.003993" lon="121.331379">
        <ele>191.0</ele>
      </trkpt>
      <trkpt lat="25.00437" lon="121.331601">
        <ele>199.0</ele>
      </trkpt>
      <trkpt lat="25.004685" lon="121.331761">
        <ele>202.0</ele>
      </trkpt>
      <trkpt lat="25.005007" lon="121.33195">
        <ele>206.0</ele>
      </trkpt>
      <trkpt lat="25.005406" lon="121.331851">
        <ele>203.0</ele>
      </trkpt>
      <trkpt lat="25.005618" lon="121.331693">
        <ele>203.0</ele>
      </trkpt>
      <trkpt lat="25.005675" lon="121.331286">
        <ele>197.0</ele>
      </trkpt>
      <trkpt lat="25.005676" lon="121.331279">
        <ele>197.0</ele>
      </trkpt>
      <trkpt lat="25.005676" lon="121.331279">
        <ele>197.0</ele>
      </trkpt>
      <trkpt lat="25.005675" lon="121.331286">
        <ele>197.0</ele>
      </trkpt>
      <trkpt lat="25.00585" lon="121.331358">
        <ele>199.0</ele>
      </trkpt>
      <trkpt lat="25.005944" lon="121.331424">
        <ele>199.0</ele>
      </trkpt>
      <trkpt lat="25.006541" lon="121.33134">
        <ele>193.0</ele>
      </trkpt>
      <trkpt lat="25.007535" lon="121.331138">
        <ele>195.0</ele>
      </trkpt>
      <trkpt lat="25.007939" lon="121.331112">
        <ele>197.0</ele>
      </trkpt>
      <trkpt lat="25.008405" lon="121.331331">
        <ele>205.0</ele>
      </trkpt>
      <trkpt lat="25.008699" lon="121.331421">
        <ele>213.0</ele>
      </trkpt>
      <trkpt lat="25.008872" lon="121.331156">
        <ele>210.0</ele>
      </trkpt>
      <trkpt lat="25.009077" lon="121.331208">
        <ele>215.0</ele>
      </trkpt>
      <trkpt lat="25.009531" lon="121.331253">
        <ele>221.0</ele>
      </trkpt>
      <trkpt lat="25.009714" lon="121.331312">
        <ele>224.0</ele>
      </trkpt>
      <trkpt lat="25.009987" lon="121.331623">
        <ele>237.0</ele>
      </trkpt>
      <trkpt lat="25.010004" lon="121.331688">
        <ele>239.0</ele>
      </trkpt>
      <trkpt lat="25.00996" lon="121.331691">
        <ele>239.0</ele>
      </trkpt>
      <trkpt lat="25.00996" lon="121.331691">
        <ele>239.0</ele>
      </trkpt>
      <trkpt lat="25.010004" lon="121.331688">
        <ele>239.0</ele>
      </trkpt>
      <trkpt lat="25.009987" lon="121.331623">
        <ele>237.0</ele>
      </trkpt>
      <trkpt lat="25.009714" lon="121.331312">
        <ele>224.0</ele>
      </trkpt>
      <trkpt lat="25.009531" lon="121.331253">
        <ele>221.0</ele>
      </trkpt>
      <trkpt lat="25.009077" lon="121.331208">
        <ele>215.0</ele>
      </trkpt>
      <trkpt lat="25.008872" lon="121.331156">
        <ele>210.0</ele>
      </trkpt>
      <trkpt lat="25.00901" lon="121.331011">
        <ele>209.0</ele>
      </trkpt>
      <trkpt lat="25.009424" lon="121.330949">
        <ele>211.0</ele>
      </trkpt>
      <trkpt lat="25.009509" lon="121.330747">
        <ele>206.0</ele>
      </trkpt>
      <trkpt lat="25.009683" lon="121.33075">
        <ele>206.0</ele>
      </trkpt>
      <trkpt lat="25.009881" lon="121.33106">
        <ele>217.0</ele>
      </trkpt>
      <trkpt lat="25.010115" lon="121.3313">
        <ele>225.0</ele>
      </trkpt>
      <trkpt lat="25.010305" lon="121.331238">
        <ele>222.0</ele>
      </trkpt>
      <trkpt lat="25.010305" lon="121.331238">
        <ele>222.0</ele>
      </trkpt>
      <trkpt lat="25.01044" lon="121.331193">
        <ele>219.0</ele>
      </trkpt>
      <trkpt lat="25.010699" lon="121.331586">
        <ele>228.0</ele>
      </trkpt>
      <trkpt lat="25.011022" lon="121.33158">
        <ele>228.0</ele>
      </trkpt>
      <trkpt lat="25.011469" lon="121.331411">
        <ele>229.0</ele>
      </trkpt>
      <trkpt lat="25.011764" lon="121.33098">
        <ele>225.0</ele>
      </trkpt>
      <trkpt lat="25.011793" lon="121.330853">
        <ele>224.0</ele>
      </trkpt>
      <trkpt lat="25.011793" lon="121.330853">
        <ele>224.0</ele>
      </trkpt>
      <trkpt lat="25.011865" lon="121.330546">
        <ele>220.0</ele>
      </trkpt>
      <trkpt lat="25.012166" lon="121.330346">
        <ele>223.0</ele>
      </trkpt>
      <trkpt lat="25.012418" lon="121.330204">
        <ele>227.0</ele>
      </trkpt>
      <trkpt lat="25.012559" lon="121.329814">
        <ele>227.0</ele>
      </trkpt>
      <trkpt lat="25.01255" lon="121.329639">
        <ele>226.0</ele>
      </trkpt>
      <trkpt lat="25.012784" lon="121.329443">
        <ele>224.0</ele>
      </trkpt>
      <trkpt lat="25.012797" lon="121.32918">
        <ele>221.0</ele>
      </trkpt>
      <trkpt lat="25.012769" lon="121.328982">
        <ele>220.0</ele>
      </trkpt>
      <trkpt lat="25.012778" lon="121.328987">
        <ele>220.0</ele>
      </trkpt>
      <trkpt lat="25.012778" lon="121.328987">
        <ele>220.0</ele>
      </trkpt>
      <trkpt lat="25.012893" lon="121.32911">
        <ele>221.0</ele>
      </trkpt>
      <trkpt lat="25.01303" lon="121.329347">
        <ele>223.0</ele>
      </trkpt>
      <trkpt lat="25.013167" lon="121.329442">
        <ele>224.0</ele>
      </trkpt>
      <trkpt lat="25.013389" lon="121.329469">
        <ele>224.0</ele>
      </trkpt>
      <trkpt lat="25.013704" lon="121.329547">
        <ele>224.0</ele>
      </trkpt>
      <trkpt lat="25.013753" lon="121.329516">
        <ele>224.0</ele>
      </trkpt>
      <trkpt lat="25.014219" lon="121.329663">
        <ele>228.0</ele>
      </trkpt>
      <trkpt lat="25.014583" lon="121.329753">
        <ele>234.0</ele>
      </trkpt>
      <trkpt lat="25.014942" lon="121.329803">
        <ele>238.0</ele>
      </trkpt>
      <trkpt lat="25.014942" lon="121.329803">
        <ele>238.0</ele>
      </trkpt>
      <trkpt lat="25.01539" lon="121.329874">
        <ele>240.0</ele>
      </trkpt>
      <trkpt lat="25.015893" lon="121.329984">
        <ele>243.0</ele>
      </trkpt>
      <trkpt lat="25.016024" lon="121.329984">
        <ele>244.0</ele>
      </trkpt>
      <trkpt lat="25.016291" lon="121.329941">
        <ele>246.0</ele>
      </trkpt>
      <trkpt lat="25.016413" lon="121.329906">
        <ele>247.0</ele>
      </trkpt>
      <trkpt lat="25.016499" lon="121.329847">
        <ele>247.0</ele>
      </trkpt>
      <trkpt lat="25.016576" lon="121.329749">
        <ele>246.0</ele>
      </trkpt>
      <trkpt lat="25.016591" lon="121.329702">
        <ele>246.0</ele>
      </trkpt>
      <trkpt lat="25.016653" lon="121.329773">
        <ele>248.0</ele>
      </trkpt>
      <trkpt lat="25.016711" lon="121.329882">
        <ele>248.0</ele>
      </trkpt>
      <trkpt lat="25.01672" lon="121.330277">
        <ele>249.0</ele>
      </trkpt>
      <trkpt lat="25.016603" lon="121.330484">
        <ele>249.0</ele>
      </trkpt>
      <trkpt lat="25.016691" lon="121.330568">
        <ele>249.0</ele>
      </trkpt>
      <trkpt lat="25.016749" lon="121.330594">
        <ele>248.0</ele>
      </trkpt>
      <trkpt lat="25.016749" lon="121.330594">
        <ele>248.0</ele>
      </trkpt>
      <trkpt lat="25.016691" lon="121.330568">
        <ele>249.0</ele>
      </trkpt>
      <trkpt lat="25.016603" lon="121.330484">
        <ele>249.0</ele>
      </trkpt>
      <trkpt lat="25.01672" lon="121.330277">
        <ele>249.0</ele>
      </trkpt>
      <trkpt lat="25.016711" lon="121.329882">
        <ele>248.0</ele>
      </trkpt>
      <trkpt lat="25.016653" lon="121.329773">
        <ele>248.0</ele>
      </trkpt>
      <trkpt lat="25.016591" lon="121.329702">
        <ele>246.0</ele>
      </trkpt>
      <trkpt lat="25.016576" lon="121.329749">
        <ele>246.0</ele>
      </trkpt>
      <trkpt lat="25.016499" lon="121.329847">
        <ele>247.0</ele>
      </trkpt>
      <trkpt lat="25.016413" lon="121.329906">
        <ele>247.0</ele>
      </trkpt>
      <trkpt lat="25.016291" lon="121.329941">
        <ele>246.0</ele>
      </trkpt>
      <trkpt lat="25.016024" lon="121.329984">
        <ele>244.0</ele>
      </trkpt>
      <trkpt lat="25.015893" lon="121.329984">
        <ele>243.0</ele>
      </trkpt>
      <trkpt lat="25.01539" lon="121.329874">
        <ele>240.0</ele>
      </trkpt>
      <trkpt lat="25.014583" lon="121.329753">
        <ele>234.0</ele>
      </trkpt>
      <trkpt lat="25.014219" lon="121.329663">
        <ele>228.0</ele>
      </trkpt>
      <trkpt lat="25.013664" lon="121.329479">
        <ele>223.0</ele>
      </trkpt>
      <trkpt lat="25.013421" lon="121.32942">
        <ele>224.0</ele>
      </trkpt>
      <trkpt lat="25.013179" lon="121.329387">
        <ele>224.0</ele>
      </trkpt>
      <trkpt lat="25.013076" lon="121.329316">
        <ele>223.0</ele>
      </trkpt>
      <trkpt lat="25.012937" lon="121.329075">
        <ele>221.0</ele>
      </trkpt>
      <trkpt lat="25.012839" lon="121.328959">
        <ele>220.0</ele>
      </trkpt>
      <trkpt lat="25.012578" lon="121.328859">
        <ele>221.0</ele>
      </trkpt>
      <trkpt lat="25.012449" lon="121.32885">
        <ele>221.0</ele>
      </trkpt>
      <trkpt lat="25.011911" lon="121.329019">
        <ele>216.0</ele>
      </trkpt>
      <trkpt lat="25.011941" lon="121.328898">
        <ele>217.0</ele>
      </trkpt>
      <trkpt lat="25.012008" lon="121.328793">
        <ele>218.0</ele>
      </trkpt>
      <trkpt lat="25.012289" lon="121.328654">
        <ele>220.0</ele>
      </trkpt>
      <trkpt lat="25.012251" lon="121.328589">
        <ele>220.0</ele>
      </trkpt>
      <trkpt lat="25.012225" lon="121.3286">
        <ele>220.0</ele>
      </trkpt>
      <trkpt lat="25.012225" lon="121.3286">
        <ele>220.0</ele>
      </trkpt>
      <trkpt lat="25.012251" lon="121.328589">
        <ele>220.0</ele>
      </trkpt>
      <trkpt lat="25.012312" lon="121.328415">
        <ele>221.0</ele>
      </trkpt>
      <trkpt lat="25.012573" lon="121.328265">
        <ele>218.0</ele>
      </trkpt>
      <trkpt lat="25.012554" lon="121.32807">
        <ele>213.0</ele>
      </trkpt>
      <trkpt lat="25.012554" lon="121.32807">
        <ele>213.0</ele>
      </trkpt>
      <trkpt lat="25.01252" lon="121.32796">
        <ele>210.0</ele>
      </trkpt>
      <trkpt lat="25.012439" lon="121.327861">
        <ele>207.0</ele>
      </trkpt>
      <trkpt lat="25.012274" lon="121.327815">
        <ele>205.0</ele>
      </trkpt>
      <trkpt lat="25.012156" lon="121.327837">
        <ele>206.0</ele>
      </trkpt>
      <trkpt lat="25.011999" lon="121.327933">
        <ele>208.0</ele>
      </trkpt>
      <trkpt lat="25.011999" lon="121.327933">
        <ele>208.0</ele>
      </trkpt>
      <trkpt lat="25.011711" lon="121.328109">
        <ele>212.0</ele>
      </trkpt>
      <trkpt lat="25.01145" lon="121.328232">
        <ele>211.0</ele>
      </trkpt>
      <trkpt lat="25.011207" lon="121.328322">
        <ele>210.0</ele>
      </trkpt>
      <trkpt lat="25.011157" lon="121.328366">
        <ele>209.0</ele>
      </trkpt>
      <trkpt lat="25.011105" lon="121.328477">
        <ele>207.0</ele>
      </trkpt>
      <trkpt lat="25.011083" lon="121.32856">
        <ele>206.0</ele>
      </trkpt>
      <trkpt lat="25.011083" lon="121.32856">
        <ele>206.0</ele>
      </trkpt>
      <trkpt lat="25.011068" lon="121.328621">
        <ele>206.0</ele>
      </trkpt>
      <trkpt lat="25.011151" lon="121.328732">
        <ele>206.0</ele>
      </trkpt>
      <trkpt lat="25.011261" lon="121.328785">
        <ele>208.0</ele>
      </trkpt>
      <trkpt lat="25.011414" lon="121.328813">
        <ele>210.0</ele>
      </trkpt>
      <trkpt lat="25.011588" lon="121.328819">
        <ele>213.0</ele>
      </trkpt>
      <trkpt lat="25.011774" lon="121.328789">
        <ele>216.0</ele>
      </trkpt>
      <trkpt lat="25.011774" lon="121.328789">
        <ele>216.0</ele>
      </trkpt>
      <trkpt lat="25.012251" lon="121.328589">
        <ele>220.0</ele>
      </trkpt>
      <trkpt lat="25.012289" lon="121.328654">
        <ele>220.0</ele>
      </trkpt>
      <trkpt lat="25.012008" lon="121.328793">
        <ele>218.0</ele>
      </trkpt>
      <trkpt lat="25.011941" lon="121.328898">
        <ele>217.0</ele>
      </trkpt>
      <trkpt lat="25.011911" lon="121.329019">
        <ele>216.0</ele>
      </trkpt>
      <trkpt lat="25.01181" lon="121.329035">
        <ele>215.0</ele>
      </trkpt>
      <trkpt lat="25.011812" lon="121.32908">
        <ele>215.0</ele>
      </trkpt>
      <trkpt lat="25.011738" lon="121.329082">
        <ele>214.0</ele>
      </trkpt>
      <trkpt lat="25.011738" lon="121.329082">
        <ele>214.0</ele>
      </trkpt>
      <trkpt lat="25.011496" lon="121.329086">
        <ele>210.0</ele>
      </trkpt>
      <trkpt lat="25.011292" lon="121.329055">
        <ele>207.0</ele>
      </trkpt>
      <trkpt lat="25.011132" lon="121.328981">
        <ele>204.0</ele>
      </trkpt>
      <trkpt lat="25.010556" lon="121.328559">
        <ele>200.0</ele>
      </trkpt>
      <trkpt lat="25.010383" lon="121.328472">
        <ele>200.0</ele>
      </trkpt>
      <trkpt lat="25.010383" lon="121.328472">
        <ele>200.0</ele>
      </trkpt>
      <trkpt lat="25.01021" lon="121.32843">
        <ele>199.0</ele>
      </trkpt>
      <trkpt lat="25.009914" lon="121.328454">
        <ele>196.0</ele>
      </trkpt>
      <trkpt lat="25.00966" lon="121.328456">
        <ele>194.0</ele>
      </trkpt>
      <trkpt lat="25.009547" lon="121.328396">
        <ele>194.0</ele>
      </trkpt>
      <trkpt lat="25.00947" lon="121.328268">
        <ele>194.0</ele>
      </trkpt>
      <trkpt lat="25.009326" lon="121.328209">
        <ele>192.0</ele>
      </trkpt>
      <trkpt lat="25.009057" lon="121.328176">
        <ele>191.0</ele>
      </trkpt>
      <trkpt lat="25.008601" lon="121.328247">
        <ele>193.0</ele>
      </trkpt>
      <trkpt lat="25.008264" lon="121.328184">
        <ele>192.0</ele>
      </trkpt>
      <trkpt lat="25.008141" lon="121.328099">
        <ele>190.0</ele>
      </trkpt>
      <trkpt lat="25.008096" lon="121.328021">
        <ele>189.0</ele>
      </trkpt>
      <trkpt lat="25.008057" lon="121.327992">
        <ele>189.0</ele>
      </trkpt>
      <trkpt lat="25.007891" lon="121.327968">
        <ele>189.0</ele>
      </trkpt>
      <trkpt lat="25.007667" lon="121.32788">
        <ele>190.0</ele>
      </trkpt>
      <trkpt lat="25.007644" lon="121.327859">
        <ele>190.0</ele>
      </trkpt>
      <trkpt lat="25.007644" lon="121.327859">
        <ele>190.0</ele>
      </trkpt>
      <trkpt lat="25.007418" lon="121.327645">
        <ele>191.0</ele>
      </trkpt>
      <trkpt lat="25.00728" lon="121.327608">
        <ele>189.0</ele>
      </trkpt>
      <trkpt lat="25.007119" lon="121.327456">
        <ele>188.0</ele>
      </trkpt>
      <trkpt lat="25.00686" lon="121.327302">
        <ele>183.0</ele>
      </trkpt>
      <trkpt lat="25.006681" lon="121.327251">
        <ele>181.0</ele>
      </trkpt>
      <trkpt lat="25.006569" lon="121.32724">
        <ele>179.0</ele>
      </trkpt>
      <trkpt lat="25.006374" lon="121.327261">
        <ele>178.0</ele>
      </trkpt>
      <trkpt lat="25.006266" lon="121.327255">
        <ele>177.0</ele>
      </trkpt>
      <trkpt lat="25.005986" lon="121.32734">
        <ele>176.0</ele>
      </trkpt>
      <trkpt lat="25.005614" lon="121.327406">
        <ele>170.0</ele>
      </trkpt>
      <trkpt lat="25.005156" lon="121.327258">
        <ele>158.0</ele>
      </trkpt>
      <trkpt lat="25.004603" lon="121.327298">
        <ele>147.0</ele>
      </trkpt>
      <trkpt lat="25.004487" lon="121.327188">
        <ele>144.0</ele>
      </trkpt>
      <trkpt lat="25.004487" lon="121.327188">
        <ele>144.0</ele>
      </trkpt>
      <trkpt lat="25.004402" lon="121.327141">
        <ele>142.0</ele>
      </trkpt>
      <trkpt lat="25.004338" lon="121.327042">
        <ele>140.0</ele>
      </trkpt>
      <trkpt lat="25.004517" lon="121.32698">
        <ele>143.0</ele>
      </trkpt>
      <trkpt lat="25.004533" lon="121.326903">
        <ele>143.0</ele>
      </trkpt>
      <trkpt lat="25.004098" lon="121.326964">
        <ele>136.0</ele>
      </trkpt>
      <trkpt lat="25.004242" lon="121.326826">
        <ele>137.0</ele>
      </trkpt>
      <trkpt lat="25.004109" lon="121.326838">
        <ele>135.0</ele>
      </trkpt>
      <trkpt lat="25.004047" lon="121.32694">
        <ele>135.0</ele>
      </trkpt>
      <trkpt lat="25.004003" lon="121.327107">
        <ele>135.0</ele>
      </trkpt>
      <trkpt lat="25.004054" lon="121.327367">
        <ele>138.0</ele>
      </trkpt>
      <trkpt lat="25.004135" lon="121.327464">
        <ele>139.0</ele>
      </trkpt>
      <trkpt lat="25.00411" lon="121.327536">
        <ele>139.0</ele>
      </trkpt>
      <trkpt lat="25.004062" lon="121.327461">
        <ele>138.0</ele>
      </trkpt>
      <trkpt lat="25.003927" lon="121.327566">
        <ele>136.0</ele>
      </trkpt>
      <trkpt lat="25.003628" lon="121.327798">
        <ele>133.0</ele>
      </trkpt>
      <trkpt lat="25.003557" lon="121.327792">
        <ele>132.0</ele>
      </trkpt>
      <trkpt lat="25.003371" lon="121.328047">
        <ele>133.0</ele>
      </trkpt>
      <trkpt lat="25.003335" lon="121.328096">
        <ele>134.0</ele>
      </trkpt>
      <trkpt lat="25.003169" lon="121.328324">
        <ele>137.0</ele>
      </trkpt>
      <trkpt lat="25.003116" lon="121.328345">
        <ele>137.0</ele>
      </trkpt>
      <trkpt lat="25.003064" lon="121.32834">
        <ele>137.0</ele>
      </trkpt>
      <trkpt lat="25.003026" lon="121.328294">
        <ele>137.0</ele>
      </trkpt>
      <trkpt lat="25.003" lon="121.328226">
        <ele>136.0</ele>
      </trkpt>
      <trkpt lat="25.002683" lon="121.327956">
        <ele>134.0</ele>
      </trkpt>
      <trkpt lat="25.002669" lon="121.32798">
        <ele>134.0</ele>
      </trkpt>
      <trkpt lat="25.002629" lon="121.328049">
        <ele>135.0</ele>
      </trkpt>
      <trkpt lat="25.002541" lon="121.328213">
        <ele>138.0</ele>
      </trkpt>
      <trkpt lat="25.002541" lon="121.328213">
        <ele>138.0</ele>
      </trkpt>
      <trkpt lat="25.002629" lon="121.328049">
        <ele>135.0</ele>
      </trkpt>
      <trkpt lat="25.002566" lon="121.328089">
        <ele>136.0</ele>
      </trkpt>
      <trkpt lat="25.002548" lon="121.328077">
        <ele>136.0</ele>
      </trkpt>
      <trkpt lat="25.002502" lon="121.328048">
        <ele>136.0</ele>
      </trkpt>
      <trkpt lat="25.002502" lon="121.328048">
        <ele>136.0</ele>
      </trkpt>
      <trkpt lat="25.002488" lon="121.328039">
        <ele>135.0</ele>
      </trkpt>
      <trkpt lat="25.002463" lon="121.32812">
        <ele>136.0</ele>
      </trkpt>
      <trkpt lat="25.002404" lon="121.328187">
        <ele>137.0</ele>
      </trkpt>
      <trkpt lat="25.002186" lon="121.328211">
        <ele>137.0</ele>
      </trkpt>
      <trkpt lat="25.002151" lon="121.328199">
        <ele>136.0</ele>
      </trkpt>
      <trkpt lat="25.001751" lon="121.328207">
        <ele>134.0</ele>
      </trkpt>
      <trkpt lat="25.001531" lon="121.328285">
        <ele>134.0</ele>
      </trkpt>
      <trkpt lat="25.001409" lon="121.328414">
        <ele>136.0</ele>
      </trkpt>
      <trkpt lat="25.001323" lon="121.328486">
        <ele>138.0</ele>
      </trkpt>
      <trkpt lat="25.001285" lon="121.328435">
        <ele>136.0</ele>
      </trkpt>
      <trkpt lat="25.001229" lon="121.328341">
        <ele>133.0</ele>
      </trkpt>
      <trkpt lat="25.000497" lon="121.328692">
        <ele>140.0</ele>
      </trkpt>
      <trkpt lat="25.000429" lon="121.328713">
        <ele>141.0</ele>
      </trkpt>
      <trkpt lat="25.000429" lon="121.328713">
        <ele>141.0</ele>
      </trkpt>
      <trkpt lat="24.999908" lon="121.328872">
        <ele>143.0</ele>
      </trkpt>
      <trkpt lat="24.999835" lon="121.328852">
        <ele>142.0</ele>
      </trkpt>
      <trkpt lat="24.999768" lon="121.328806">
        <ele>141.0</ele>
      </trkpt>
      <trkpt lat="24.999663" lon="121.328829">
        <ele>141.0</ele>
      </trkpt>
      <trkpt lat="24.999392" lon="121.328851">
        <ele>141.0</ele>
      </trkpt>
      <trkpt lat="24.999289" lon="121.328888">
        <ele>141.0</ele>
      </trkpt>
      <trkpt lat="24.999122" lon="121.328879">
        <ele>140.0</ele>
      </trkpt>
      <trkpt lat="24.998936" lon="121.328822">
        <ele>138.0</ele>
      </trkpt>
      <trkpt lat="24.998936" lon="121.328822">
        <ele>138.0</ele>
      </trkpt>
      <trkpt lat="24.998492" lon="121.328689">
        <ele>132.0</ele>
      </trkpt>
      <trkpt lat="24.998302" lon="121.328528">
        <ele>129.0</ele>
      </trkpt>
      <trkpt lat="24.998194" lon="121.328412">
        <ele>125.0</ele>
      </trkpt>
      <trkpt lat="24.998145" lon="121.328359">
        <ele>123.0</ele>
      </trkpt>
      <trkpt lat="24.998033" lon="121.328124">
        <ele>117.0</ele>
      </trkpt>
      <trkpt lat="24.997859" lon="121.327768">
        <ele>110.0</ele>
      </trkpt>
      <trkpt lat="24.997638" lon="121.327236">
        <ele>102.0</ele>
      </trkpt>
      <trkpt lat="24.997612" lon="121.327246">
        <ele>102.0</ele>
      </trkpt>
      <trkpt lat="24.997584" lon="121.327184">
        <ele>101.0</ele>
      </trkpt>
      <trkpt lat="24.997611" lon="121.327166">
        <ele>102.0</ele>
      </trkpt>
      <trkpt lat="24.997586" lon="121.327101">
        <ele>101.0</ele>
      </trkpt>
      <trkpt lat="24.99732" lon="121.326331">
        <ele>97.0</ele>
      </trkpt>
      <trkpt lat="24.997271" lon="121.326081">
        <ele>97.0</ele>
      </trkpt>
      <trkpt lat="24.997271" lon="121.326081">
        <ele>97.0</ele>
      </trkpt>
      <trkpt lat="24.997248" lon="121.325963">
        <ele>97.0</ele>
      </trkpt>
      <trkpt lat="24.997265" lon="121.325962">
        <ele>97.0</ele>
      </trkpt>
      <trkpt lat="24.997319" lon="121.325955">
        <ele>97.0</ele>
      </trkpt>
      <trkpt lat="24.99739" lon="121.325947">
        <ele>98.0</ele>
      </trkpt>
      <trkpt lat="24.997449" lon="121.325969">
        <ele>98.0</ele>
      </trkpt>
      <trkpt lat="24.997638" lon="121.325942">
        <ele>99.0</ele>
      </trkpt>
      <trkpt lat="24.997924" lon="121.325849">
        <ele>99.0</ele>
      </trkpt>
      <trkpt lat="24.998163" lon="121.325729">
        <ele>99.0</ele>
      </trkpt>
      <trkpt lat="24.998204" lon="121.325695">
        <ele>99.0</ele>
      </trkpt>
      <trkpt lat="24.998184" lon="121.325679">
        <ele>99.0</ele>
      </trkpt>
      <trkpt lat="24.998011" lon="121.325529">
        <ele>99.0</ele>
      </trkpt>
      <trkpt lat="24.998011" lon="121.325529">
        <ele>99.0</ele>
      </trkpt>
      <trkpt lat="24.997988" lon="121.325509">
        <ele>99.0</ele>
      </trkpt>
      <trkpt lat="24.998004" lon="121.325488">
        <ele>99.0</ele>
      </trkpt>
      <trkpt lat="24.997991" lon="121.325477">
        <ele>99.0</ele>
      </trkpt>
      <trkpt lat="24.99774" lon="121.325248">
        <ele>100.0</ele>
      </trkpt>
    </trkseg>
  </trk>
</gpx>
