<?xml version="1.0" encoding="UTF-8"?>
<gpx xmlns="http://www.topografix.com/GPX/1/1" xmlns:xsi="http://www.w3.org/2001/XMLSchema-instance" xsi:schemaLocation="http://www.topografix.com/GPX/1/1 http://www.topografix.com/GPX/1/1/gpx.xsd" version="1.1" creator="Martin Schneider">
  <wpt lat="24.836238" lon="121.445056">
    <ele>358.0</ele>
    <name>Start</name>
  </wpt>
  <wpt lat="24.832242" lon="121.408627">
    <ele>903.0</ele>
    <name>End</name>
  </wpt>
  <wpt lat="24.82508" lon="121.418245">
    <ele>1192.0</ele>
    <name>Summit Dongyanshan</name>
  </wpt>
  <wpt lat="24.818908" lon="121.448906">
    <name>1</name>
    <desc>Dongman trailhead</desc>
  </wpt>
  <wpt lat="24.8195074" lon="121.4537645">
    <name>2</name>
    <desc>Chunu Waterfall</desc>
  </wpt>
  <wpt lat="24.8172963" lon="121.449358">
    <name>3</name>
    <desc>Manyueyan Waterfall</desc>
  </wpt>
  <wpt lat="24.8149251" lon="121.4478798">
    <name>4</name>
    <desc>Xiaoni Waterfall</desc>
  </wpt>
  <wpt lat="24.816965" lon="121.447297">
    <name>5</name>
    <desc>Fork (stay on Dongman trail)</desc>
  </wpt>
  <wpt lat="24.8179056" lon="121.4093838">
    <name>6</name>
    <desc>Fork towards summit</desc>
  </wpt>
  <trk>
    <name>022_Dongyanshan</name>
    <trkseg>
      <trkpt lat="24.836238" lon="121.445056">
        <ele>358.0</ele>
      </trkpt>
      <trkpt lat="24.836238" lon="121.445056">
        <ele>358.0</ele>
      </trkpt>
      <trkpt lat="24.836203" lon="121.445147">
        <ele>357.0</ele>
      </trkpt>
      <trkpt lat="24.835986" lon="121.445054">
        <ele>356.0</ele>
      </trkpt>
      <trkpt lat="24.835882" lon="121.445063">
        <ele>355.0</ele>
      </trkpt>
      <trkpt lat="24.835343" lon="121.445368">
        <ele>361.0</ele>
      </trkpt>
      <trkpt lat="24.834984" lon="121.445632">
        <ele>361.0</ele>
      </trkpt>
      <trkpt lat="24.834956" lon="121.445667">
        <ele>361.0</ele>
      </trkpt>
      <trkpt lat="24.834897" lon="121.445744">
        <ele>360.0</ele>
      </trkpt>
      <trkpt lat="24.834874" lon="121.445774">
        <ele>359.0</ele>
      </trkpt>
      <trkpt lat="24.834721" lon="121.445909">
        <ele>362.0</ele>
      </trkpt>
      <trkpt lat="24.834641" lon="121.445941">
        <ele>363.0</ele>
      </trkpt>
      <trkpt lat="24.834273" lon="121.445916">
        <ele>361.0</ele>
      </trkpt>
      <trkpt lat="24.834273" lon="121.445916">
        <ele>361.0</ele>
      </trkpt>
      <trkpt lat="24.833955" lon="121.44586">
        <ele>358.0</ele>
      </trkpt>
      <trkpt lat="24.833838" lon="121.445861">
        <ele>358.0</ele>
      </trkpt>
      <trkpt lat="24.833789" lon="121.445862">
        <ele>357.0</ele>
      </trkpt>
      <trkpt lat="24.833607" lon="121.445874">
        <ele>357.0</ele>
      </trkpt>
      <trkpt lat="24.833452" lon="121.445907">
        <ele>356.0</ele>
      </trkpt>
      <trkpt lat="24.833091" lon="121.446066">
        <ele>359.0</ele>
      </trkpt>
      <trkpt lat="24.833091" lon="121.446066">
        <ele>359.0</ele>
      </trkpt>
      <trkpt lat="24.832725" lon="121.446212">
        <ele>363.0</ele>
      </trkpt>
      <trkpt lat="24.832551" lon="121.446225">
        <ele>364.0</ele>
      </trkpt>
      <trkpt lat="24.832238" lon="121.446222">
        <ele>366.0</ele>
      </trkpt>
      <trkpt lat="24.832238" lon="121.446222">
        <ele>366.0</ele>
      </trkpt>
      <trkpt lat="24.831664" lon="121.446217">
        <ele>370.0</ele>
      </trkpt>
      <trkpt lat="24.831542" lon="121.446188">
        <ele>374.0</ele>
      </trkpt>
      <trkpt lat="24.831433" lon="121.446111">
        <ele>377.0</ele>
      </trkpt>
      <trkpt lat="24.831433" lon="121.446111">
        <ele>377.0</ele>
      </trkpt>
      <trkpt lat="24.831394" lon="121.446074">
        <ele>377.0</ele>
      </trkpt>
      <trkpt lat="24.831302" lon="121.445919">
        <ele>376.0</ele>
      </trkpt>
      <trkpt lat="24.831166" lon="121.445528">
        <ele>379.0</ele>
      </trkpt>
      <trkpt lat="24.83123" lon="121.445476">
        <ele>378.0</ele>
      </trkpt>
      <trkpt lat="24.83123" lon="121.445476">
        <ele>378.0</ele>
      </trkpt>
      <trkpt lat="24.831236" lon="121.445471">
        <ele>378.0</ele>
      </trkpt>
      <trkpt lat="24.831242" lon="121.445452">
        <ele>378.0</ele>
      </trkpt>
      <trkpt lat="24.831258" lon="121.445402">
        <ele>378.0</ele>
      </trkpt>
      <trkpt lat="24.831157" lon="121.445316">
        <ele>380.0</ele>
      </trkpt>
      <trkpt lat="24.830908" lon="121.444925">
        <ele>384.0</ele>
      </trkpt>
      <trkpt lat="24.830873" lon="121.444816">
        <ele>386.0</ele>
      </trkpt>
      <trkpt lat="24.830866" lon="121.444584">
        <ele>390.0</ele>
      </trkpt>
      <trkpt lat="24.83073" lon="121.444496">
        <ele>392.0</ele>
      </trkpt>
      <trkpt lat="24.830593" lon="121.444525">
        <ele>393.0</ele>
      </trkpt>
      <trkpt lat="24.830408" lon="121.444605">
        <ele>393.0</ele>
      </trkpt>
      <trkpt lat="24.829498" lon="121.444536">
        <ele>404.0</ele>
      </trkpt>
      <trkpt lat="24.829315" lon="121.444543">
        <ele>405.0</ele>
      </trkpt>
      <trkpt lat="24.829222" lon="121.444568">
        <ele>406.0</ele>
      </trkpt>
      <trkpt lat="24.829139" lon="121.444615">
        <ele>407.0</ele>
      </trkpt>
      <trkpt lat="24.829065" lon="121.44468">
        <ele>410.0</ele>
      </trkpt>
      <trkpt lat="24.828791" lon="121.444996">
        <ele>418.0</ele>
      </trkpt>
      <trkpt lat="24.828635" lon="121.445225">
        <ele>424.0</ele>
      </trkpt>
      <trkpt lat="24.828536" lon="121.445433">
        <ele>424.0</ele>
      </trkpt>
      <trkpt lat="24.828442" lon="121.445733">
        <ele>419.0</ele>
      </trkpt>
      <trkpt lat="24.828399" lon="121.445807">
        <ele>417.0</ele>
      </trkpt>
      <trkpt lat="24.828191" lon="121.446022">
        <ele>425.0</ele>
      </trkpt>
      <trkpt lat="24.828077" lon="121.446195">
        <ele>429.0</ele>
      </trkpt>
      <trkpt lat="24.828028" lon="121.446246">
        <ele>431.0</ele>
      </trkpt>
      <trkpt lat="24.827559" lon="121.446571">
        <ele>434.0</ele>
      </trkpt>
      <trkpt lat="24.827429" lon="121.446693">
        <ele>437.0</ele>
      </trkpt>
      <trkpt lat="24.827337" lon="121.446808">
        <ele>443.0</ele>
      </trkpt>
      <trkpt lat="24.827122" lon="121.447131">
        <ele>451.0</ele>
      </trkpt>
      <trkpt lat="24.826913" lon="121.447539">
        <ele>447.0</ele>
      </trkpt>
      <trkpt lat="24.826778" lon="121.447735">
        <ele>445.0</ele>
      </trkpt>
      <trkpt lat="24.826682" lon="121.447836">
        <ele>443.0</ele>
      </trkpt>
      <trkpt lat="24.826539" lon="121.447944">
        <ele>443.0</ele>
      </trkpt>
      <trkpt lat="24.826216" lon="121.448107">
        <ele>445.0</ele>
      </trkpt>
      <trkpt lat="24.826045" lon="121.4482628">
        <ele>443.0</ele>
      </trkpt>
      <trkpt lat="24.826045" lon="121.448263">
        <ele>443.0</ele>
      </trkpt>
      <trkpt lat="24.825794" lon="121.448516">
        <ele>446.0</ele>
      </trkpt>
      <trkpt lat="24.82569" lon="121.448702">
        <ele>448.0</ele>
      </trkpt>
      <trkpt lat="24.82564" lon="121.448757">
        <ele>449.0</ele>
      </trkpt>
      <trkpt lat="24.825362" lon="121.448978">
        <ele>452.0</ele>
      </trkpt>
      <trkpt lat="24.825096" lon="121.449137">
        <ele>453.0</ele>
      </trkpt>
      <trkpt lat="24.824947" lon="121.44919">
        <ele>456.0</ele>
      </trkpt>
      <trkpt lat="24.824659" lon="121.449247">
        <ele>462.0</ele>
      </trkpt>
      <trkpt lat="24.824421" lon="121.449272">
        <ele>466.0</ele>
      </trkpt>
      <trkpt lat="24.824145" lon="121.449258">
        <ele>469.0</ele>
      </trkpt>
      <trkpt lat="24.824096" lon="121.449283">
        <ele>470.0</ele>
      </trkpt>
      <trkpt lat="24.823929" lon="121.449424">
        <ele>473.0</ele>
      </trkpt>
      <trkpt lat="24.823869" lon="121.449444">
        <ele>474.0</ele>
      </trkpt>
      <trkpt lat="24.823725" lon="121.449445">
        <ele>474.0</ele>
      </trkpt>
      <trkpt lat="24.823545" lon="121.449417">
        <ele>473.0</ele>
      </trkpt>
      <trkpt lat="24.823485" lon="121.449377">
        <ele>472.0</ele>
      </trkpt>
      <trkpt lat="24.823451" lon="121.449333">
        <ele>472.0</ele>
      </trkpt>
      <trkpt lat="24.823218" lon="121.449214">
        <ele>471.0</ele>
      </trkpt>
      <trkpt lat="24.823218" lon="121.449214">
        <ele>471.0</ele>
      </trkpt>
      <trkpt lat="24.822666" lon="121.448977">
        <ele>486.0</ele>
      </trkpt>
      <trkpt lat="24.822572" lon="121.448957">
        <ele>488.0</ele>
      </trkpt>
      <trkpt lat="24.822443" lon="121.448981">
        <ele>489.0</ele>
      </trkpt>
      <trkpt lat="24.822398" lon="121.449004">
        <ele>489.0</ele>
      </trkpt>
      <trkpt lat="24.822235" lon="121.449214">
        <ele>485.0</ele>
      </trkpt>
      <trkpt lat="24.822194" lon="121.449239">
        <ele>487.0</ele>
      </trkpt>
      <trkpt lat="24.82209" lon="121.449225">
        <ele>490.0</ele>
      </trkpt>
      <trkpt lat="24.822063" lon="121.448939">
        <ele>501.0</ele>
      </trkpt>
      <trkpt lat="24.822002" lon="121.448911">
        <ele>504.0</ele>
      </trkpt>
      <trkpt lat="24.821743" lon="121.449143">
        <ele>501.0</ele>
      </trkpt>
      <trkpt lat="24.821563" lon="121.449411">
        <ele>504.0</ele>
      </trkpt>
      <trkpt lat="24.821488" lon="121.449575">
        <ele>504.0</ele>
      </trkpt>
      <trkpt lat="24.821356" lon="121.449752">
        <ele>504.0</ele>
      </trkpt>
      <trkpt lat="24.821286" lon="121.449822">
        <ele>504.0</ele>
      </trkpt>
      <trkpt lat="24.821197" lon="121.44988">
        <ele>504.0</ele>
      </trkpt>
      <trkpt lat="24.82109" lon="121.449872">
        <ele>505.0</ele>
      </trkpt>
      <trkpt lat="24.82097" lon="121.449827">
        <ele>508.0</ele>
      </trkpt>
      <trkpt lat="24.820844" lon="121.449806">
        <ele>511.0</ele>
      </trkpt>
      <trkpt lat="24.820603" lon="121.449848">
        <ele>513.0</ele>
      </trkpt>
      <trkpt lat="24.820413" lon="121.449899">
        <ele>513.0</ele>
      </trkpt>
      <trkpt lat="24.820044" lon="121.449938">
        <ele>516.0</ele>
      </trkpt>
      <trkpt lat="24.820037" lon="121.450078">
        <ele>514.0</ele>
      </trkpt>
      <trkpt lat="24.819943" lon="121.450073">
        <ele>516.0</ele>
      </trkpt>
      <trkpt lat="24.8196024" lon="121.4502847">
        <ele>528.0</ele>
      </trkpt>
      <trkpt lat="24.819602" lon="121.45034">
        <ele>528.0</ele>
      </trkpt>
      <trkpt lat="24.819751" lon="121.450458">
        <ele>525.0</ele>
      </trkpt>
      <trkpt lat="24.819645" lon="121.450674">
        <ele>530.0</ele>
      </trkpt>
      <trkpt lat="24.819612" lon="121.450547">
        <ele>529.0</ele>
      </trkpt>
      <trkpt lat="24.819526" lon="121.450613">
        <ele>532.0</ele>
      </trkpt>
      <trkpt lat="24.819314" lon="121.450595">
        <ele>538.0</ele>
      </trkpt>
      <trkpt lat="24.819524" lon="121.450743">
        <ele>533.0</ele>
      </trkpt>
      <trkpt lat="24.819417" lon="121.450754">
        <ele>536.0</ele>
      </trkpt>
      <trkpt lat="24.819294" lon="121.450732">
        <ele>540.0</ele>
      </trkpt>
      <trkpt lat="24.819406" lon="121.450856">
        <ele>538.0</ele>
      </trkpt>
      <trkpt lat="24.819364" lon="121.451102">
        <ele>548.0</ele>
      </trkpt>
      <trkpt lat="24.819436" lon="121.451316">
        <ele>554.0</ele>
      </trkpt>
      <trkpt lat="24.819378" lon="121.451612">
        <ele>566.0</ele>
      </trkpt>
      <trkpt lat="24.8194" lon="121.451721">
        <ele>569.0</ele>
      </trkpt>
      <trkpt lat="24.819309" lon="121.451881">
        <ele>574.0</ele>
      </trkpt>
      <trkpt lat="24.819303" lon="121.452194">
        <ele>579.0</ele>
      </trkpt>
      <trkpt lat="24.819398" lon="121.452391">
        <ele>582.0</ele>
      </trkpt>
      <trkpt lat="24.819364" lon="121.452583">
        <ele>586.0</ele>
      </trkpt>
      <trkpt lat="24.819318" lon="121.452692">
        <ele>588.0</ele>
      </trkpt>
      <trkpt lat="24.819356" lon="121.452843">
        <ele>591.0</ele>
      </trkpt>
      <trkpt lat="24.819354" lon="121.452975">
        <ele>593.0</ele>
      </trkpt>
      <trkpt lat="24.819333" lon="121.453106">
        <ele>596.0</ele>
      </trkpt>
      <trkpt lat="24.819339" lon="121.453201">
        <ele>598.0</ele>
      </trkpt>
      <trkpt lat="24.819325" lon="121.453329">
        <ele>600.0</ele>
      </trkpt>
      <trkpt lat="24.819347" lon="121.453477">
        <ele>605.0</ele>
      </trkpt>
      <trkpt lat="24.819405" lon="121.4536">
        <ele>609.0</ele>
      </trkpt>
      <trkpt lat="24.819407" lon="121.453649">
        <ele>611.0</ele>
      </trkpt>
      <trkpt lat="24.819429" lon="121.453676">
        <ele>612.0</ele>
      </trkpt>
      <trkpt lat="24.819429" lon="121.453676">
        <ele>612.0</ele>
      </trkpt>
      <trkpt lat="24.819407" lon="121.453649">
        <ele>611.0</ele>
      </trkpt>
      <trkpt lat="24.819405" lon="121.4536">
        <ele>609.0</ele>
      </trkpt>
      <trkpt lat="24.819347" lon="121.453477">
        <ele>605.0</ele>
      </trkpt>
      <trkpt lat="24.819325" lon="121.453329">
        <ele>600.0</ele>
      </trkpt>
      <trkpt lat="24.819339" lon="121.453201">
        <ele>598.0</ele>
      </trkpt>
      <trkpt lat="24.819333" lon="121.453106">
        <ele>596.0</ele>
      </trkpt>
      <trkpt lat="24.819354" lon="121.452975">
        <ele>593.0</ele>
      </trkpt>
      <trkpt lat="24.819356" lon="121.452843">
        <ele>591.0</ele>
      </trkpt>
      <trkpt lat="24.819318" lon="121.452692">
        <ele>588.0</ele>
      </trkpt>
      <trkpt lat="24.819364" lon="121.452583">
        <ele>586.0</ele>
      </trkpt>
      <trkpt lat="24.819398" lon="121.452391">
        <ele>582.0</ele>
      </trkpt>
      <trkpt lat="24.819303" lon="121.452194">
        <ele>579.0</ele>
      </trkpt>
      <trkpt lat="24.819309" lon="121.451881">
        <ele>574.0</ele>
      </trkpt>
      <trkpt lat="24.8194" lon="121.451721">
        <ele>569.0</ele>
      </trkpt>
      <trkpt lat="24.819378" lon="121.451612">
        <ele>566.0</ele>
      </trkpt>
      <trkpt lat="24.819436" lon="121.451316">
        <ele>554.0</ele>
      </trkpt>
      <trkpt lat="24.819364" lon="121.451102">
        <ele>548.0</ele>
      </trkpt>
      <trkpt lat="24.819406" lon="121.450856">
        <ele>538.0</ele>
      </trkpt>
      <trkpt lat="24.819294" lon="121.450732">
        <ele>540.0</ele>
      </trkpt>
      <trkpt lat="24.819417" lon="121.450754">
        <ele>536.0</ele>
      </trkpt>
      <trkpt lat="24.819524" lon="121.450743">
        <ele>533.0</ele>
      </trkpt>
      <trkpt lat="24.819314" lon="121.450595">
        <ele>538.0</ele>
      </trkpt>
      <trkpt lat="24.819526" lon="121.450613">
        <ele>532.0</ele>
      </trkpt>
      <trkpt lat="24.819612" lon="121.450547">
        <ele>529.0</ele>
      </trkpt>
      <trkpt lat="24.819645" lon="121.450674">
        <ele>530.0</ele>
      </trkpt>
      <trkpt lat="24.819751" lon="121.450458">
        <ele>525.0</ele>
      </trkpt>
      <trkpt lat="24.819602" lon="121.45034">
        <ele>528.0</ele>
      </trkpt>
      <trkpt lat="24.819603" lon="121.450184">
        <ele>527.0</ele>
      </trkpt>
      <trkpt lat="24.819592" lon="121.450134">
        <ele>527.0</ele>
      </trkpt>
      <trkpt lat="24.819646" lon="121.450085">
        <ele>525.0</ele>
      </trkpt>
      <trkpt lat="24.819686" lon="121.449994">
        <ele>523.0</ele>
      </trkpt>
      <trkpt lat="24.819638" lon="121.449964">
        <ele>526.0</ele>
      </trkpt>
      <trkpt lat="24.819586" lon="121.449988">
        <ele>526.0</ele>
      </trkpt>
      <trkpt lat="24.819555" lon="121.449952">
        <ele>528.0</ele>
      </trkpt>
      <trkpt lat="24.819478" lon="121.449976">
        <ele>530.0</ele>
      </trkpt>
      <trkpt lat="24.819471" lon="121.449877">
        <ele>533.0</ele>
      </trkpt>
      <trkpt lat="24.819419" lon="121.449947">
        <ele>532.0</ele>
      </trkpt>
      <trkpt lat="24.819176" lon="121.44997">
        <ele>538.0</ele>
      </trkpt>
      <trkpt lat="24.818959" lon="121.449935">
        <ele>542.0</ele>
      </trkpt>
      <trkpt lat="24.818826" lon="121.449896">
        <ele>545.0</ele>
      </trkpt>
      <trkpt lat="24.818748" lon="121.449822">
        <ele>549.0</ele>
      </trkpt>
      <trkpt lat="24.818646" lon="121.449767">
        <ele>552.0</ele>
      </trkpt>
      <trkpt lat="24.818712" lon="121.4496">
        <ele>556.0</ele>
      </trkpt>
      <trkpt lat="24.818814" lon="121.449598">
        <ele>555.0</ele>
      </trkpt>
      <trkpt lat="24.81872" lon="121.449481">
        <ele>560.0</ele>
      </trkpt>
      <trkpt lat="24.818818" lon="121.449498">
        <ele>558.0</ele>
      </trkpt>
      <trkpt lat="24.818882" lon="121.449354">
        <ele>560.0</ele>
      </trkpt>
      <trkpt lat="24.818869" lon="121.448913">
        <ele>575.0</ele>
      </trkpt>
      <trkpt lat="24.818857" lon="121.44884">
        <ele>578.0</ele>
      </trkpt>
      <trkpt lat="24.818794" lon="121.448842">
        <ele>579.0</ele>
      </trkpt>
      <trkpt lat="24.818565" lon="121.449021">
        <ele>580.0</ele>
      </trkpt>
      <trkpt lat="24.818503" lon="121.448926">
        <ele>585.0</ele>
      </trkpt>
      <trkpt lat="24.818375" lon="121.449041">
        <ele>585.0</ele>
      </trkpt>
      <trkpt lat="24.818168" lon="121.449062">
        <ele>588.0</ele>
      </trkpt>
      <trkpt lat="24.818318" lon="121.448652">
        <ele>602.0</ele>
      </trkpt>
      <trkpt lat="24.818199" lon="121.448668">
        <ele>605.0</ele>
      </trkpt>
      <trkpt lat="24.818007" lon="121.448725">
        <ele>609.0</ele>
      </trkpt>
      <trkpt lat="24.818056" lon="121.448403">
        <ele>623.0</ele>
      </trkpt>
      <trkpt lat="24.817968" lon="121.448285">
        <ele>632.0</ele>
      </trkpt>
      <trkpt lat="24.817807" lon="121.448368">
        <ele>636.0</ele>
      </trkpt>
      <trkpt lat="24.817664" lon="121.448359">
        <ele>643.0</ele>
      </trkpt>
      <trkpt lat="24.817634" lon="121.448169">
        <ele>651.0</ele>
      </trkpt>
      <trkpt lat="24.817474" lon="121.448007">
        <ele>663.0</ele>
      </trkpt>
      <trkpt lat="24.817403" lon="121.447798">
        <ele>670.0</ele>
      </trkpt>
      <trkpt lat="24.817389" lon="121.447652">
        <ele>676.0</ele>
      </trkpt>
      <trkpt lat="24.817133" lon="121.447373">
        <ele>687.0</ele>
      </trkpt>
      <trkpt lat="24.816938" lon="121.447303">
        <ele>690.0</ele>
      </trkpt>
      <trkpt lat="24.816936" lon="121.447294">
        <ele>691.0</ele>
      </trkpt>
      <trkpt lat="24.816936" lon="121.447294">
        <ele>691.0</ele>
      </trkpt>
      <trkpt lat="24.816938" lon="121.447303">
        <ele>690.0</ele>
      </trkpt>
      <trkpt lat="24.816807" lon="121.44714">
        <ele>698.0</ele>
      </trkpt>
      <trkpt lat="24.816614" lon="121.44685">
        <ele>711.0</ele>
      </trkpt>
      <trkpt lat="24.816573" lon="121.446584">
        <ele>722.0</ele>
      </trkpt>
      <trkpt lat="24.816471" lon="121.446377">
        <ele>730.0</ele>
      </trkpt>
      <trkpt lat="24.816225" lon="121.446122">
        <ele>742.0</ele>
      </trkpt>
      <trkpt lat="24.816038" lon="121.446063">
        <ele>746.0</ele>
      </trkpt>
      <trkpt lat="24.815774" lon="121.446131">
        <ele>744.0</ele>
      </trkpt>
      <trkpt lat="24.815619" lon="121.446206">
        <ele>737.0</ele>
      </trkpt>
      <trkpt lat="24.815392" lon="121.44597">
        <ele>750.0</ele>
      </trkpt>
      <trkpt lat="24.815152" lon="121.446004">
        <ele>745.0</ele>
      </trkpt>
      <trkpt lat="24.815047" lon="121.445856">
        <ele>756.0</ele>
      </trkpt>
      <trkpt lat="24.815076" lon="121.445637">
        <ele>770.0</ele>
      </trkpt>
      <trkpt lat="24.814974" lon="121.445474">
        <ele>778.0</ele>
      </trkpt>
      <trkpt lat="24.814788" lon="121.445426">
        <ele>778.0</ele>
      </trkpt>
      <trkpt lat="24.814703" lon="121.44508">
        <ele>797.0</ele>
      </trkpt>
      <trkpt lat="24.814523" lon="121.444897">
        <ele>806.0</ele>
      </trkpt>
      <trkpt lat="24.814424" lon="121.444695">
        <ele>817.0</ele>
      </trkpt>
      <trkpt lat="24.814248" lon="121.444549">
        <ele>823.0</ele>
      </trkpt>
      <trkpt lat="24.814034" lon="121.444588">
        <ele>820.0</ele>
      </trkpt>
      <trkpt lat="24.813878" lon="121.444656">
        <ele>818.0</ele>
      </trkpt>
      <trkpt lat="24.813625" lon="121.444817">
        <ele>812.0</ele>
      </trkpt>
      <trkpt lat="24.813411" lon="121.444856">
        <ele>812.0</ele>
      </trkpt>
      <trkpt lat="24.813079" lon="121.445117">
        <ele>803.0</ele>
      </trkpt>
      <trkpt lat="24.812827" lon="121.445242">
        <ele>802.0</ele>
      </trkpt>
      <trkpt lat="24.812515" lon="121.445289">
        <ele>807.0</ele>
      </trkpt>
      <trkpt lat="24.812359" lon="121.445171">
        <ele>807.0</ele>
      </trkpt>
      <trkpt lat="24.812261" lon="121.444559">
        <ele>823.0</ele>
      </trkpt>
      <trkpt lat="24.812242" lon="121.444309">
        <ele>829.0</ele>
      </trkpt>
      <trkpt lat="24.812106" lon="121.443998">
        <ele>835.0</ele>
      </trkpt>
      <trkpt lat="24.811911" lon="121.443794">
        <ele>837.0</ele>
      </trkpt>
      <trkpt lat="24.811687" lon="121.443647">
        <ele>834.0</ele>
      </trkpt>
      <trkpt lat="24.811239" lon="121.443182">
        <ele>851.0</ele>
      </trkpt>
      <trkpt lat="24.811054" lon="121.443175">
        <ele>850.0</ele>
      </trkpt>
      <trkpt lat="24.810966" lon="121.443304">
        <ele>846.0</ele>
      </trkpt>
      <trkpt lat="24.810752" lon="121.443497">
        <ele>841.0</ele>
      </trkpt>
      <trkpt lat="24.810431" lon="121.443601">
        <ele>850.0</ele>
      </trkpt>
      <trkpt lat="24.810209" lon="121.443693">
        <ele>855.0</ele>
      </trkpt>
      <trkpt lat="24.810209" lon="121.443693">
        <ele>855.0</ele>
      </trkpt>
      <trkpt lat="24.810138" lon="121.443722">
        <ele>857.0</ele>
      </trkpt>
      <trkpt lat="24.809797" lon="121.443658">
        <ele>869.0</ele>
      </trkpt>
      <trkpt lat="24.809662" lon="121.443526">
        <ele>878.0</ele>
      </trkpt>
      <trkpt lat="24.809466" lon="121.443272">
        <ele>892.0</ele>
      </trkpt>
      <trkpt lat="24.809331" lon="121.443193">
        <ele>896.0</ele>
      </trkpt>
      <trkpt lat="24.808853" lon="121.443422">
        <ele>891.0</ele>
      </trkpt>
      <trkpt lat="24.808756" lon="121.443311">
        <ele>896.0</ele>
      </trkpt>
      <trkpt lat="24.8086" lon="121.443197">
        <ele>900.0</ele>
      </trkpt>
      <trkpt lat="24.808366" lon="121.442821">
        <ele>911.0</ele>
      </trkpt>
      <trkpt lat="24.808279" lon="121.442636">
        <ele>916.0</ele>
      </trkpt>
      <trkpt lat="24.807986" lon="121.4424">
        <ele>924.0</ele>
      </trkpt>
      <trkpt lat="24.80786" lon="121.442531">
        <ele>919.0</ele>
      </trkpt>
      <trkpt lat="24.807665" lon="121.442636">
        <ele>915.0</ele>
      </trkpt>
      <trkpt lat="24.80748" lon="121.442678">
        <ele>914.0</ele>
      </trkpt>
      <trkpt lat="24.807266" lon="121.442239">
        <ele>931.0</ele>
      </trkpt>
      <trkpt lat="24.807032" lon="121.442253">
        <ele>931.0</ele>
      </trkpt>
      <trkpt lat="24.806671" lon="121.442102">
        <ele>941.0</ele>
      </trkpt>
      <trkpt lat="24.806584" lon="121.441963">
        <ele>948.0</ele>
      </trkpt>
      <trkpt lat="24.806623" lon="121.441791">
        <ele>956.0</ele>
      </trkpt>
      <trkpt lat="24.806535" lon="121.441662">
        <ele>962.0</ele>
      </trkpt>
      <trkpt lat="24.806447" lon="121.441609">
        <ele>965.0</ele>
      </trkpt>
      <trkpt lat="24.806506" lon="121.441459">
        <ele>973.0</ele>
      </trkpt>
      <trkpt lat="24.806467" lon="121.441308">
        <ele>982.0</ele>
      </trkpt>
      <trkpt lat="24.806223" lon="121.44118">
        <ele>989.0</ele>
      </trkpt>
      <trkpt lat="24.806223" lon="121.440954">
        <ele>1002.0</ele>
      </trkpt>
      <trkpt lat="24.806243" lon="121.440718">
        <ele>1015.0</ele>
      </trkpt>
      <trkpt lat="24.806321" lon="121.440547">
        <ele>1024.0</ele>
      </trkpt>
      <trkpt lat="24.806389" lon="121.44045">
        <ele>1029.0</ele>
      </trkpt>
      <trkpt lat="24.806321" lon="121.4403">
        <ele>1038.0</ele>
      </trkpt>
      <trkpt lat="24.806408" lon="121.439774">
        <ele>1065.0</ele>
      </trkpt>
      <trkpt lat="24.806408" lon="121.439334">
        <ele>1087.0</ele>
      </trkpt>
      <trkpt lat="24.80671" lon="121.439173">
        <ele>1091.0</ele>
      </trkpt>
      <trkpt lat="24.806837" lon="121.439066">
        <ele>1095.0</ele>
      </trkpt>
      <trkpt lat="24.806886" lon="121.43897">
        <ele>1098.0</ele>
      </trkpt>
      <trkpt lat="24.806817" lon="121.438798">
        <ele>1105.0</ele>
      </trkpt>
      <trkpt lat="24.806837" lon="121.438269">
        <ele>1125.0</ele>
      </trkpt>
      <trkpt lat="24.806778" lon="121.438176">
        <ele>1129.0</ele>
      </trkpt>
      <trkpt lat="24.80671" lon="121.438015">
        <ele>1134.0</ele>
      </trkpt>
      <trkpt lat="24.806691" lon="121.437693">
        <ele>1144.0</ele>
      </trkpt>
      <trkpt lat="24.806574" lon="121.43751">
        <ele>1152.0</ele>
      </trkpt>
      <trkpt lat="24.806773" lon="121.437537">
        <ele>1147.0</ele>
      </trkpt>
      <trkpt lat="24.807007" lon="121.437429">
        <ele>1144.0</ele>
      </trkpt>
      <trkpt lat="24.807591" lon="121.437064">
        <ele>1133.0</ele>
      </trkpt>
      <trkpt lat="24.807747" lon="121.43685">
        <ele>1130.0</ele>
      </trkpt>
      <trkpt lat="24.807844" lon="121.436678">
        <ele>1127.0</ele>
      </trkpt>
      <trkpt lat="24.808175" lon="121.436743">
        <ele>1122.0</ele>
      </trkpt>
      <trkpt lat="24.80839" lon="121.436743">
        <ele>1120.0</ele>
      </trkpt>
      <trkpt lat="24.808721" lon="121.436528">
        <ele>1118.0</ele>
      </trkpt>
      <trkpt lat="24.809013" lon="121.436421">
        <ele>1118.0</ele>
      </trkpt>
      <trkpt lat="24.809597" lon="121.435756">
        <ele>1114.0</ele>
      </trkpt>
      <trkpt lat="24.809827" lon="121.435521">
        <ele>1113.0</ele>
      </trkpt>
      <trkpt lat="24.809827" lon="121.435521">
        <ele>1113.0</ele>
      </trkpt>
      <trkpt lat="24.80987" lon="121.435477">
        <ele>1113.0</ele>
      </trkpt>
      <trkpt lat="24.810026" lon="121.435219">
        <ele>1106.0</ele>
      </trkpt>
      <trkpt lat="24.810318" lon="121.435047">
        <ele>1093.0</ele>
      </trkpt>
      <trkpt lat="24.810552" lon="121.434854">
        <ele>1080.0</ele>
      </trkpt>
      <trkpt lat="24.810863" lon="121.434983">
        <ele>1082.0</ele>
      </trkpt>
      <trkpt lat="24.811155" lon="121.435198">
        <ele>1095.0</ele>
      </trkpt>
      <trkpt lat="24.81135" lon="121.435369">
        <ele>1103.0</ele>
      </trkpt>
      <trkpt lat="24.811467" lon="121.435176">
        <ele>1095.0</ele>
      </trkpt>
      <trkpt lat="24.811662" lon="121.434919">
        <ele>1085.0</ele>
      </trkpt>
      <trkpt lat="24.811662" lon="121.434768">
        <ele>1079.0</ele>
      </trkpt>
      <trkpt lat="24.811876" lon="121.434532">
        <ele>1079.0</ele>
      </trkpt>
      <trkpt lat="24.812246" lon="121.433932">
        <ele>1077.0</ele>
      </trkpt>
      <trkpt lat="24.812304" lon="121.433524">
        <ele>1068.0</ele>
      </trkpt>
      <trkpt lat="24.812499" lon="121.433181">
        <ele>1070.0</ele>
      </trkpt>
      <trkpt lat="24.812694" lon="121.432988">
        <ele>1068.0</ele>
      </trkpt>
      <trkpt lat="24.812772" lon="121.432816">
        <ele>1066.0</ele>
      </trkpt>
      <trkpt lat="24.812694" lon="121.432601">
        <ele>1062.0</ele>
      </trkpt>
      <trkpt lat="24.812908" lon="121.43243">
        <ele>1061.0</ele>
      </trkpt>
      <trkpt lat="24.813142" lon="121.432301">
        <ele>1063.0</ele>
      </trkpt>
      <trkpt lat="24.813634" lon="121.431814">
        <ele>1061.0</ele>
      </trkpt>
      <trkpt lat="24.813734" lon="121.431678">
        <ele>1061.0</ele>
      </trkpt>
      <trkpt lat="24.813736" lon="121.431393">
        <ele>1061.0</ele>
      </trkpt>
      <trkpt lat="24.813779" lon="121.431374">
        <ele>1061.0</ele>
      </trkpt>
      <trkpt lat="24.813773" lon="121.43131">
        <ele>1061.0</ele>
      </trkpt>
      <trkpt lat="24.813807" lon="121.431128">
        <ele>1062.0</ele>
      </trkpt>
      <trkpt lat="24.813735" lon="121.430923">
        <ele>1061.0</ele>
      </trkpt>
      <trkpt lat="24.813718" lon="121.430771">
        <ele>1060.0</ele>
      </trkpt>
      <trkpt lat="24.813747" lon="121.430561">
        <ele>1060.0</ele>
      </trkpt>
      <trkpt lat="24.81382" lon="121.430496">
        <ele>1061.0</ele>
      </trkpt>
      <trkpt lat="24.813886" lon="121.430469">
        <ele>1063.0</ele>
      </trkpt>
      <trkpt lat="24.813973" lon="121.430466">
        <ele>1065.0</ele>
      </trkpt>
      <trkpt lat="24.814068" lon="121.430338">
        <ele>1067.0</ele>
      </trkpt>
      <trkpt lat="24.814089" lon="121.430124">
        <ele>1067.0</ele>
      </trkpt>
      <trkpt lat="24.814052" lon="121.429927">
        <ele>1065.0</ele>
      </trkpt>
      <trkpt lat="24.814006" lon="121.429845">
        <ele>1062.0</ele>
      </trkpt>
      <trkpt lat="24.814015" lon="121.429723">
        <ele>1060.0</ele>
      </trkpt>
      <trkpt lat="24.814109" lon="121.42954">
        <ele>1061.0</ele>
      </trkpt>
      <trkpt lat="24.814077" lon="121.429361">
        <ele>1057.0</ele>
      </trkpt>
      <trkpt lat="24.81395" lon="121.429197">
        <ele>1050.0</ele>
      </trkpt>
      <trkpt lat="24.813892" lon="121.429003">
        <ele>1042.0</ele>
      </trkpt>
      <trkpt lat="24.813919" lon="121.428965">
        <ele>1042.0</ele>
      </trkpt>
      <trkpt lat="24.814125" lon="121.428967">
        <ele>1048.0</ele>
      </trkpt>
      <trkpt lat="24.81436" lon="121.428875">
        <ele>1049.0</ele>
      </trkpt>
      <trkpt lat="24.814456" lon="121.428815">
        <ele>1048.0</ele>
      </trkpt>
      <trkpt lat="24.814836" lon="121.428675">
        <ele>1049.0</ele>
      </trkpt>
      <trkpt lat="24.814895" lon="121.428095">
        <ele>1024.0</ele>
      </trkpt>
      <trkpt lat="24.81507" lon="121.427902">
        <ele>1016.0</ele>
      </trkpt>
      <trkpt lat="24.815284" lon="121.427709">
        <ele>1009.0</ele>
      </trkpt>
      <trkpt lat="24.81544" lon="121.427473">
        <ele>999.0</ele>
      </trkpt>
      <trkpt lat="24.815693" lon="121.42758">
        <ele>1006.0</ele>
      </trkpt>
      <trkpt lat="24.815849" lon="121.427816">
        <ele>1018.0</ele>
      </trkpt>
      <trkpt lat="24.816005" lon="121.427687">
        <ele>1017.0</ele>
      </trkpt>
      <trkpt lat="24.816005" lon="121.427323">
        <ele>1003.0</ele>
      </trkpt>
      <trkpt lat="24.815888" lon="121.426936">
        <ele>986.0</ele>
      </trkpt>
      <trkpt lat="24.815849" lon="121.426486">
        <ele>969.0</ele>
      </trkpt>
      <trkpt lat="24.815908" lon="121.426185">
        <ele>956.0</ele>
      </trkpt>
      <trkpt lat="24.81618" lon="121.426121">
        <ele>953.0</ele>
      </trkpt>
      <trkpt lat="24.816453" lon="121.426293">
        <ele>964.0</ele>
      </trkpt>
      <trkpt lat="24.816648" lon="121.42625">
        <ele>962.0</ele>
      </trkpt>
      <trkpt lat="24.816784" lon="121.4261">
        <ele>954.0</ele>
      </trkpt>
      <trkpt lat="24.81694" lon="121.42625">
        <ele>965.0</ele>
      </trkpt>
      <trkpt lat="24.817213" lon="121.426443">
        <ele>977.0</ele>
      </trkpt>
      <trkpt lat="24.817427" lon="121.426357">
        <ele>973.0</ele>
      </trkpt>
      <trkpt lat="24.817563" lon="121.426164">
        <ele>969.0</ele>
      </trkpt>
      <trkpt lat="24.817563" lon="121.425949">
        <ele>960.0</ele>
      </trkpt>
      <trkpt lat="24.817485" lon="121.425692">
        <ele>949.0</ele>
      </trkpt>
      <trkpt lat="24.817427" lon="121.425413">
        <ele>944.0</ele>
      </trkpt>
      <trkpt lat="24.817505" lon="121.425113">
        <ele>944.0</ele>
      </trkpt>
      <trkpt lat="24.817388" lon="121.424941">
        <ele>935.0</ele>
      </trkpt>
      <trkpt lat="24.817329" lon="121.424662">
        <ele>928.0</ele>
      </trkpt>
      <trkpt lat="24.817544" lon="121.424469">
        <ele>941.0</ele>
      </trkpt>
      <trkpt lat="24.817446" lon="121.423804">
        <ele>931.0</ele>
      </trkpt>
      <trkpt lat="24.817251" lon="121.42346">
        <ele>919.0</ele>
      </trkpt>
      <trkpt lat="24.817057" lon="121.42316">
        <ele>908.0</ele>
      </trkpt>
      <trkpt lat="24.816414" lon="121.422602">
        <ele>877.0</ele>
      </trkpt>
      <trkpt lat="24.816278" lon="121.422323">
        <ele>863.0</ele>
      </trkpt>
      <trkpt lat="24.816258" lon="121.42198">
        <ele>852.0</ele>
      </trkpt>
      <trkpt lat="24.816433" lon="121.422087">
        <ele>865.0</ele>
      </trkpt>
      <trkpt lat="24.816589" lon="121.421958">
        <ele>868.0</ele>
      </trkpt>
      <trkpt lat="24.816745" lon="121.421915">
        <ele>873.0</ele>
      </trkpt>
      <trkpt lat="24.817037" lon="121.421894">
        <ele>879.0</ele>
      </trkpt>
      <trkpt lat="24.817329" lon="121.421722">
        <ele>879.0</ele>
      </trkpt>
      <trkpt lat="24.817446" lon="121.421593">
        <ele>875.0</ele>
      </trkpt>
      <trkpt lat="24.817427" lon="121.421315">
        <ele>860.0</ele>
      </trkpt>
      <trkpt lat="24.817427" lon="121.421314">
        <ele>860.0</ele>
      </trkpt>
      <trkpt lat="24.817738" lon="121.421272">
        <ele>862.0</ele>
      </trkpt>
      <trkpt lat="24.817992" lon="121.421272">
        <ele>866.0</ele>
      </trkpt>
      <trkpt lat="24.818128" lon="121.4214">
        <ele>873.0</ele>
      </trkpt>
      <trkpt lat="24.818303" lon="121.421379">
        <ele>874.0</ele>
      </trkpt>
      <trkpt lat="24.818342" lon="121.421186">
        <ele>867.0</ele>
      </trkpt>
      <trkpt lat="24.818498" lon="121.421014">
        <ele>866.0</ele>
      </trkpt>
      <trkpt lat="24.818673" lon="121.421014">
        <ele>871.0</ele>
      </trkpt>
      <trkpt lat="24.81881" lon="121.420928">
        <ele>872.0</ele>
      </trkpt>
      <trkpt lat="24.819043" lon="121.420864">
        <ele>877.0</ele>
      </trkpt>
      <trkpt lat="24.819199" lon="121.420864">
        <ele>883.0</ele>
      </trkpt>
      <trkpt lat="24.819452" lon="121.420821">
        <ele>891.0</ele>
      </trkpt>
      <trkpt lat="24.819472" lon="121.420649">
        <ele>893.0</ele>
      </trkpt>
      <trkpt lat="24.819316" lon="121.420628">
        <ele>887.0</ele>
      </trkpt>
      <trkpt lat="24.81918" lon="121.420692">
        <ele>882.0</ele>
      </trkpt>
      <trkpt lat="24.818965" lon="121.420628">
        <ele>875.0</ele>
      </trkpt>
      <trkpt lat="24.818788" lon="121.420417">
        <ele>869.0</ele>
      </trkpt>
      <trkpt lat="24.818673" lon="121.420263">
        <ele>864.0</ele>
      </trkpt>
      <trkpt lat="24.818517" lon="121.419512">
        <ele>881.0</ele>
      </trkpt>
      <trkpt lat="24.818459" lon="121.419383">
        <ele>884.0</ele>
      </trkpt>
      <trkpt lat="24.818264" lon="121.419383">
        <ele>875.0</ele>
      </trkpt>
      <trkpt lat="24.817894" lon="121.419061">
        <ele>877.0</ele>
      </trkpt>
      <trkpt lat="24.817758" lon="121.418976">
        <ele>876.0</ele>
      </trkpt>
      <trkpt lat="24.817485" lon="121.418976">
        <ele>866.0</ele>
      </trkpt>
      <trkpt lat="24.817115" lon="121.419083">
        <ele>854.0</ele>
      </trkpt>
      <trkpt lat="24.816959" lon="121.419083">
        <ele>852.0</ele>
      </trkpt>
      <trkpt lat="24.816823" lon="121.418997">
        <ele>853.0</ele>
      </trkpt>
      <trkpt lat="24.816706" lon="121.418804">
        <ele>855.0</ele>
      </trkpt>
      <trkpt lat="24.816628" lon="121.418546">
        <ele>859.0</ele>
      </trkpt>
      <trkpt lat="24.816609" lon="121.418182">
        <ele>866.0</ele>
      </trkpt>
      <trkpt lat="24.81657" lon="121.417924">
        <ele>870.0</ele>
      </trkpt>
      <trkpt lat="24.816395" lon="121.417731">
        <ele>865.0</ele>
      </trkpt>
      <trkpt lat="24.816239" lon="121.417517">
        <ele>861.0</ele>
      </trkpt>
      <trkpt lat="24.816375" lon="121.417302">
        <ele>869.0</ele>
      </trkpt>
      <trkpt lat="24.816453" lon="121.417044">
        <ele>876.0</ele>
      </trkpt>
      <trkpt lat="24.816453" lon="121.416723">
        <ele>878.0</ele>
      </trkpt>
      <trkpt lat="24.816395" lon="121.416508">
        <ele>870.0</ele>
      </trkpt>
      <trkpt lat="24.816492" lon="121.416293">
        <ele>874.0</ele>
      </trkpt>
      <trkpt lat="24.816687" lon="121.415972">
        <ele>882.0</ele>
      </trkpt>
      <trkpt lat="24.816804" lon="121.415714">
        <ele>887.0</ele>
      </trkpt>
      <trkpt lat="24.816784" lon="121.415285">
        <ele>884.0</ele>
      </trkpt>
      <trkpt lat="24.81655" lon="121.414684">
        <ele>874.0</ele>
      </trkpt>
      <trkpt lat="24.816433" lon="121.41447">
        <ele>872.0</ele>
      </trkpt>
      <trkpt lat="24.816433" lon="121.414062">
        <ele>882.0</ele>
      </trkpt>
      <trkpt lat="24.816404" lon="121.41392">
        <ele>884.0</ele>
      </trkpt>
      <trkpt lat="24.816404" lon="121.41392">
        <ele>884.0</ele>
      </trkpt>
      <trkpt lat="24.816375" lon="121.413783">
        <ele>885.0</ele>
      </trkpt>
      <trkpt lat="24.816161" lon="121.413461">
        <ele>881.0</ele>
      </trkpt>
      <trkpt lat="24.815864" lon="121.413123">
        <ele>881.0</ele>
      </trkpt>
      <trkpt lat="24.815731" lon="121.41302">
        <ele>883.0</ele>
      </trkpt>
      <trkpt lat="24.815488" lon="121.412935">
        <ele>881.0</ele>
      </trkpt>
      <trkpt lat="24.815323" lon="121.412903">
        <ele>877.0</ele>
      </trkpt>
      <trkpt lat="24.815095" lon="121.412924">
        <ele>870.0</ele>
      </trkpt>
      <trkpt lat="24.815043" lon="121.412899">
        <ele>869.0</ele>
      </trkpt>
      <trkpt lat="24.814997" lon="121.412843">
        <ele>869.0</ele>
      </trkpt>
      <trkpt lat="24.81498" lon="121.412784">
        <ele>870.0</ele>
      </trkpt>
      <trkpt lat="24.814992" lon="121.412704">
        <ele>873.0</ele>
      </trkpt>
      <trkpt lat="24.815107" lon="121.412371">
        <ele>886.0</ele>
      </trkpt>
      <trkpt lat="24.815104" lon="121.412213">
        <ele>889.0</ele>
      </trkpt>
      <trkpt lat="24.814997" lon="121.41203">
        <ele>888.0</ele>
      </trkpt>
      <trkpt lat="24.814729" lon="121.411682">
        <ele>882.0</ele>
      </trkpt>
      <trkpt lat="24.814676" lon="121.411574">
        <ele>877.0</ele>
      </trkpt>
      <trkpt lat="24.814664" lon="121.411494">
        <ele>875.0</ele>
      </trkpt>
      <trkpt lat="24.814664" lon="121.411494">
        <ele>875.0</ele>
      </trkpt>
      <trkpt lat="24.814686" lon="121.41143">
        <ele>875.0</ele>
      </trkpt>
      <trkpt lat="24.814727" lon="121.411376">
        <ele>875.0</ele>
      </trkpt>
      <trkpt lat="24.8148" lon="121.411341">
        <ele>877.0</ele>
      </trkpt>
      <trkpt lat="24.814905" lon="121.411328">
        <ele>881.0</ele>
      </trkpt>
      <trkpt lat="24.814973" lon="121.411349">
        <ele>884.0</ele>
      </trkpt>
      <trkpt lat="24.815107" lon="121.411502">
        <ele>893.0</ele>
      </trkpt>
      <trkpt lat="24.815177" lon="121.411556">
        <ele>897.0</ele>
      </trkpt>
      <trkpt lat="24.815243" lon="121.411572">
        <ele>900.0</ele>
      </trkpt>
      <trkpt lat="24.815606" lon="121.411548">
        <ele>909.0</ele>
      </trkpt>
      <trkpt lat="24.815861" lon="121.411513">
        <ele>916.0</ele>
      </trkpt>
      <trkpt lat="24.816" lon="121.41148">
        <ele>924.0</ele>
      </trkpt>
      <trkpt lat="24.816102" lon="121.411419">
        <ele>928.0</ele>
      </trkpt>
      <trkpt lat="24.81621" lon="121.411287">
        <ele>931.0</ele>
      </trkpt>
      <trkpt lat="24.816283" lon="121.411132">
        <ele>932.0</ele>
      </trkpt>
      <trkpt lat="24.816307" lon="121.410982">
        <ele>930.0</ele>
      </trkpt>
      <trkpt lat="24.816326" lon="121.41056">
        <ele>922.0</ele>
      </trkpt>
      <trkpt lat="24.81628" lon="121.410244">
        <ele>913.0</ele>
      </trkpt>
      <trkpt lat="24.816287" lon="121.410177">
        <ele>912.0</ele>
      </trkpt>
      <trkpt lat="24.816419" lon="121.409911">
        <ele>917.0</ele>
      </trkpt>
      <trkpt lat="24.816506" lon="121.409622">
        <ele>918.0</ele>
      </trkpt>
      <trkpt lat="24.816506" lon="121.409622">
        <ele>918.0</ele>
      </trkpt>
      <trkpt lat="24.816601" lon="121.409308">
        <ele>918.0</ele>
      </trkpt>
      <trkpt lat="24.816643" lon="121.409235">
        <ele>920.0</ele>
      </trkpt>
      <trkpt lat="24.816694" lon="121.409185">
        <ele>921.0</ele>
      </trkpt>
      <trkpt lat="24.816806" lon="121.40916">
        <ele>922.0</ele>
      </trkpt>
      <trkpt lat="24.816974" lon="121.409185">
        <ele>924.0</ele>
      </trkpt>
      <trkpt lat="24.817544" lon="121.409329">
        <ele>936.0</ele>
      </trkpt>
      <trkpt lat="24.817724" lon="121.409353">
        <ele>936.0</ele>
      </trkpt>
      <trkpt lat="24.81787" lon="121.409353">
        <ele>935.0</ele>
      </trkpt>
      <trkpt lat="24.817876" lon="121.409366">
        <ele>935.0</ele>
      </trkpt>
      <trkpt lat="24.817876" lon="121.409366">
        <ele>935.0</ele>
      </trkpt>
      <trkpt lat="24.818261" lon="121.410095">
        <ele>970.0</ele>
      </trkpt>
      <trkpt lat="24.818371" lon="121.410345">
        <ele>984.0</ele>
      </trkpt>
      <trkpt lat="24.818384" lon="121.4106">
        <ele>996.0</ele>
      </trkpt>
      <trkpt lat="24.818325" lon="121.410768">
        <ele>1003.0</ele>
      </trkpt>
      <trkpt lat="24.818325" lon="121.410768">
        <ele>1003.0</ele>
      </trkpt>
      <trkpt lat="24.818268" lon="121.410847">
        <ele>1006.0</ele>
      </trkpt>
      <trkpt lat="24.818284" lon="121.41095">
        <ele>1011.0</ele>
      </trkpt>
      <trkpt lat="24.818426" lon="121.411042">
        <ele>1019.0</ele>
      </trkpt>
      <trkpt lat="24.818361" lon="121.41119">
        <ele>1023.0</ele>
      </trkpt>
      <trkpt lat="24.818475" lon="121.4113">
        <ele>1033.0</ele>
      </trkpt>
      <trkpt lat="24.818384" lon="121.411385">
        <ele>1033.0</ele>
      </trkpt>
      <trkpt lat="24.818593" lon="121.411445">
        <ele>1044.0</ele>
      </trkpt>
      <trkpt lat="24.818938" lon="121.41129">
        <ele>1050.0</ele>
      </trkpt>
      <trkpt lat="24.819156" lon="121.411165">
        <ele>1052.0</ele>
      </trkpt>
      <trkpt lat="24.819374" lon="121.411125">
        <ele>1058.0</ele>
      </trkpt>
      <trkpt lat="24.819679" lon="121.410855">
        <ele>1056.0</ele>
      </trkpt>
      <trkpt lat="24.819897" lon="121.410865">
        <ele>1065.0</ele>
      </trkpt>
      <trkpt lat="24.820003" lon="121.410655">
        <ele>1062.0</ele>
      </trkpt>
      <trkpt lat="24.820121" lon="121.41075">
        <ele>1065.0</ele>
      </trkpt>
      <trkpt lat="24.820062" lon="121.410777">
        <ele>1066.0</ele>
      </trkpt>
      <trkpt lat="24.820044" lon="121.410823">
        <ele>1068.0</ele>
      </trkpt>
      <trkpt lat="24.820105" lon="121.410905">
        <ele>1071.0</ele>
      </trkpt>
      <trkpt lat="24.820151" lon="121.410936">
        <ele>1073.0</ele>
      </trkpt>
      <trkpt lat="24.820182" lon="121.410989">
        <ele>1075.0</ele>
      </trkpt>
      <trkpt lat="24.820166" lon="121.411044">
        <ele>1077.0</ele>
      </trkpt>
      <trkpt lat="24.820116" lon="121.411064">
        <ele>1078.0</ele>
      </trkpt>
      <trkpt lat="24.820184" lon="121.411203">
        <ele>1083.0</ele>
      </trkpt>
      <trkpt lat="24.820182" lon="121.41129">
        <ele>1087.0</ele>
      </trkpt>
      <trkpt lat="24.82012" lon="121.411398">
        <ele>1092.0</ele>
      </trkpt>
      <trkpt lat="24.820207" lon="121.41152">
        <ele>1096.0</ele>
      </trkpt>
      <trkpt lat="24.819966" lon="121.411576">
        <ele>1100.0</ele>
      </trkpt>
      <trkpt lat="24.819917" lon="121.411569">
        <ele>1098.0</ele>
      </trkpt>
      <trkpt lat="24.819826" lon="121.411709">
        <ele>1101.0</ele>
      </trkpt>
      <trkpt lat="24.819821" lon="121.411815">
        <ele>1105.0</ele>
      </trkpt>
      <trkpt lat="24.819857" lon="121.411851">
        <ele>1107.0</ele>
      </trkpt>
      <trkpt lat="24.819872" lon="121.411903">
        <ele>1109.0</ele>
      </trkpt>
      <trkpt lat="24.819775" lon="121.411964">
        <ele>1109.0</ele>
      </trkpt>
      <trkpt lat="24.819702" lon="121.412037">
        <ele>1109.0</ele>
      </trkpt>
      <trkpt lat="24.819667" lon="121.412097">
        <ele>1110.0</ele>
      </trkpt>
      <trkpt lat="24.81956" lon="121.412173">
        <ele>1110.0</ele>
      </trkpt>
      <trkpt lat="24.819502" lon="121.412162">
        <ele>1108.0</ele>
      </trkpt>
      <trkpt lat="24.819457" lon="121.412113">
        <ele>1105.0</ele>
      </trkpt>
      <trkpt lat="24.819405" lon="121.412115">
        <ele>1104.0</ele>
      </trkpt>
      <trkpt lat="24.819347" lon="121.412142">
        <ele>1103.0</ele>
      </trkpt>
      <trkpt lat="24.81936" lon="121.412193">
        <ele>1105.0</ele>
      </trkpt>
      <trkpt lat="24.819333" lon="121.412257">
        <ele>1107.0</ele>
      </trkpt>
      <trkpt lat="24.819486" lon="121.412529">
        <ele>1120.0</ele>
      </trkpt>
      <trkpt lat="24.819516" lon="121.412547">
        <ele>1122.0</ele>
      </trkpt>
      <trkpt lat="24.819532" lon="121.412599">
        <ele>1123.0</ele>
      </trkpt>
      <trkpt lat="24.819664" lon="121.412733">
        <ele>1131.0</ele>
      </trkpt>
      <trkpt lat="24.819726" lon="121.412824">
        <ele>1135.0</ele>
      </trkpt>
      <trkpt lat="24.819777" lon="121.412827">
        <ele>1137.0</ele>
      </trkpt>
      <trkpt lat="24.819763" lon="121.412868">
        <ele>1137.0</ele>
      </trkpt>
      <trkpt lat="24.819861" lon="121.412963">
        <ele>1144.0</ele>
      </trkpt>
      <trkpt lat="24.819868" lon="121.41301">
        <ele>1145.0</ele>
      </trkpt>
      <trkpt lat="24.819926" lon="121.413139">
        <ele>1152.0</ele>
      </trkpt>
      <trkpt lat="24.819965" lon="121.413185">
        <ele>1155.0</ele>
      </trkpt>
      <trkpt lat="24.82002" lon="121.413211">
        <ele>1157.0</ele>
      </trkpt>
      <trkpt lat="24.820146" lon="121.413169">
        <ele>1153.0</ele>
      </trkpt>
      <trkpt lat="24.820149" lon="121.413231">
        <ele>1154.0</ele>
      </trkpt>
      <trkpt lat="24.820129" lon="121.413273">
        <ele>1156.0</ele>
      </trkpt>
      <trkpt lat="24.820186" lon="121.413308">
        <ele>1156.0</ele>
      </trkpt>
      <trkpt lat="24.820205" lon="121.413352">
        <ele>1157.0</ele>
      </trkpt>
      <trkpt lat="24.820153" lon="121.413342">
        <ele>1158.0</ele>
      </trkpt>
      <trkpt lat="24.820112" lon="121.413362">
        <ele>1159.0</ele>
      </trkpt>
      <trkpt lat="24.820171" lon="121.413447">
        <ele>1160.0</ele>
      </trkpt>
      <trkpt lat="24.82018" lon="121.413554">
        <ele>1162.0</ele>
      </trkpt>
      <trkpt lat="24.820143" lon="121.41359">
        <ele>1164.0</ele>
      </trkpt>
      <trkpt lat="24.820155" lon="121.413775">
        <ele>1167.0</ele>
      </trkpt>
      <trkpt lat="24.820121" lon="121.413858">
        <ele>1170.0</ele>
      </trkpt>
      <trkpt lat="24.819963" lon="121.413871">
        <ele>1170.0</ele>
      </trkpt>
      <trkpt lat="24.819946" lon="121.413915">
        <ele>1169.0</ele>
      </trkpt>
      <trkpt lat="24.819898" lon="121.41383">
        <ele>1165.0</ele>
      </trkpt>
      <trkpt lat="24.819883" lon="121.413891">
        <ele>1165.0</ele>
      </trkpt>
      <trkpt lat="24.819922" lon="121.413974">
        <ele>1169.0</ele>
      </trkpt>
      <trkpt lat="24.819893" lon="121.41404">
        <ele>1168.0</ele>
      </trkpt>
      <trkpt lat="24.819959" lon="121.414014">
        <ele>1172.0</ele>
      </trkpt>
      <trkpt lat="24.820242" lon="121.414029">
        <ele>1172.0</ele>
      </trkpt>
      <trkpt lat="24.820306" lon="121.414007">
        <ele>1170.0</ele>
      </trkpt>
      <trkpt lat="24.820497" lon="121.414138">
        <ele>1171.0</ele>
      </trkpt>
      <trkpt lat="24.820433" lon="121.414243">
        <ele>1170.0</ele>
      </trkpt>
      <trkpt lat="24.820943" lon="121.414322">
        <ele>1161.0</ele>
      </trkpt>
      <trkpt lat="24.821005" lon="121.414382">
        <ele>1159.0</ele>
      </trkpt>
      <trkpt lat="24.821052" lon="121.414375">
        <ele>1158.0</ele>
      </trkpt>
      <trkpt lat="24.821123" lon="121.414599">
        <ele>1154.0</ele>
      </trkpt>
      <trkpt lat="24.821274" lon="121.414633">
        <ele>1152.0</ele>
      </trkpt>
      <trkpt lat="24.821298" lon="121.414663">
        <ele>1152.0</ele>
      </trkpt>
      <trkpt lat="24.821263" lon="121.414679">
        <ele>1152.0</ele>
      </trkpt>
      <trkpt lat="24.821261" lon="121.414722">
        <ele>1152.0</ele>
      </trkpt>
      <trkpt lat="24.821326" lon="121.4148">
        <ele>1152.0</ele>
      </trkpt>
      <trkpt lat="24.821384" lon="121.414816">
        <ele>1152.0</ele>
      </trkpt>
      <trkpt lat="24.821375" lon="121.414771">
        <ele>1152.0</ele>
      </trkpt>
      <trkpt lat="24.821424" lon="121.414746">
        <ele>1151.0</ele>
      </trkpt>
      <trkpt lat="24.82154" lon="121.414859">
        <ele>1152.0</ele>
      </trkpt>
      <trkpt lat="24.821627" lon="121.414856">
        <ele>1152.0</ele>
      </trkpt>
      <trkpt lat="24.821678" lon="121.41488">
        <ele>1152.0</ele>
      </trkpt>
      <trkpt lat="24.821694" lon="121.414962">
        <ele>1153.0</ele>
      </trkpt>
      <trkpt lat="24.821738" lon="121.415011">
        <ele>1152.0</ele>
      </trkpt>
      <trkpt lat="24.821756" lon="121.415114">
        <ele>1150.0</ele>
      </trkpt>
      <trkpt lat="24.821787" lon="121.415159">
        <ele>1149.0</ele>
      </trkpt>
      <trkpt lat="24.821801" lon="121.415252">
        <ele>1147.0</ele>
      </trkpt>
      <trkpt lat="24.821841" lon="121.415313">
        <ele>1146.0</ele>
      </trkpt>
      <trkpt lat="24.821841" lon="121.415313">
        <ele>1146.0</ele>
      </trkpt>
      <trkpt lat="24.821864" lon="121.415347">
        <ele>1145.0</ele>
      </trkpt>
      <trkpt lat="24.821956" lon="121.41539">
        <ele>1144.0</ele>
      </trkpt>
      <trkpt lat="24.821962" lon="121.415429">
        <ele>1143.0</ele>
      </trkpt>
      <trkpt lat="24.822057" lon="121.415471">
        <ele>1143.0</ele>
      </trkpt>
      <trkpt lat="24.822079" lon="121.415426">
        <ele>1143.0</ele>
      </trkpt>
      <trkpt lat="24.822125" lon="121.415444">
        <ele>1143.0</ele>
      </trkpt>
      <trkpt lat="24.82214" lon="121.415493">
        <ele>1143.0</ele>
      </trkpt>
      <trkpt lat="24.822179" lon="121.415519">
        <ele>1143.0</ele>
      </trkpt>
      <trkpt lat="24.822232" lon="121.415511">
        <ele>1143.0</ele>
      </trkpt>
      <trkpt lat="24.822288" lon="121.415524">
        <ele>1143.0</ele>
      </trkpt>
      <trkpt lat="24.822371" lon="121.415653">
        <ele>1144.0</ele>
      </trkpt>
      <trkpt lat="24.822411" lon="121.415618">
        <ele>1144.0</ele>
      </trkpt>
      <trkpt lat="24.822484" lon="121.415666">
        <ele>1145.0</ele>
      </trkpt>
      <trkpt lat="24.822591" lon="121.415772">
        <ele>1148.0</ele>
      </trkpt>
      <trkpt lat="24.822591" lon="121.415816">
        <ele>1148.0</ele>
      </trkpt>
      <trkpt lat="24.822687" lon="121.415929">
        <ele>1148.0</ele>
      </trkpt>
      <trkpt lat="24.822813" lon="121.415963">
        <ele>1150.0</ele>
      </trkpt>
      <trkpt lat="24.822859" lon="121.41595">
        <ele>1151.0</ele>
      </trkpt>
      <trkpt lat="24.822913" lon="121.415958">
        <ele>1152.0</ele>
      </trkpt>
      <trkpt lat="24.822936" lon="121.415992">
        <ele>1152.0</ele>
      </trkpt>
      <trkpt lat="24.822991" lon="121.416014">
        <ele>1153.0</ele>
      </trkpt>
      <trkpt lat="24.823055" lon="121.416081">
        <ele>1155.0</ele>
      </trkpt>
      <trkpt lat="24.823151" lon="121.416107">
        <ele>1157.0</ele>
      </trkpt>
      <trkpt lat="24.82315" lon="121.416054">
        <ele>1158.0</ele>
      </trkpt>
      <trkpt lat="24.823245" lon="121.416069">
        <ele>1160.0</ele>
      </trkpt>
      <trkpt lat="24.823228" lon="121.416131">
        <ele>1160.0</ele>
      </trkpt>
      <trkpt lat="24.823307" lon="121.416273">
        <ele>1163.0</ele>
      </trkpt>
      <trkpt lat="24.823283" lon="121.416335">
        <ele>1162.0</ele>
      </trkpt>
      <trkpt lat="24.823251" lon="121.41637">
        <ele>1160.0</ele>
      </trkpt>
      <trkpt lat="24.82331" lon="121.416502">
        <ele>1163.0</ele>
      </trkpt>
      <trkpt lat="24.823387" lon="121.416384">
        <ele>1165.0</ele>
      </trkpt>
      <trkpt lat="24.823428" lon="121.416353">
        <ele>1166.0</ele>
      </trkpt>
      <trkpt lat="24.823525" lon="121.416321">
        <ele>1168.0</ele>
      </trkpt>
      <trkpt lat="24.823623" lon="121.416314">
        <ele>1169.0</ele>
      </trkpt>
      <trkpt lat="24.823651" lon="121.416228">
        <ele>1170.0</ele>
      </trkpt>
      <trkpt lat="24.823722" lon="121.416226">
        <ele>1171.0</ele>
      </trkpt>
      <trkpt lat="24.823769" lon="121.416185">
        <ele>1172.0</ele>
      </trkpt>
      <trkpt lat="24.823846" lon="121.416179">
        <ele>1173.0</ele>
      </trkpt>
      <trkpt lat="24.823879" lon="121.416087">
        <ele>1174.0</ele>
      </trkpt>
      <trkpt lat="24.823958" lon="121.416022">
        <ele>1175.0</ele>
      </trkpt>
      <trkpt lat="24.824047" lon="121.416036">
        <ele>1177.0</ele>
      </trkpt>
      <trkpt lat="24.824128" lon="121.416138">
        <ele>1179.0</ele>
      </trkpt>
      <trkpt lat="24.824122" lon="121.416213">
        <ele>1179.0</ele>
      </trkpt>
      <trkpt lat="24.824144" lon="121.416264">
        <ele>1180.0</ele>
      </trkpt>
      <trkpt lat="24.824147" lon="121.416316">
        <ele>1180.0</ele>
      </trkpt>
      <trkpt lat="24.824187" lon="121.416344">
        <ele>1180.0</ele>
      </trkpt>
      <trkpt lat="24.824217" lon="121.416446">
        <ele>1181.0</ele>
      </trkpt>
      <trkpt lat="24.824306" lon="121.4165">
        <ele>1181.0</ele>
      </trkpt>
      <trkpt lat="24.8243" lon="121.416551">
        <ele>1181.0</ele>
      </trkpt>
      <trkpt lat="24.824333" lon="121.416592">
        <ele>1182.0</ele>
      </trkpt>
      <trkpt lat="24.824376" lon="121.416603">
        <ele>1182.0</ele>
      </trkpt>
      <trkpt lat="24.824402" lon="121.416564">
        <ele>1181.0</ele>
      </trkpt>
      <trkpt lat="24.824508" lon="121.416559">
        <ele>1181.0</ele>
      </trkpt>
      <trkpt lat="24.824595" lon="121.416628">
        <ele>1182.0</ele>
      </trkpt>
      <trkpt lat="24.824648" lon="121.416642">
        <ele>1182.0</ele>
      </trkpt>
      <trkpt lat="24.824732" lon="121.416765">
        <ele>1183.0</ele>
      </trkpt>
      <trkpt lat="24.824724" lon="121.416819">
        <ele>1183.0</ele>
      </trkpt>
      <trkpt lat="24.824777" lon="121.41682">
        <ele>1183.0</ele>
      </trkpt>
      <trkpt lat="24.824777" lon="121.41682">
        <ele>1183.0</ele>
      </trkpt>
      <trkpt lat="24.824929" lon="121.416897">
        <ele>1185.0</ele>
      </trkpt>
      <trkpt lat="24.82503" lon="121.416919">
        <ele>1185.0</ele>
      </trkpt>
      <trkpt lat="24.825054" lon="121.416971">
        <ele>1185.0</ele>
      </trkpt>
      <trkpt lat="24.82501" lon="121.417013">
        <ele>1187.0</ele>
      </trkpt>
      <trkpt lat="24.825049" lon="121.417019">
        <ele>1186.0</ele>
      </trkpt>
      <trkpt lat="24.825076" lon="121.417053">
        <ele>1186.0</ele>
      </trkpt>
      <trkpt lat="24.825093" lon="121.417014">
        <ele>1185.0</ele>
      </trkpt>
      <trkpt lat="24.825158" lon="121.417016">
        <ele>1184.0</ele>
      </trkpt>
      <trkpt lat="24.825212" lon="121.41708">
        <ele>1184.0</ele>
      </trkpt>
      <trkpt lat="24.825216" lon="121.417119">
        <ele>1184.0</ele>
      </trkpt>
      <trkpt lat="24.825179" lon="121.417243">
        <ele>1186.0</ele>
      </trkpt>
      <trkpt lat="24.825178" lon="121.417334">
        <ele>1186.0</ele>
      </trkpt>
      <trkpt lat="24.825102" lon="121.417372">
        <ele>1188.0</ele>
      </trkpt>
      <trkpt lat="24.82508" lon="121.417401">
        <ele>1189.0</ele>
      </trkpt>
      <trkpt lat="24.825077" lon="121.417476">
        <ele>1190.0</ele>
      </trkpt>
      <trkpt lat="24.825153" lon="121.417472">
        <ele>1188.0</ele>
      </trkpt>
      <trkpt lat="24.825047" lon="121.417596">
        <ele>1191.0</ele>
      </trkpt>
      <trkpt lat="24.82499" lon="121.417758">
        <ele>1193.0</ele>
      </trkpt>
      <trkpt lat="24.824984" lon="121.41788">
        <ele>1193.0</ele>
      </trkpt>
      <trkpt lat="24.82508" lon="121.418245">
        <ele>1192.0</ele>
      </trkpt>
      <trkpt lat="24.82508" lon="121.418245">
        <ele>1192.0</ele>
      </trkpt>
      <trkpt lat="24.824984" lon="121.41788">
        <ele>1193.0</ele>
      </trkpt>
      <trkpt lat="24.82499" lon="121.417758">
        <ele>1193.0</ele>
      </trkpt>
      <trkpt lat="24.825047" lon="121.417596">
        <ele>1191.0</ele>
      </trkpt>
      <trkpt lat="24.825153" lon="121.417472">
        <ele>1188.0</ele>
      </trkpt>
      <trkpt lat="24.8256262" lon="121.4171755">
        <ele>1176.0</ele>
      </trkpt>
      <trkpt lat="24.825886" lon="121.416891">
        <ele>1172.0</ele>
      </trkpt>
      <trkpt lat="24.826017" lon="121.416824">
        <ele>1169.0</ele>
      </trkpt>
      <trkpt lat="24.826223" lon="121.41681">
        <ele>1165.0</ele>
      </trkpt>
      <trkpt lat="24.826603" lon="121.416478">
        <ele>1160.0</ele>
      </trkpt>
      <trkpt lat="24.826746" lon="121.416392">
        <ele>1157.0</ele>
      </trkpt>
      <trkpt lat="24.827051" lon="121.416438">
        <ele>1150.0</ele>
      </trkpt>
      <trkpt lat="24.82743" lon="121.416283">
        <ele>1143.0</ele>
      </trkpt>
      <trkpt lat="24.827524" lon="121.416197">
        <ele>1142.0</ele>
      </trkpt>
      <trkpt lat="24.827819" lon="121.416154">
        <ele>1142.0</ele>
      </trkpt>
      <trkpt lat="24.828108" lon="121.416091">
        <ele>1142.0</ele>
      </trkpt>
      <trkpt lat="24.828592" lon="121.416247">
        <ele>1134.0</ele>
      </trkpt>
      <trkpt lat="24.82883" lon="121.416276">
        <ele>1127.0</ele>
      </trkpt>
      <trkpt lat="24.829016" lon="121.416221">
        <ele>1125.0</ele>
      </trkpt>
      <trkpt lat="24.829375" lon="121.415941">
        <ele>1122.0</ele>
      </trkpt>
      <trkpt lat="24.829636" lon="121.415574">
        <ele>1114.0</ele>
      </trkpt>
      <trkpt lat="24.82981" lon="121.415218">
        <ele>1109.0</ele>
      </trkpt>
      <trkpt lat="24.830042" lon="121.414991">
        <ele>1107.0</ele>
      </trkpt>
      <trkpt lat="24.830135" lon="121.414878">
        <ele>1099.0</ele>
      </trkpt>
      <trkpt lat="24.830409" lon="121.414662">
        <ele>1086.0</ele>
      </trkpt>
      <trkpt lat="24.830626" lon="121.414526">
        <ele>1081.0</ele>
      </trkpt>
      <trkpt lat="24.830786" lon="121.414459">
        <ele>1079.0</ele>
      </trkpt>
      <trkpt lat="24.831241" lon="121.414329">
        <ele>1069.0</ele>
      </trkpt>
      <trkpt lat="24.831451" lon="121.414294">
        <ele>1064.0</ele>
      </trkpt>
      <trkpt lat="24.831881" lon="121.414165">
        <ele>1060.0</ele>
      </trkpt>
      <trkpt lat="24.832203" lon="121.41414">
        <ele>1056.0</ele>
      </trkpt>
      <trkpt lat="24.832401" lon="121.414095">
        <ele>1053.0</ele>
      </trkpt>
      <trkpt lat="24.832512" lon="121.414022">
        <ele>1051.0</ele>
      </trkpt>
      <trkpt lat="24.832602" lon="121.414028">
        <ele>1049.0</ele>
      </trkpt>
      <trkpt lat="24.832644" lon="121.414002">
        <ele>1048.0</ele>
      </trkpt>
      <trkpt lat="24.832643" lon="121.413908">
        <ele>1047.0</ele>
      </trkpt>
      <trkpt lat="24.832611" lon="121.41376">
        <ele>1046.0</ele>
      </trkpt>
      <trkpt lat="24.83255" lon="121.413608">
        <ele>1045.0</ele>
      </trkpt>
      <trkpt lat="24.832579" lon="121.413509">
        <ele>1043.0</ele>
      </trkpt>
      <trkpt lat="24.832653" lon="121.413453">
        <ele>1041.0</ele>
      </trkpt>
      <trkpt lat="24.832653" lon="121.413453">
        <ele>1041.0</ele>
      </trkpt>
      <trkpt lat="24.832707" lon="121.413425">
        <ele>1040.0</ele>
      </trkpt>
      <trkpt lat="24.832816" lon="121.413432">
        <ele>1038.0</ele>
      </trkpt>
      <trkpt lat="24.832854" lon="121.413412">
        <ele>1037.0</ele>
      </trkpt>
      <trkpt lat="24.832897" lon="121.413069">
        <ele>1029.0</ele>
      </trkpt>
      <trkpt lat="24.832942" lon="121.413009">
        <ele>1027.0</ele>
      </trkpt>
      <trkpt lat="24.832993" lon="121.412987">
        <ele>1026.0</ele>
      </trkpt>
      <trkpt lat="24.833123" lon="121.412755">
        <ele>1020.0</ele>
      </trkpt>
      <trkpt lat="24.833133" lon="121.412695">
        <ele>1019.0</ele>
      </trkpt>
      <trkpt lat="24.833074" lon="121.412556">
        <ele>1017.0</ele>
      </trkpt>
      <trkpt lat="24.832814" lon="121.41216">
        <ele>1009.0</ele>
      </trkpt>
      <trkpt lat="24.83273" lon="121.411916">
        <ele>1003.0</ele>
      </trkpt>
      <trkpt lat="24.832666" lon="121.411811">
        <ele>1000.0</ele>
      </trkpt>
      <trkpt lat="24.832481" lon="121.411645">
        <ele>994.0</ele>
      </trkpt>
      <trkpt lat="24.832327" lon="121.411589">
        <ele>989.0</ele>
      </trkpt>
      <trkpt lat="24.832207" lon="121.411638">
        <ele>990.0</ele>
      </trkpt>
      <trkpt lat="24.832111" lon="121.411519">
        <ele>983.0</ele>
      </trkpt>
      <trkpt lat="24.832009" lon="121.411195">
        <ele>968.0</ele>
      </trkpt>
      <trkpt lat="24.83199" lon="121.41111">
        <ele>965.0</ele>
      </trkpt>
      <trkpt lat="24.831997" lon="121.411008">
        <ele>961.0</ele>
      </trkpt>
      <trkpt lat="24.831955" lon="121.410911">
        <ele>956.0</ele>
      </trkpt>
      <trkpt lat="24.831862" lon="121.410848">
        <ele>953.0</ele>
      </trkpt>
      <trkpt lat="24.831762" lon="121.410699">
        <ele>948.0</ele>
      </trkpt>
      <trkpt lat="24.831659" lon="121.410587">
        <ele>943.0</ele>
      </trkpt>
      <trkpt lat="24.831404" lon="121.410355">
        <ele>937.0</ele>
      </trkpt>
      <trkpt lat="24.831199" lon="121.410327">
        <ele>937.0</ele>
      </trkpt>
      <trkpt lat="24.831007" lon="121.410222">
        <ele>935.0</ele>
      </trkpt>
      <trkpt lat="24.830798" lon="121.409987">
        <ele>931.0</ele>
      </trkpt>
      <trkpt lat="24.830728" lon="121.409804">
        <ele>925.0</ele>
      </trkpt>
      <trkpt lat="24.830758" lon="121.409795">
        <ele>925.0</ele>
      </trkpt>
      <trkpt lat="24.830953" lon="121.409837">
        <ele>926.0</ele>
      </trkpt>
      <trkpt lat="24.831186" lon="121.409778">
        <ele>923.0</ele>
      </trkpt>
      <trkpt lat="24.831219" lon="121.409665">
        <ele>919.0</ele>
      </trkpt>
      <trkpt lat="24.831263" lon="121.409595">
        <ele>917.0</ele>
      </trkpt>
      <trkpt lat="24.831422" lon="121.409435">
        <ele>913.0</ele>
      </trkpt>
      <trkpt lat="24.831623" lon="121.409028">
        <ele>903.0</ele>
      </trkpt>
      <trkpt lat="24.83171" lon="121.408967">
        <ele>903.0</ele>
      </trkpt>
      <trkpt lat="24.831791" lon="121.408939">
        <ele>903.0</ele>
      </trkpt>
      <trkpt lat="24.831836" lon="121.408845">
        <ele>902.0</ele>
      </trkpt>
      <trkpt lat="24.831893" lon="121.408643">
        <ele>899.0</ele>
      </trkpt>
      <trkpt lat="24.832065" lon="121.408506">
        <ele>899.0</ele>
      </trkpt>
      <trkpt lat="24.832112" lon="121.40845">
        <ele>898.0</ele>
      </trkpt>
      <trkpt lat="24.832127" lon="121.4084">
        <ele>897.0</ele>
      </trkpt>
      <trkpt lat="24.832168" lon="121.40854">
        <ele>901.0</ele>
      </trkpt>
      <trkpt lat="24.832242" lon="121.408623">
        <ele>903.0</ele>
      </trkpt>
      <trkpt lat="24.832242" lon="121.408627">
        <ele>903.0</ele>
      </trkpt>
    </trkseg>
  </trk>
</gpx>
