<?xml version="1.0" encoding="UTF-8"?>
<gpx xmlns="http://www.topografix.com/GPX/1/1" xmlns:xsi="http://www.w3.org/2001/XMLSchema-instance" xsi:schemaLocation="http://www.topografix.com/GPX/1/1 http://www.topografix.com/GPX/1/1/gpx.xsd" version="1.1" creator="Martin Schneider">
  <wpt lat="24.793544" lon="121.253277">
    <ele>627.0</ele>
    <name>Summit Shihnioushan</name>
  </wpt>
  <wpt lat="24.777026" lon="121.24087">
    <ele>253.0</ele>
    <name>Start</name>
  </wpt>
  <wpt lat="24.818813" lon="121.237609">
    <ele>255.0</ele>
    <name>End</name>
  </wpt>
  <wpt lat="24.809973" lon="121.229432">
    <ele>535.0</ele>
    <name>Summit Shimenshan</name>
  </wpt>
  <wpt lat="24.787961" lon="121.2561356">
    <name>1</name>
    <desc>Trailhead</desc>
  </wpt>
  <wpt lat="24.790884" lon="121.260996">
    <name>2</name>
    <desc>Fork</desc>
  </wpt>
  <wpt lat="24.793411" lon="121.259228">
    <name>3</name>
    <desc>Fork</desc>
  </wpt>
  <wpt lat="24.800204" lon="121.246583">
    <name>4</name>
    <desc>Fork</desc>
  </wpt>
  <wpt lat="24.80761" lon="121.237191">
    <name>5</name>
    <desc>Fork</desc>
  </wpt>
  <wpt lat="24.8065991" lon="121.2263094">
    <name>6</name>
    <desc>Xiaozhukeng</desc>
  </wpt>
  <wpt lat="24.818734" lon="121.237617">
    <name>7</name>
    <desc>Trailhead</desc>
  </wpt>
  <trk>
    <name>024_025_Shimenshan_Shihnioushan</name>
    <trkseg>
      <trkpt lat="24.777026" lon="121.24087">
        <ele>253.0</ele>
      </trkpt>
      <trkpt lat="24.777026" lon="121.24087">
        <ele>253.0</ele>
      </trkpt>
      <trkpt lat="24.777367" lon="121.241598">
        <ele>259.0</ele>
      </trkpt>
      <trkpt lat="24.777564" lon="121.241599">
        <ele>261.0</ele>
      </trkpt>
      <trkpt lat="24.77765" lon="121.241634">
        <ele>261.0</ele>
      </trkpt>
      <trkpt lat="24.777833" lon="121.24181">
        <ele>261.0</ele>
      </trkpt>
      <trkpt lat="24.778115" lon="121.241993">
        <ele>265.0</ele>
      </trkpt>
      <trkpt lat="24.77848" lon="121.241972">
        <ele>263.0</ele>
      </trkpt>
      <trkpt lat="24.778577" lon="121.242014">
        <ele>263.0</ele>
      </trkpt>
      <trkpt lat="24.778787" lon="121.242165">
        <ele>262.0</ele>
      </trkpt>
      <trkpt lat="24.778904" lon="121.242191">
        <ele>261.0</ele>
      </trkpt>
      <trkpt lat="24.778982" lon="121.242191">
        <ele>259.0</ele>
      </trkpt>
      <trkpt lat="24.779452" lon="121.242307">
        <ele>258.0</ele>
      </trkpt>
      <trkpt lat="24.779525" lon="121.242342">
        <ele>258.0</ele>
      </trkpt>
      <trkpt lat="24.779564" lon="121.242385">
        <ele>259.0</ele>
      </trkpt>
      <trkpt lat="24.779608" lon="121.242492">
        <ele>259.0</ele>
      </trkpt>
      <trkpt lat="24.779744" lon="121.242717">
        <ele>263.0</ele>
      </trkpt>
      <trkpt lat="24.779866" lon="121.242961">
        <ele>265.0</ele>
      </trkpt>
      <trkpt lat="24.77991" lon="121.243138">
        <ele>267.0</ele>
      </trkpt>
      <trkpt lat="24.7799" lon="121.24335">
        <ele>269.0</ele>
      </trkpt>
      <trkpt lat="24.779914" lon="121.243417">
        <ele>271.0</ele>
      </trkpt>
      <trkpt lat="24.779944" lon="121.243471">
        <ele>273.0</ele>
      </trkpt>
      <trkpt lat="24.780338" lon="121.243801">
        <ele>280.0</ele>
      </trkpt>
      <trkpt lat="24.780416" lon="121.24382">
        <ele>279.0</ele>
      </trkpt>
      <trkpt lat="24.780723" lon="121.243793">
        <ele>277.0</ele>
      </trkpt>
      <trkpt lat="24.780864" lon="121.243884">
        <ele>276.0</ele>
      </trkpt>
      <trkpt lat="24.780947" lon="121.243999">
        <ele>276.0</ele>
      </trkpt>
      <trkpt lat="24.78102" lon="121.244203">
        <ele>275.0</ele>
      </trkpt>
      <trkpt lat="24.781117" lon="121.244553">
        <ele>281.0</ele>
      </trkpt>
      <trkpt lat="24.781148" lon="121.2446">
        <ele>281.0</ele>
      </trkpt>
      <trkpt lat="24.781327" lon="121.244762">
        <ele>280.0</ele>
      </trkpt>
      <trkpt lat="24.781405" lon="121.24488">
        <ele>278.0</ele>
      </trkpt>
      <trkpt lat="24.781458" lon="121.245045">
        <ele>278.0</ele>
      </trkpt>
      <trkpt lat="24.781475" lon="121.245179">
        <ele>281.0</ele>
      </trkpt>
      <trkpt lat="24.781507" lon="121.245281">
        <ele>283.0</ele>
      </trkpt>
      <trkpt lat="24.781587" lon="121.245424">
        <ele>283.0</ele>
      </trkpt>
      <trkpt lat="24.781692" lon="121.24555">
        <ele>282.0</ele>
      </trkpt>
      <trkpt lat="24.781855" lon="121.245654">
        <ele>283.0</ele>
      </trkpt>
      <trkpt lat="24.781999" lon="121.245724">
        <ele>282.0</ele>
      </trkpt>
      <trkpt lat="24.782152" lon="121.245818">
        <ele>279.0</ele>
      </trkpt>
      <trkpt lat="24.782186" lon="121.245866">
        <ele>279.0</ele>
      </trkpt>
      <trkpt lat="24.782213" lon="121.24614">
        <ele>285.0</ele>
      </trkpt>
      <trkpt lat="24.782233" lon="121.246199">
        <ele>286.0</ele>
      </trkpt>
      <trkpt lat="24.782428" lon="121.246478">
        <ele>283.0</ele>
      </trkpt>
      <trkpt lat="24.782457" lon="121.246636">
        <ele>284.0</ele>
      </trkpt>
      <trkpt lat="24.782505" lon="121.246703">
        <ele>283.0</ele>
      </trkpt>
      <trkpt lat="24.783086" lon="121.247233">
        <ele>288.0</ele>
      </trkpt>
      <trkpt lat="24.783153" lon="121.247339">
        <ele>287.0</ele>
      </trkpt>
      <trkpt lat="24.783238" lon="121.247567">
        <ele>285.0</ele>
      </trkpt>
      <trkpt lat="24.783458" lon="121.248028">
        <ele>288.0</ele>
      </trkpt>
      <trkpt lat="24.783492" lon="121.248079">
        <ele>289.0</ele>
      </trkpt>
      <trkpt lat="24.78355" lon="121.248124">
        <ele>289.0</ele>
      </trkpt>
      <trkpt lat="24.783652" lon="121.24817">
        <ele>289.0</ele>
      </trkpt>
      <trkpt lat="24.783718" lon="121.248234">
        <ele>289.0</ele>
      </trkpt>
      <trkpt lat="24.783796" lon="121.24843">
        <ele>291.0</ele>
      </trkpt>
      <trkpt lat="24.783811" lon="121.248771">
        <ele>297.0</ele>
      </trkpt>
      <trkpt lat="24.78385" lon="121.248881">
        <ele>298.0</ele>
      </trkpt>
      <trkpt lat="24.783935" lon="121.249015">
        <ele>297.0</ele>
      </trkpt>
      <trkpt lat="24.784086" lon="121.249176">
        <ele>293.0</ele>
      </trkpt>
      <trkpt lat="24.784181" lon="121.249231">
        <ele>292.0</ele>
      </trkpt>
      <trkpt lat="24.784286" lon="121.249264">
        <ele>294.0</ele>
      </trkpt>
      <trkpt lat="24.784373" lon="121.24927">
        <ele>294.0</ele>
      </trkpt>
      <trkpt lat="24.784523" lon="121.249233">
        <ele>293.0</ele>
      </trkpt>
      <trkpt lat="24.784523" lon="121.249233">
        <ele>293.0</ele>
      </trkpt>
      <trkpt lat="24.784575" lon="121.249235">
        <ele>293.0</ele>
      </trkpt>
      <trkpt lat="24.784882" lon="121.249349">
        <ele>296.0</ele>
      </trkpt>
      <trkpt lat="24.785055" lon="121.24943">
        <ele>299.0</ele>
      </trkpt>
      <trkpt lat="24.785106" lon="121.249473">
        <ele>302.0</ele>
      </trkpt>
      <trkpt lat="24.78515" lon="121.249529">
        <ele>304.0</ele>
      </trkpt>
      <trkpt lat="24.785376" lon="121.249974">
        <ele>318.0</ele>
      </trkpt>
      <trkpt lat="24.786122" lon="121.251565">
        <ele>318.0</ele>
      </trkpt>
      <trkpt lat="24.786175" lon="121.251712">
        <ele>319.0</ele>
      </trkpt>
      <trkpt lat="24.786282" lon="121.252193">
        <ele>321.0</ele>
      </trkpt>
      <trkpt lat="24.786433" lon="121.252694">
        <ele>323.0</ele>
      </trkpt>
      <trkpt lat="24.786463" lon="121.252981">
        <ele>324.0</ele>
      </trkpt>
      <trkpt lat="24.786589" lon="121.253416">
        <ele>324.0</ele>
      </trkpt>
      <trkpt lat="24.786611" lon="121.253571">
        <ele>326.0</ele>
      </trkpt>
      <trkpt lat="24.786628" lon="121.25363">
        <ele>326.0</ele>
      </trkpt>
      <trkpt lat="24.78675" lon="121.253868">
        <ele>329.0</ele>
      </trkpt>
      <trkpt lat="24.78675" lon="121.253868">
        <ele>329.0</ele>
      </trkpt>
      <trkpt lat="24.786816" lon="121.25403">
        <ele>332.0</ele>
      </trkpt>
      <trkpt lat="24.786833" lon="121.254269">
        <ele>333.0</ele>
      </trkpt>
      <trkpt lat="24.787115" lon="121.254765">
        <ele>336.0</ele>
      </trkpt>
      <trkpt lat="24.78721" lon="121.254985">
        <ele>335.0</ele>
      </trkpt>
      <trkpt lat="24.787239" lon="121.255159">
        <ele>335.0</ele>
      </trkpt>
      <trkpt lat="24.787322" lon="121.25528">
        <ele>332.0</ele>
      </trkpt>
      <trkpt lat="24.787378" lon="121.255403">
        <ele>330.0</ele>
      </trkpt>
      <trkpt lat="24.787473" lon="121.255529">
        <ele>326.0</ele>
      </trkpt>
      <trkpt lat="24.787512" lon="121.255618">
        <ele>325.0</ele>
      </trkpt>
      <trkpt lat="24.7875548" lon="121.2556489">
        <ele>325.0</ele>
      </trkpt>
      <trkpt lat="24.787555" lon="121.255649">
        <ele>325.0</ele>
      </trkpt>
      <trkpt lat="24.787631" lon="121.255704">
        <ele>326.0</ele>
      </trkpt>
      <trkpt lat="24.787685" lon="121.255773">
        <ele>327.0</ele>
      </trkpt>
      <trkpt lat="24.787768" lon="121.256025">
        <ele>331.0</ele>
      </trkpt>
      <trkpt lat="24.787788" lon="121.256051">
        <ele>332.0</ele>
      </trkpt>
      <trkpt lat="24.787961" lon="121.256136">
        <ele>336.0</ele>
      </trkpt>
      <trkpt lat="24.788139" lon="121.255977">
        <ele>337.0</ele>
      </trkpt>
      <trkpt lat="24.788194" lon="121.256098">
        <ele>339.0</ele>
      </trkpt>
      <trkpt lat="24.788329" lon="121.255979">
        <ele>341.0</ele>
      </trkpt>
      <trkpt lat="24.788404" lon="121.256053">
        <ele>344.0</ele>
      </trkpt>
      <trkpt lat="24.788565" lon="121.256036">
        <ele>349.0</ele>
      </trkpt>
      <trkpt lat="24.788582" lon="121.256112">
        <ele>351.0</ele>
      </trkpt>
      <trkpt lat="24.788672" lon="121.256142">
        <ele>354.0</ele>
      </trkpt>
      <trkpt lat="24.788798" lon="121.256146">
        <ele>359.0</ele>
      </trkpt>
      <trkpt lat="24.788907" lon="121.256044">
        <ele>361.0</ele>
      </trkpt>
      <trkpt lat="24.789129" lon="121.255763">
        <ele>366.0</ele>
      </trkpt>
      <trkpt lat="24.789375" lon="121.255499">
        <ele>380.0</ele>
      </trkpt>
      <trkpt lat="24.789525" lon="121.255435">
        <ele>386.0</ele>
      </trkpt>
      <trkpt lat="24.789891" lon="121.255338">
        <ele>397.0</ele>
      </trkpt>
      <trkpt lat="24.790075" lon="121.255234">
        <ele>402.0</ele>
      </trkpt>
      <trkpt lat="24.790339" lon="121.255196">
        <ele>410.0</ele>
      </trkpt>
      <trkpt lat="24.790542" lon="121.255044">
        <ele>416.0</ele>
      </trkpt>
      <trkpt lat="24.79085" lon="121.254939">
        <ele>429.0</ele>
      </trkpt>
      <trkpt lat="24.791102" lon="121.254798">
        <ele>449.0</ele>
      </trkpt>
      <trkpt lat="24.791132" lon="121.254795">
        <ele>451.0</ele>
      </trkpt>
      <trkpt lat="24.791132" lon="121.254795">
        <ele>451.0</ele>
      </trkpt>
      <trkpt lat="24.791211" lon="121.254788">
        <ele>456.0</ele>
      </trkpt>
      <trkpt lat="24.79138" lon="121.25471">
        <ele>468.0</ele>
      </trkpt>
      <trkpt lat="24.791471" lon="121.254592">
        <ele>478.0</ele>
      </trkpt>
      <trkpt lat="24.791642" lon="121.254543">
        <ele>488.0</ele>
      </trkpt>
      <trkpt lat="24.791808" lon="121.254472">
        <ele>500.0</ele>
      </trkpt>
      <trkpt lat="24.791895" lon="121.254392">
        <ele>507.0</ele>
      </trkpt>
      <trkpt lat="24.792094" lon="121.254488">
        <ele>517.0</ele>
      </trkpt>
      <trkpt lat="24.79218" lon="121.254482">
        <ele>522.0</ele>
      </trkpt>
      <trkpt lat="24.792201" lon="121.254434">
        <ele>524.0</ele>
      </trkpt>
      <trkpt lat="24.792319" lon="121.254372">
        <ele>531.0</ele>
      </trkpt>
      <trkpt lat="24.792366" lon="121.25432">
        <ele>534.0</ele>
      </trkpt>
      <trkpt lat="24.79242" lon="121.254336">
        <ele>537.0</ele>
      </trkpt>
      <trkpt lat="24.792539" lon="121.254267">
        <ele>544.0</ele>
      </trkpt>
      <trkpt lat="24.792657" lon="121.254306">
        <ele>552.0</ele>
      </trkpt>
      <trkpt lat="24.792733" lon="121.254349">
        <ele>556.0</ele>
      </trkpt>
      <trkpt lat="24.792782" lon="121.254412">
        <ele>559.0</ele>
      </trkpt>
      <trkpt lat="24.7930048" lon="121.254363">
        <ele>574.0</ele>
      </trkpt>
      <trkpt lat="24.793005" lon="121.254363">
        <ele>574.0</ele>
      </trkpt>
      <trkpt lat="24.793082" lon="121.254346">
        <ele>579.0</ele>
      </trkpt>
      <trkpt lat="24.793141" lon="121.254442">
        <ele>582.0</ele>
      </trkpt>
      <trkpt lat="24.793399" lon="121.254453">
        <ele>595.0</ele>
      </trkpt>
      <trkpt lat="24.793383" lon="121.254545">
        <ele>594.0</ele>
      </trkpt>
      <trkpt lat="24.793417" lon="121.254623">
        <ele>593.0</ele>
      </trkpt>
      <trkpt lat="24.793546" lon="121.254615">
        <ele>594.0</ele>
      </trkpt>
      <trkpt lat="24.793601" lon="121.254657">
        <ele>594.0</ele>
      </trkpt>
      <trkpt lat="24.793825" lon="121.254738">
        <ele>595.0</ele>
      </trkpt>
      <trkpt lat="24.793825" lon="121.254746">
        <ele>595.0</ele>
      </trkpt>
      <trkpt lat="24.793825" lon="121.254746">
        <ele>595.0</ele>
      </trkpt>
      <trkpt lat="24.793825" lon="121.254738">
        <ele>595.0</ele>
      </trkpt>
      <trkpt lat="24.793819" lon="121.25449">
        <ele>599.0</ele>
      </trkpt>
      <trkpt lat="24.793689" lon="121.253876">
        <ele>611.0</ele>
      </trkpt>
      <trkpt lat="24.793689" lon="121.253876">
        <ele>611.0</ele>
      </trkpt>
      <trkpt lat="24.793656" lon="121.253536">
        <ele>620.0</ele>
      </trkpt>
      <trkpt lat="24.793668" lon="121.253361">
        <ele>625.0</ele>
      </trkpt>
      <trkpt lat="24.793588" lon="121.253322">
        <ele>626.0</ele>
      </trkpt>
      <trkpt lat="24.793544" lon="121.253277">
        <ele>627.0</ele>
      </trkpt>
      <trkpt lat="24.793544" lon="121.253277">
        <ele>627.0</ele>
      </trkpt>
      <trkpt lat="24.793588" lon="121.253322">
        <ele>626.0</ele>
      </trkpt>
      <trkpt lat="24.793668" lon="121.253361">
        <ele>625.0</ele>
      </trkpt>
      <trkpt lat="24.79374" lon="121.25329">
        <ele>626.0</ele>
      </trkpt>
      <trkpt lat="24.7938346" lon="121.2530737">
        <ele>625.0</ele>
      </trkpt>
      <trkpt lat="24.793894" lon="121.252938">
        <ele>625.0</ele>
      </trkpt>
      <trkpt lat="24.793924" lon="121.25278">
        <ele>626.0</ele>
      </trkpt>
      <trkpt lat="24.793998" lon="121.252367">
        <ele>626.0</ele>
      </trkpt>
      <trkpt lat="24.794" lon="121.252168">
        <ele>626.0</ele>
      </trkpt>
      <trkpt lat="24.794022" lon="121.252043">
        <ele>626.0</ele>
      </trkpt>
      <trkpt lat="24.794043" lon="121.252009">
        <ele>626.0</ele>
      </trkpt>
      <trkpt lat="24.794192" lon="121.251949">
        <ele>628.0</ele>
      </trkpt>
      <trkpt lat="24.794297" lon="121.25177">
        <ele>623.0</ele>
      </trkpt>
      <trkpt lat="24.794392" lon="121.251643">
        <ele>619.0</ele>
      </trkpt>
      <trkpt lat="24.794456" lon="121.251468">
        <ele>614.0</ele>
      </trkpt>
      <trkpt lat="24.794506" lon="121.251148">
        <ele>608.0</ele>
      </trkpt>
      <trkpt lat="24.794535" lon="121.251104">
        <ele>607.0</ele>
      </trkpt>
      <trkpt lat="24.794621" lon="121.251032">
        <ele>604.0</ele>
      </trkpt>
      <trkpt lat="24.79469" lon="121.251011">
        <ele>602.0</ele>
      </trkpt>
      <trkpt lat="24.794776" lon="121.251007">
        <ele>599.0</ele>
      </trkpt>
      <trkpt lat="24.794826" lon="121.251041">
        <ele>598.0</ele>
      </trkpt>
      <trkpt lat="24.794895" lon="121.251024">
        <ele>596.0</ele>
      </trkpt>
      <trkpt lat="24.794981" lon="121.251104">
        <ele>593.0</ele>
      </trkpt>
      <trkpt lat="24.795055" lon="121.251121">
        <ele>590.0</ele>
      </trkpt>
      <trkpt lat="24.795155" lon="121.251105">
        <ele>584.0</ele>
      </trkpt>
      <trkpt lat="24.795244" lon="121.250973">
        <ele>581.0</ele>
      </trkpt>
      <trkpt lat="24.795457" lon="121.250815">
        <ele>572.0</ele>
      </trkpt>
      <trkpt lat="24.795559" lon="121.250714">
        <ele>567.0</ele>
      </trkpt>
      <trkpt lat="24.795559" lon="121.250714">
        <ele>567.0</ele>
      </trkpt>
      <trkpt lat="24.795646" lon="121.250608">
        <ele>565.0</ele>
      </trkpt>
      <trkpt lat="24.795732" lon="121.250323">
        <ele>565.0</ele>
      </trkpt>
      <trkpt lat="24.795763" lon="121.250062">
        <ele>569.0</ele>
      </trkpt>
      <trkpt lat="24.795814" lon="121.249885">
        <ele>567.0</ele>
      </trkpt>
      <trkpt lat="24.79585" lon="121.249827">
        <ele>565.0</ele>
      </trkpt>
      <trkpt lat="24.796043" lon="121.249644">
        <ele>550.0</ele>
      </trkpt>
      <trkpt lat="24.796112" lon="121.249552">
        <ele>545.0</ele>
      </trkpt>
      <trkpt lat="24.796217" lon="121.249269">
        <ele>536.0</ele>
      </trkpt>
      <trkpt lat="24.796227" lon="121.249147">
        <ele>533.0</ele>
      </trkpt>
      <trkpt lat="24.796199" lon="121.24905">
        <ele>532.0</ele>
      </trkpt>
      <trkpt lat="24.796104" lon="121.248871">
        <ele>529.0</ele>
      </trkpt>
      <trkpt lat="24.796102" lon="121.248817">
        <ele>527.0</ele>
      </trkpt>
      <trkpt lat="24.796121" lon="121.248757">
        <ele>525.0</ele>
      </trkpt>
      <trkpt lat="24.79616" lon="121.24872">
        <ele>523.0</ele>
      </trkpt>
      <trkpt lat="24.79623" lon="121.248745">
        <ele>522.0</ele>
      </trkpt>
      <trkpt lat="24.796279" lon="121.248735">
        <ele>521.0</ele>
      </trkpt>
      <trkpt lat="24.796326" lon="121.248684">
        <ele>518.0</ele>
      </trkpt>
      <trkpt lat="24.796357" lon="121.24857">
        <ele>515.0</ele>
      </trkpt>
      <trkpt lat="24.796457" lon="121.248333">
        <ele>509.0</ele>
      </trkpt>
      <trkpt lat="24.796615" lon="121.248184">
        <ele>505.0</ele>
      </trkpt>
      <trkpt lat="24.796651" lon="121.248121">
        <ele>503.0</ele>
      </trkpt>
      <trkpt lat="24.796667" lon="121.248064">
        <ele>502.0</ele>
      </trkpt>
      <trkpt lat="24.79667" lon="121.247946">
        <ele>499.0</ele>
      </trkpt>
      <trkpt lat="24.796689" lon="121.247897">
        <ele>497.0</ele>
      </trkpt>
      <trkpt lat="24.796832" lon="121.247812">
        <ele>488.0</ele>
      </trkpt>
      <trkpt lat="24.796879" lon="121.247802">
        <ele>485.0</ele>
      </trkpt>
      <trkpt lat="24.796981" lon="121.247824">
        <ele>480.0</ele>
      </trkpt>
      <trkpt lat="24.797002" lon="121.24781">
        <ele>479.0</ele>
      </trkpt>
      <trkpt lat="24.797047" lon="121.247733">
        <ele>476.0</ele>
      </trkpt>
      <trkpt lat="24.797188" lon="121.247611">
        <ele>468.0</ele>
      </trkpt>
      <trkpt lat="24.797312" lon="121.247569">
        <ele>463.0</ele>
      </trkpt>
      <trkpt lat="24.797511" lon="121.247363">
        <ele>449.0</ele>
      </trkpt>
      <trkpt lat="24.797592" lon="121.247305">
        <ele>443.0</ele>
      </trkpt>
      <trkpt lat="24.797815" lon="121.247232">
        <ele>431.0</ele>
      </trkpt>
      <trkpt lat="24.798132" lon="121.247208">
        <ele>418.0</ele>
      </trkpt>
      <trkpt lat="24.798195" lon="121.247189">
        <ele>415.0</ele>
      </trkpt>
      <trkpt lat="24.798383" lon="121.247039">
        <ele>409.0</ele>
      </trkpt>
      <trkpt lat="24.798532" lon="121.247001">
        <ele>407.0</ele>
      </trkpt>
      <trkpt lat="24.798626" lon="121.246945">
        <ele>406.0</ele>
      </trkpt>
      <trkpt lat="24.798675" lon="121.246885">
        <ele>406.0</ele>
      </trkpt>
      <trkpt lat="24.798952" lon="121.246912">
        <ele>402.0</ele>
      </trkpt>
      <trkpt lat="24.799145" lon="121.246853">
        <ele>401.0</ele>
      </trkpt>
      <trkpt lat="24.799217" lon="121.246895">
        <ele>400.0</ele>
      </trkpt>
      <trkpt lat="24.799451" lon="121.24688">
        <ele>400.0</ele>
      </trkpt>
      <trkpt lat="24.799631" lon="121.246778">
        <ele>402.0</ele>
      </trkpt>
      <trkpt lat="24.799649" lon="121.246781">
        <ele>402.0</ele>
      </trkpt>
      <trkpt lat="24.799649" lon="121.246781">
        <ele>402.0</ele>
      </trkpt>
      <trkpt lat="24.799741" lon="121.246781">
        <ele>403.0</ele>
      </trkpt>
      <trkpt lat="24.800029" lon="121.24664">
        <ele>405.0</ele>
      </trkpt>
      <trkpt lat="24.800202" lon="121.246581">
        <ele>400.0</ele>
      </trkpt>
      <trkpt lat="24.800126" lon="121.24644">
        <ele>398.0</ele>
      </trkpt>
      <trkpt lat="24.800109" lon="121.246323">
        <ele>396.0</ele>
      </trkpt>
      <trkpt lat="24.80007" lon="121.246206">
        <ele>394.0</ele>
      </trkpt>
      <trkpt lat="24.800048" lon="121.24607">
        <ele>392.0</ele>
      </trkpt>
      <trkpt lat="24.800056" lon="121.245827">
        <ele>386.0</ele>
      </trkpt>
      <trkpt lat="24.800008" lon="121.245744">
        <ele>386.0</ele>
      </trkpt>
      <trkpt lat="24.799978" lon="121.245618">
        <ele>382.0</ele>
      </trkpt>
      <trkpt lat="24.799994" lon="121.245306">
        <ele>373.0</ele>
      </trkpt>
      <trkpt lat="24.799933" lon="121.245103">
        <ele>365.0</ele>
      </trkpt>
      <trkpt lat="24.799981" lon="121.244995">
        <ele>363.0</ele>
      </trkpt>
      <trkpt lat="24.800048" lon="121.244943">
        <ele>360.0</ele>
      </trkpt>
      <trkpt lat="24.800168" lon="121.244909">
        <ele>356.0</ele>
      </trkpt>
      <trkpt lat="24.80035" lon="121.244795">
        <ele>348.0</ele>
      </trkpt>
      <trkpt lat="24.800565" lon="121.244736">
        <ele>342.0</ele>
      </trkpt>
      <trkpt lat="24.800644" lon="121.244673">
        <ele>339.0</ele>
      </trkpt>
      <trkpt lat="24.800629" lon="121.244479">
        <ele>337.0</ele>
      </trkpt>
      <trkpt lat="24.800581" lon="121.244403">
        <ele>336.0</ele>
      </trkpt>
      <trkpt lat="24.800517" lon="121.244355">
        <ele>336.0</ele>
      </trkpt>
      <trkpt lat="24.800465" lon="121.244252">
        <ele>334.0</ele>
      </trkpt>
      <trkpt lat="24.800447" lon="121.2441">
        <ele>330.0</ele>
      </trkpt>
      <trkpt lat="24.800452" lon="121.243985">
        <ele>327.0</ele>
      </trkpt>
      <trkpt lat="24.800416" lon="121.24382">
        <ele>321.0</ele>
      </trkpt>
      <trkpt lat="24.800346" lon="121.243674">
        <ele>316.0</ele>
      </trkpt>
      <trkpt lat="24.80031" lon="121.243525">
        <ele>310.0</ele>
      </trkpt>
      <trkpt lat="24.800085" lon="121.243115">
        <ele>294.0</ele>
      </trkpt>
      <trkpt lat="24.80001" lon="121.242905">
        <ele>287.0</ele>
      </trkpt>
      <trkpt lat="24.800032" lon="121.242799">
        <ele>285.0</ele>
      </trkpt>
      <trkpt lat="24.800076" lon="121.242706">
        <ele>283.0</ele>
      </trkpt>
      <trkpt lat="24.800106" lon="121.242454">
        <ele>277.0</ele>
      </trkpt>
      <trkpt lat="24.8001" lon="121.242108">
        <ele>273.0</ele>
      </trkpt>
      <trkpt lat="24.800097" lon="121.242104">
        <ele>273.0</ele>
      </trkpt>
      <trkpt lat="24.800066" lon="121.24207">
        <ele>273.0</ele>
      </trkpt>
      <trkpt lat="24.800008" lon="121.241999">
        <ele>273.0</ele>
      </trkpt>
      <trkpt lat="24.8" lon="121.241865">
        <ele>272.0</ele>
      </trkpt>
      <trkpt lat="24.800291" lon="121.241397">
        <ele>262.0</ele>
      </trkpt>
      <trkpt lat="24.800424" lon="121.241274">
        <ele>258.0</ele>
      </trkpt>
      <trkpt lat="24.80045" lon="121.241203">
        <ele>257.0</ele>
      </trkpt>
      <trkpt lat="24.800401" lon="121.241092">
        <ele>257.0</ele>
      </trkpt>
      <trkpt lat="24.800323" lon="121.241025">
        <ele>258.0</ele>
      </trkpt>
      <trkpt lat="24.800118" lon="121.240901">
        <ele>261.0</ele>
      </trkpt>
      <trkpt lat="24.799902" lon="121.24083">
        <ele>264.0</ele>
      </trkpt>
      <trkpt lat="24.799582" lon="121.24066">
        <ele>271.0</ele>
      </trkpt>
      <trkpt lat="24.799342" lon="121.240577">
        <ele>275.0</ele>
      </trkpt>
      <trkpt lat="24.79912" lon="121.240521">
        <ele>278.0</ele>
      </trkpt>
      <trkpt lat="24.79912" lon="121.240521">
        <ele>278.0</ele>
      </trkpt>
      <trkpt lat="24.799053" lon="121.240504">
        <ele>279.0</ele>
      </trkpt>
      <trkpt lat="24.798699" lon="121.240276">
        <ele>280.0</ele>
      </trkpt>
      <trkpt lat="24.798371" lon="121.24013">
        <ele>281.0</ele>
      </trkpt>
      <trkpt lat="24.798257" lon="121.239938">
        <ele>280.0</ele>
      </trkpt>
      <trkpt lat="24.798435" lon="121.23973">
        <ele>282.0</ele>
      </trkpt>
      <trkpt lat="24.798552" lon="121.239767">
        <ele>280.0</ele>
      </trkpt>
      <trkpt lat="24.798806" lon="121.23989">
        <ele>274.0</ele>
      </trkpt>
      <trkpt lat="24.799132" lon="121.239869">
        <ele>270.0</ele>
      </trkpt>
      <trkpt lat="24.799246" lon="121.240048">
        <ele>269.0</ele>
      </trkpt>
      <trkpt lat="24.799398" lon="121.240191">
        <ele>270.0</ele>
      </trkpt>
      <trkpt lat="24.79949" lon="121.240238">
        <ele>270.0</ele>
      </trkpt>
      <trkpt lat="24.799594" lon="121.240264">
        <ele>269.0</ele>
      </trkpt>
      <trkpt lat="24.799574" lon="121.2402">
        <ele>269.0</ele>
      </trkpt>
      <trkpt lat="24.79957" lon="121.240018">
        <ele>268.0</ele>
      </trkpt>
      <trkpt lat="24.799599" lon="121.239882">
        <ele>270.0</ele>
      </trkpt>
      <trkpt lat="24.799677" lon="121.239847">
        <ele>271.0</ele>
      </trkpt>
      <trkpt lat="24.799753" lon="121.239851">
        <ele>271.0</ele>
      </trkpt>
      <trkpt lat="24.799869" lon="121.239939">
        <ele>269.0</ele>
      </trkpt>
      <trkpt lat="24.800113" lon="121.239973">
        <ele>268.0</ele>
      </trkpt>
      <trkpt lat="24.80023" lon="121.24008">
        <ele>266.0</ele>
      </trkpt>
      <trkpt lat="24.800335" lon="121.240124">
        <ele>265.0</ele>
      </trkpt>
      <trkpt lat="24.800583" lon="121.240195">
        <ele>263.0</ele>
      </trkpt>
      <trkpt lat="24.800628" lon="121.240186">
        <ele>263.0</ele>
      </trkpt>
      <trkpt lat="24.800657" lon="121.240155">
        <ele>264.0</ele>
      </trkpt>
      <trkpt lat="24.800687" lon="121.239941">
        <ele>268.0</ele>
      </trkpt>
      <trkpt lat="24.800758" lon="121.239827">
        <ele>270.0</ele>
      </trkpt>
      <trkpt lat="24.800805" lon="121.239711">
        <ele>272.0</ele>
      </trkpt>
      <trkpt lat="24.800872" lon="121.239478">
        <ele>276.0</ele>
      </trkpt>
      <trkpt lat="24.800863" lon="121.23921">
        <ele>281.0</ele>
      </trkpt>
      <trkpt lat="24.800877" lon="121.239156">
        <ele>282.0</ele>
      </trkpt>
      <trkpt lat="24.800939" lon="121.239042">
        <ele>283.0</ele>
      </trkpt>
      <trkpt lat="24.800939" lon="121.238809">
        <ele>284.0</ele>
      </trkpt>
      <trkpt lat="24.801004" lon="121.238499">
        <ele>286.0</ele>
      </trkpt>
      <trkpt lat="24.800937" lon="121.238287">
        <ele>287.0</ele>
      </trkpt>
      <trkpt lat="24.800935" lon="121.238235">
        <ele>288.0</ele>
      </trkpt>
      <trkpt lat="24.801013" lon="121.23812">
        <ele>288.0</ele>
      </trkpt>
      <trkpt lat="24.801044" lon="121.238043">
        <ele>289.0</ele>
      </trkpt>
      <trkpt lat="24.801068" lon="121.237922">
        <ele>290.0</ele>
      </trkpt>
      <trkpt lat="24.801081" lon="121.237697">
        <ele>291.0</ele>
      </trkpt>
      <trkpt lat="24.801215" lon="121.237922">
        <ele>290.0</ele>
      </trkpt>
      <trkpt lat="24.801359" lon="121.238211">
        <ele>289.0</ele>
      </trkpt>
      <trkpt lat="24.801325" lon="121.238687">
        <ele>285.0</ele>
      </trkpt>
      <trkpt lat="24.801355" lon="121.238996">
        <ele>282.0</ele>
      </trkpt>
      <trkpt lat="24.801476" lon="121.23939">
        <ele>277.0</ele>
      </trkpt>
      <trkpt lat="24.801613" lon="121.239723">
        <ele>273.0</ele>
      </trkpt>
      <trkpt lat="24.801691" lon="121.240141">
        <ele>266.0</ele>
      </trkpt>
      <trkpt lat="24.801966" lon="121.240519">
        <ele>263.0</ele>
      </trkpt>
      <trkpt lat="24.802158" lon="121.240653">
        <ele>263.0</ele>
      </trkpt>
      <trkpt lat="24.802667" lon="121.240811">
        <ele>267.0</ele>
      </trkpt>
      <trkpt lat="24.802714" lon="121.240865">
        <ele>266.0</ele>
      </trkpt>
      <trkpt lat="24.802714" lon="121.240865">
        <ele>266.0</ele>
      </trkpt>
      <trkpt lat="24.802797" lon="121.240961">
        <ele>265.0</ele>
      </trkpt>
      <trkpt lat="24.802985" lon="121.241146">
        <ele>263.0</ele>
      </trkpt>
      <trkpt lat="24.803177" lon="121.241375">
        <ele>261.0</ele>
      </trkpt>
      <trkpt lat="24.803338" lon="121.241475">
        <ele>261.0</ele>
      </trkpt>
      <trkpt lat="24.803422" lon="121.241494">
        <ele>261.0</ele>
      </trkpt>
      <trkpt lat="24.803541" lon="121.241443">
        <ele>263.0</ele>
      </trkpt>
      <trkpt lat="24.80375" lon="121.241535">
        <ele>262.0</ele>
      </trkpt>
      <trkpt lat="24.803982" lon="121.241566">
        <ele>262.0</ele>
      </trkpt>
      <trkpt lat="24.804126" lon="121.241603">
        <ele>261.0</ele>
      </trkpt>
      <trkpt lat="24.804284" lon="121.241665">
        <ele>261.0</ele>
      </trkpt>
      <trkpt lat="24.804347" lon="121.24173">
        <ele>261.0</ele>
      </trkpt>
      <trkpt lat="24.80442" lon="121.241763">
        <ele>262.0</ele>
      </trkpt>
      <trkpt lat="24.804493" lon="121.241775">
        <ele>263.0</ele>
      </trkpt>
      <trkpt lat="24.804549" lon="121.241652">
        <ele>267.0</ele>
      </trkpt>
      <trkpt lat="24.804639" lon="121.241535">
        <ele>274.0</ele>
      </trkpt>
      <trkpt lat="24.804702" lon="121.241511">
        <ele>277.0</ele>
      </trkpt>
      <trkpt lat="24.804796" lon="121.241517">
        <ele>279.0</ele>
      </trkpt>
      <trkpt lat="24.804936" lon="121.24161">
        <ele>277.0</ele>
      </trkpt>
      <trkpt lat="24.805333" lon="121.241638">
        <ele>276.0</ele>
      </trkpt>
      <trkpt lat="24.805467" lon="121.241528">
        <ele>283.0</ele>
      </trkpt>
      <trkpt lat="24.805671" lon="121.241445">
        <ele>288.0</ele>
      </trkpt>
      <trkpt lat="24.805914" lon="121.241456">
        <ele>285.0</ele>
      </trkpt>
      <trkpt lat="24.806164" lon="121.241428">
        <ele>281.0</ele>
      </trkpt>
      <trkpt lat="24.806267" lon="121.241352">
        <ele>282.0</ele>
      </trkpt>
      <trkpt lat="24.806324" lon="121.241184">
        <ele>287.0</ele>
      </trkpt>
      <trkpt lat="24.806342" lon="121.241036">
        <ele>292.0</ele>
      </trkpt>
      <trkpt lat="24.806427" lon="121.240825">
        <ele>296.0</ele>
      </trkpt>
      <trkpt lat="24.806427" lon="121.240825">
        <ele>296.0</ele>
      </trkpt>
      <trkpt lat="24.806508" lon="121.240667">
        <ele>294.0</ele>
      </trkpt>
      <trkpt lat="24.806614" lon="121.240578">
        <ele>290.0</ele>
      </trkpt>
      <trkpt lat="24.806658" lon="121.240468">
        <ele>288.0</ele>
      </trkpt>
      <trkpt lat="24.806695" lon="121.240382">
        <ele>288.0</ele>
      </trkpt>
      <trkpt lat="24.80687" lon="121.240241">
        <ele>281.0</ele>
      </trkpt>
      <trkpt lat="24.806999" lon="121.240022">
        <ele>278.0</ele>
      </trkpt>
      <trkpt lat="24.807145" lon="121.239829">
        <ele>274.0</ele>
      </trkpt>
      <trkpt lat="24.807267" lon="121.239623">
        <ele>270.0</ele>
      </trkpt>
      <trkpt lat="24.807344" lon="121.239378">
        <ele>268.0</ele>
      </trkpt>
      <trkpt lat="24.807406" lon="121.239084">
        <ele>266.0</ele>
      </trkpt>
      <trkpt lat="24.807413" lon="121.238979">
        <ele>266.0</ele>
      </trkpt>
      <trkpt lat="24.807401" lon="121.238888">
        <ele>268.0</ele>
      </trkpt>
      <trkpt lat="24.807361" lon="121.238806">
        <ele>270.0</ele>
      </trkpt>
      <trkpt lat="24.807349" lon="121.238613">
        <ele>272.0</ele>
      </trkpt>
      <trkpt lat="24.807314" lon="121.238471">
        <ele>275.0</ele>
      </trkpt>
      <trkpt lat="24.807209" lon="121.238387">
        <ele>281.0</ele>
      </trkpt>
      <trkpt lat="24.806945" lon="121.238268">
        <ele>294.0</ele>
      </trkpt>
      <trkpt lat="24.807005" lon="121.238185">
        <ele>291.0</ele>
      </trkpt>
      <trkpt lat="24.807239" lon="121.237951">
        <ele>282.0</ele>
      </trkpt>
      <trkpt lat="24.807249" lon="121.237906">
        <ele>282.0</ele>
      </trkpt>
      <trkpt lat="24.807224" lon="121.237762">
        <ele>284.0</ele>
      </trkpt>
      <trkpt lat="24.807255" lon="121.237404">
        <ele>285.0</ele>
      </trkpt>
      <trkpt lat="24.807292" lon="121.237345">
        <ele>284.0</ele>
      </trkpt>
      <trkpt lat="24.80733" lon="121.237359">
        <ele>283.0</ele>
      </trkpt>
      <trkpt lat="24.807442" lon="121.237325">
        <ele>279.0</ele>
      </trkpt>
      <trkpt lat="24.807614" lon="121.237204">
        <ele>281.0</ele>
      </trkpt>
      <trkpt lat="24.807406" lon="121.236537">
        <ele>293.0</ele>
      </trkpt>
      <trkpt lat="24.807131" lon="121.236344">
        <ele>300.0</ele>
      </trkpt>
      <trkpt lat="24.806506" lon="121.235332">
        <ele>314.0</ele>
      </trkpt>
      <trkpt lat="24.806463" lon="121.23498">
        <ele>322.0</ele>
      </trkpt>
      <trkpt lat="24.806484" lon="121.234673">
        <ele>327.0</ele>
      </trkpt>
      <trkpt lat="24.806466" lon="121.234435">
        <ele>332.0</ele>
      </trkpt>
      <trkpt lat="24.806427" lon="121.234167">
        <ele>337.0</ele>
      </trkpt>
      <trkpt lat="24.806355" lon="121.233941">
        <ele>342.0</ele>
      </trkpt>
      <trkpt lat="24.80638" lon="121.233765">
        <ele>345.0</ele>
      </trkpt>
      <trkpt lat="24.806519" lon="121.233518">
        <ele>346.0</ele>
      </trkpt>
      <trkpt lat="24.806639" lon="121.233358">
        <ele>346.0</ele>
      </trkpt>
      <trkpt lat="24.806793" lon="121.233213">
        <ele>351.0</ele>
      </trkpt>
      <trkpt lat="24.806894" lon="121.233089">
        <ele>355.0</ele>
      </trkpt>
      <trkpt lat="24.806931" lon="121.23281">
        <ele>362.0</ele>
      </trkpt>
      <trkpt lat="24.807018" lon="121.232537">
        <ele>370.0</ele>
      </trkpt>
      <trkpt lat="24.806957" lon="121.232143">
        <ele>373.0</ele>
      </trkpt>
      <trkpt lat="24.80701" lon="121.231901">
        <ele>378.0</ele>
      </trkpt>
      <trkpt lat="24.807" lon="121.231525">
        <ele>382.0</ele>
      </trkpt>
      <trkpt lat="24.806814" lon="121.230999">
        <ele>381.0</ele>
      </trkpt>
      <trkpt lat="24.806556" lon="121.230711">
        <ele>381.0</ele>
      </trkpt>
      <trkpt lat="24.806419" lon="121.230476">
        <ele>387.0</ele>
      </trkpt>
      <trkpt lat="24.806478" lon="121.230174">
        <ele>391.0</ele>
      </trkpt>
      <trkpt lat="24.806458" lon="121.229925">
        <ele>396.0</ele>
      </trkpt>
      <trkpt lat="24.806291" lon="121.229327">
        <ele>410.0</ele>
      </trkpt>
      <trkpt lat="24.80617" lon="121.228812">
        <ele>417.0</ele>
      </trkpt>
      <trkpt lat="24.80617" lon="121.228543">
        <ele>419.0</ele>
      </trkpt>
      <trkpt lat="24.806067" lon="121.228396">
        <ele>418.0</ele>
      </trkpt>
      <trkpt lat="24.805871" lon="121.228189">
        <ele>418.0</ele>
      </trkpt>
      <trkpt lat="24.805828" lon="121.22797">
        <ele>423.0</ele>
      </trkpt>
      <trkpt lat="24.805705" lon="121.227925">
        <ele>427.0</ele>
      </trkpt>
      <trkpt lat="24.805469" lon="121.227884">
        <ele>434.0</ele>
      </trkpt>
      <trkpt lat="24.80543" lon="121.227836">
        <ele>436.0</ele>
      </trkpt>
      <trkpt lat="24.805536" lon="121.227713">
        <ele>435.0</ele>
      </trkpt>
      <trkpt lat="24.80558" lon="121.227575">
        <ele>437.0</ele>
      </trkpt>
      <trkpt lat="24.805691" lon="121.227486">
        <ele>437.0</ele>
      </trkpt>
      <trkpt lat="24.805912" lon="121.227429">
        <ele>439.0</ele>
      </trkpt>
      <trkpt lat="24.806142" lon="121.227343">
        <ele>449.0</ele>
      </trkpt>
      <trkpt lat="24.806168" lon="121.227235">
        <ele>454.0</ele>
      </trkpt>
      <trkpt lat="24.80606" lon="121.227104">
        <ele>456.0</ele>
      </trkpt>
      <trkpt lat="24.805824" lon="121.227095">
        <ele>452.0</ele>
      </trkpt>
      <trkpt lat="24.805669" lon="121.227051">
        <ele>454.0</ele>
      </trkpt>
      <trkpt lat="24.805517" lon="121.227051">
        <ele>455.0</ele>
      </trkpt>
      <trkpt lat="24.805179" lon="121.227006">
        <ele>457.0</ele>
      </trkpt>
      <trkpt lat="24.805142" lon="121.226918">
        <ele>459.0</ele>
      </trkpt>
      <trkpt lat="24.805444" lon="121.226896">
        <ele>460.0</ele>
      </trkpt>
      <trkpt lat="24.805698" lon="121.226843">
        <ele>463.0</ele>
      </trkpt>
      <trkpt lat="24.805849" lon="121.226842">
        <ele>463.0</ele>
      </trkpt>
      <trkpt lat="24.805952" lon="121.22688">
        <ele>463.0</ele>
      </trkpt>
      <trkpt lat="24.80605" lon="121.226872">
        <ele>465.0</ele>
      </trkpt>
      <trkpt lat="24.806167" lon="121.226801">
        <ele>470.0</ele>
      </trkpt>
      <trkpt lat="24.806216" lon="121.226813">
        <ele>470.0</ele>
      </trkpt>
      <trkpt lat="24.806341" lon="121.226968">
        <ele>467.0</ele>
      </trkpt>
      <trkpt lat="24.806522" lon="121.227158">
        <ele>465.0</ele>
      </trkpt>
      <trkpt lat="24.806889" lon="121.227732">
        <ele>453.0</ele>
      </trkpt>
      <trkpt lat="24.807053" lon="121.227896">
        <ele>452.0</ele>
      </trkpt>
      <trkpt lat="24.807205" lon="121.228077">
        <ele>453.0</ele>
      </trkpt>
      <trkpt lat="24.807296" lon="121.228143">
        <ele>455.0</ele>
      </trkpt>
      <trkpt lat="24.807374" lon="121.22823">
        <ele>457.0</ele>
      </trkpt>
      <trkpt lat="24.807407" lon="121.228289">
        <ele>459.0</ele>
      </trkpt>
      <trkpt lat="24.807437" lon="121.228399">
        <ele>459.0</ele>
      </trkpt>
      <trkpt lat="24.807496" lon="121.228466">
        <ele>460.0</ele>
      </trkpt>
      <trkpt lat="24.807857" lon="121.22864">
        <ele>465.0</ele>
      </trkpt>
      <trkpt lat="24.808011" lon="121.228819">
        <ele>470.0</ele>
      </trkpt>
      <trkpt lat="24.808639" lon="121.229115">
        <ele>502.0</ele>
      </trkpt>
      <trkpt lat="24.808869" lon="121.229183">
        <ele>514.0</ele>
      </trkpt>
      <trkpt lat="24.808869" lon="121.229183">
        <ele>514.0</ele>
      </trkpt>
      <trkpt lat="24.808921" lon="121.229198">
        <ele>516.0</ele>
      </trkpt>
      <trkpt lat="24.809279" lon="121.229163">
        <ele>528.0</ele>
      </trkpt>
      <trkpt lat="24.809696" lon="121.229213">
        <ele>532.0</ele>
      </trkpt>
      <trkpt lat="24.809973" lon="121.229432">
        <ele>535.0</ele>
      </trkpt>
      <trkpt lat="24.810067" lon="121.229558">
        <ele>532.0</ele>
      </trkpt>
      <trkpt lat="24.810243" lon="121.229715">
        <ele>527.0</ele>
      </trkpt>
      <trkpt lat="24.810333" lon="121.229752">
        <ele>525.0</ele>
      </trkpt>
      <trkpt lat="24.810389" lon="121.230013">
        <ele>524.0</ele>
      </trkpt>
      <trkpt lat="24.810601" lon="121.230074">
        <ele>518.0</ele>
      </trkpt>
      <trkpt lat="24.810623" lon="121.230117">
        <ele>517.0</ele>
      </trkpt>
      <trkpt lat="24.810676" lon="121.230344">
        <ele>510.0</ele>
      </trkpt>
      <trkpt lat="24.810859" lon="121.230836">
        <ele>497.0</ele>
      </trkpt>
      <trkpt lat="24.810885" lon="121.230986">
        <ele>496.0</ele>
      </trkpt>
      <trkpt lat="24.810964" lon="121.231643">
        <ele>493.0</ele>
      </trkpt>
      <trkpt lat="24.811252" lon="121.23231">
        <ele>496.0</ele>
      </trkpt>
      <trkpt lat="24.811239" lon="121.232459">
        <ele>497.0</ele>
      </trkpt>
      <trkpt lat="24.811239" lon="121.232459">
        <ele>497.0</ele>
      </trkpt>
      <trkpt lat="24.811198" lon="121.232949">
        <ele>498.0</ele>
      </trkpt>
      <trkpt lat="24.811244" lon="121.233144">
        <ele>499.0</ele>
      </trkpt>
      <trkpt lat="24.811241" lon="121.233188">
        <ele>499.0</ele>
      </trkpt>
      <trkpt lat="24.811356" lon="121.233332">
        <ele>498.0</ele>
      </trkpt>
      <trkpt lat="24.811443" lon="121.233333">
        <ele>497.0</ele>
      </trkpt>
      <trkpt lat="24.81151" lon="121.233408">
        <ele>498.0</ele>
      </trkpt>
      <trkpt lat="24.811605" lon="121.233296">
        <ele>496.0</ele>
      </trkpt>
      <trkpt lat="24.811745" lon="121.233409">
        <ele>493.0</ele>
      </trkpt>
      <trkpt lat="24.811822" lon="121.233304">
        <ele>491.0</ele>
      </trkpt>
      <trkpt lat="24.812419" lon="121.233788">
        <ele>465.0</ele>
      </trkpt>
      <trkpt lat="24.813603" lon="121.234335">
        <ele>406.0</ele>
      </trkpt>
      <trkpt lat="24.813603" lon="121.23445">
        <ele>406.0</ele>
      </trkpt>
      <trkpt lat="24.814323" lon="121.23459">
        <ele>379.0</ele>
      </trkpt>
      <trkpt lat="24.816221" lon="121.234576">
        <ele>325.0</ele>
      </trkpt>
      <trkpt lat="24.816407" lon="121.234712">
        <ele>319.0</ele>
      </trkpt>
      <trkpt lat="24.816555" lon="121.23488">
        <ele>313.0</ele>
      </trkpt>
      <trkpt lat="24.816632" lon="121.234912">
        <ele>311.0</ele>
      </trkpt>
      <trkpt lat="24.816802" lon="121.2349">
        <ele>308.0</ele>
      </trkpt>
      <trkpt lat="24.817197" lon="121.235364">
        <ele>299.0</ele>
      </trkpt>
      <trkpt lat="24.817294" lon="121.235666">
        <ele>294.0</ele>
      </trkpt>
      <trkpt lat="24.817594" lon="121.236076">
        <ele>285.0</ele>
      </trkpt>
      <trkpt lat="24.817807" lon="121.236615">
        <ele>278.0</ele>
      </trkpt>
      <trkpt lat="24.818275" lon="121.237227">
        <ele>263.0</ele>
      </trkpt>
      <trkpt lat="24.818674" lon="121.237539">
        <ele>256.0</ele>
      </trkpt>
      <trkpt lat="24.81874" lon="121.237624">
        <ele>255.0</ele>
      </trkpt>
      <trkpt lat="24.818813" lon="121.237609">
        <ele>255.0</ele>
      </trkpt>
    </trkseg>
  </trk>
</gpx>
