<?xml version="1.0" encoding="UTF-8"?>
<gpx xmlns="http://www.topografix.com/GPX/1/1" xmlns:xsi="http://www.w3.org/2001/XMLSchema-instance" xsi:schemaLocation="http://www.topografix.com/GPX/1/1 http://www.topografix.com/GPX/1/1/gpx.xsd" version="1.1" creator="Martin Schneider">
  <wpt lat="24.764466" lon="121.107922">
    <name>1</name>
    <desc>Trailhead</desc>
  </wpt>
  <wpt lat="24.762352" lon="121.105192">
    <name>2</name>
    <desc>Guanriping Ancient Trail</desc>
  </wpt>
  <wpt lat="24.7566744" lon="121.1100775">
    <name>3</name>
    <desc>Shibitanshan</desc>
  </wpt>
  <wpt lat="24.763643" lon="121.116822">
    <name>4</name>
    <desc>Fork</desc>
  </wpt>
  <wpt lat="24.7665291" lon="121.118965">
    <name>5</name>
    <desc>Zhongkengshan</desc>
  </wpt>
  <wpt lat="24.7651451" lon="121.1376279">
    <name>6</name>
    <desc>Xiahengkengshan</desc>
  </wpt>
  <wpt lat="24.765494" lon="121.142423">
    <name>7</name>
    <desc>Trailhead</desc>
  </wpt>
  <wpt lat="24.754813" lon="121.152126">
    <name>8</name>
    <desc>Waypoint</desc>
  </wpt>
  <wpt lat="24.745955" lon="121.150516">
    <name>9</name>
    <desc>Waypoint</desc>
  </wpt>
  <wpt lat="24.725911" lon="121.131379">
    <name>10</name>
    <desc>Bridge</desc>
  </wpt>
  <wpt lat="24.763442" lon="121.088946">
    <ele>101.0</ele>
    <name>Start</name>
  </wpt>
  <wpt lat="24.725928" lon="121.130119">
    <ele>157.0</ele>
    <name>End</name>
  </wpt>
  <wpt lat="24.76566" lon="121.112216">
    <ele>404.0</ele>
    <name>Summit Feifengshan</name>
  </wpt>
  <trk>
    <name>027_Feifengshan</name>
    <trkseg>
      <trkpt lat="24.763442" lon="121.088946">
        <ele>101.0</ele>
      </trkpt>
      <trkpt lat="24.763425" lon="121.089152">
        <ele>102.0</ele>
      </trkpt>
      <trkpt lat="24.763342" lon="121.08945">
        <ele>104.0</ele>
      </trkpt>
      <trkpt lat="24.763095" lon="121.089954">
        <ele>108.0</ele>
      </trkpt>
      <trkpt lat="24.762871" lon="121.090325">
        <ele>110.0</ele>
      </trkpt>
      <trkpt lat="24.762772" lon="121.090584">
        <ele>113.0</ele>
      </trkpt>
      <trkpt lat="24.762528" lon="121.091436">
        <ele>116.0</ele>
      </trkpt>
      <trkpt lat="24.76239" lon="121.092184">
        <ele>117.0</ele>
      </trkpt>
      <trkpt lat="24.762357" lon="121.092568">
        <ele>118.0</ele>
      </trkpt>
      <trkpt lat="24.762371" lon="121.092706">
        <ele>119.0</ele>
      </trkpt>
      <trkpt lat="24.762467" lon="121.093065">
        <ele>121.0</ele>
      </trkpt>
      <trkpt lat="24.762467" lon="121.093065">
        <ele>121.0</ele>
      </trkpt>
      <trkpt lat="24.76306" lon="121.09495">
        <ele>132.0</ele>
      </trkpt>
      <trkpt lat="24.76383" lon="121.096591">
        <ele>141.0</ele>
      </trkpt>
      <trkpt lat="24.76386" lon="121.096766">
        <ele>142.0</ele>
      </trkpt>
      <trkpt lat="24.763943" lon="121.098861">
        <ele>151.0</ele>
      </trkpt>
      <trkpt lat="24.764019" lon="121.099726">
        <ele>155.0</ele>
      </trkpt>
      <trkpt lat="24.764128" lon="121.100369">
        <ele>157.0</ele>
      </trkpt>
      <trkpt lat="24.764166" lon="121.100774">
        <ele>157.0</ele>
      </trkpt>
      <trkpt lat="24.764164" lon="121.100989">
        <ele>160.0</ele>
      </trkpt>
      <trkpt lat="24.764163" lon="121.101089">
        <ele>161.0</ele>
      </trkpt>
      <trkpt lat="24.764083" lon="121.101499">
        <ele>168.0</ele>
      </trkpt>
      <trkpt lat="24.763954" lon="121.102391">
        <ele>171.0</ele>
      </trkpt>
      <trkpt lat="24.763896" lon="121.10264">
        <ele>172.0</ele>
      </trkpt>
      <trkpt lat="24.763825" lon="121.102789">
        <ele>173.0</ele>
      </trkpt>
      <trkpt lat="24.763825" lon="121.102789">
        <ele>173.0</ele>
      </trkpt>
      <trkpt lat="24.763773" lon="121.102899">
        <ele>173.0</ele>
      </trkpt>
      <trkpt lat="24.763553" lon="121.103253">
        <ele>173.0</ele>
      </trkpt>
      <trkpt lat="24.763441" lon="121.103486">
        <ele>174.0</ele>
      </trkpt>
      <trkpt lat="24.763388" lon="121.103642">
        <ele>176.0</ele>
      </trkpt>
      <trkpt lat="24.763366" lon="121.103877">
        <ele>179.0</ele>
      </trkpt>
      <trkpt lat="24.763202" lon="121.104323">
        <ele>183.0</ele>
      </trkpt>
      <trkpt lat="24.763102" lon="121.104676">
        <ele>184.0</ele>
      </trkpt>
      <trkpt lat="24.762896" lon="121.105028">
        <ele>186.0</ele>
      </trkpt>
      <trkpt lat="24.762791" lon="121.105173">
        <ele>186.0</ele>
      </trkpt>
      <trkpt lat="24.762854" lon="121.10543">
        <ele>189.0</ele>
      </trkpt>
      <trkpt lat="24.76286" lon="121.105609">
        <ele>190.0</ele>
      </trkpt>
      <trkpt lat="24.762686" lon="121.105811">
        <ele>189.0</ele>
      </trkpt>
      <trkpt lat="24.762592" lon="121.105958">
        <ele>190.0</ele>
      </trkpt>
      <trkpt lat="24.762522" lon="121.106033">
        <ele>190.0</ele>
      </trkpt>
      <trkpt lat="24.762486" lon="121.106014">
        <ele>190.0</ele>
      </trkpt>
      <trkpt lat="24.762411" lon="121.105941">
        <ele>191.0</ele>
      </trkpt>
      <trkpt lat="24.762374" lon="121.105617">
        <ele>190.0</ele>
      </trkpt>
      <trkpt lat="24.76228" lon="121.105152">
        <ele>189.0</ele>
      </trkpt>
      <trkpt lat="24.762215" lon="121.105229">
        <ele>191.0</ele>
      </trkpt>
      <trkpt lat="24.762129" lon="121.105253">
        <ele>193.0</ele>
      </trkpt>
      <trkpt lat="24.762047" lon="121.105343">
        <ele>196.0</ele>
      </trkpt>
      <trkpt lat="24.761977" lon="121.105492">
        <ele>199.0</ele>
      </trkpt>
      <trkpt lat="24.761965" lon="121.105597">
        <ele>200.0</ele>
      </trkpt>
      <trkpt lat="24.761923" lon="121.105693">
        <ele>202.0</ele>
      </trkpt>
      <trkpt lat="24.761894" lon="121.105719">
        <ele>203.0</ele>
      </trkpt>
      <trkpt lat="24.761782" lon="121.105973">
        <ele>207.0</ele>
      </trkpt>
      <trkpt lat="24.761683" lon="121.10614">
        <ele>208.0</ele>
      </trkpt>
      <trkpt lat="24.761633" lon="121.106189">
        <ele>209.0</ele>
      </trkpt>
      <trkpt lat="24.761476" lon="121.106213">
        <ele>212.0</ele>
      </trkpt>
      <trkpt lat="24.761332" lon="121.106152">
        <ele>216.0</ele>
      </trkpt>
      <trkpt lat="24.761203" lon="121.10618">
        <ele>218.0</ele>
      </trkpt>
      <trkpt lat="24.761082" lon="121.106235">
        <ele>221.0</ele>
      </trkpt>
      <trkpt lat="24.760986" lon="121.106219">
        <ele>223.0</ele>
      </trkpt>
      <trkpt lat="24.760887" lon="121.106152">
        <ele>225.0</ele>
      </trkpt>
      <trkpt lat="24.76082" lon="121.10617">
        <ele>227.0</ele>
      </trkpt>
      <trkpt lat="24.760743" lon="121.106325">
        <ele>228.0</ele>
      </trkpt>
      <trkpt lat="24.760783" lon="121.106475">
        <ele>227.0</ele>
      </trkpt>
      <trkpt lat="24.760833" lon="121.106558">
        <ele>225.0</ele>
      </trkpt>
      <trkpt lat="24.760827" lon="121.10662">
        <ele>224.0</ele>
      </trkpt>
      <trkpt lat="24.760728" lon="121.106632">
        <ele>228.0</ele>
      </trkpt>
      <trkpt lat="24.760692" lon="121.10662">
        <ele>230.0</ele>
      </trkpt>
      <trkpt lat="24.760552" lon="121.106651">
        <ele>235.0</ele>
      </trkpt>
      <trkpt lat="24.760452" lon="121.106623">
        <ele>239.0</ele>
      </trkpt>
      <trkpt lat="24.760306" lon="121.106613">
        <ele>244.0</ele>
      </trkpt>
      <trkpt lat="24.760034" lon="121.106629">
        <ele>255.0</ele>
      </trkpt>
      <trkpt lat="24.76" lon="121.106747">
        <ele>257.0</ele>
      </trkpt>
      <trkpt lat="24.759969" lon="121.106779">
        <ele>258.0</ele>
      </trkpt>
      <trkpt lat="24.759905" lon="121.106779">
        <ele>260.0</ele>
      </trkpt>
      <trkpt lat="24.759792" lon="121.106602">
        <ele>263.0</ele>
      </trkpt>
      <trkpt lat="24.759731" lon="121.106553">
        <ele>264.0</ele>
      </trkpt>
      <trkpt lat="24.759641" lon="121.106523">
        <ele>266.0</ele>
      </trkpt>
      <trkpt lat="24.759582" lon="121.106536">
        <ele>268.0</ele>
      </trkpt>
      <trkpt lat="24.759288" lon="121.106886">
        <ele>283.0</ele>
      </trkpt>
      <trkpt lat="24.759016" lon="121.107026">
        <ele>291.0</ele>
      </trkpt>
      <trkpt lat="24.758916" lon="121.10712">
        <ele>294.0</ele>
      </trkpt>
      <trkpt lat="24.75887" lon="121.107206">
        <ele>297.0</ele>
      </trkpt>
      <trkpt lat="24.758711" lon="121.107298">
        <ele>302.0</ele>
      </trkpt>
      <trkpt lat="24.758552" lon="121.107298">
        <ele>306.0</ele>
      </trkpt>
      <trkpt lat="24.758197" lon="121.107332">
        <ele>316.0</ele>
      </trkpt>
      <trkpt lat="24.757799" lon="121.107425">
        <ele>327.0</ele>
      </trkpt>
      <trkpt lat="24.757458" lon="121.10755">
        <ele>339.0</ele>
      </trkpt>
      <trkpt lat="24.757304" lon="121.107663">
        <ele>343.0</ele>
      </trkpt>
      <trkpt lat="24.757171" lon="121.107725">
        <ele>346.0</ele>
      </trkpt>
      <trkpt lat="24.757145" lon="121.107782">
        <ele>347.0</ele>
      </trkpt>
      <trkpt lat="24.757148" lon="121.107873">
        <ele>349.0</ele>
      </trkpt>
      <trkpt lat="24.757033" lon="121.108034">
        <ele>354.0</ele>
      </trkpt>
      <trkpt lat="24.756956" lon="121.10809">
        <ele>356.0</ele>
      </trkpt>
      <trkpt lat="24.756947" lon="121.1082">
        <ele>359.0</ele>
      </trkpt>
      <trkpt lat="24.756987" lon="121.10841">
        <ele>363.0</ele>
      </trkpt>
      <trkpt lat="24.757058" lon="121.108547">
        <ele>364.0</ele>
      </trkpt>
      <trkpt lat="24.757118" lon="121.108617">
        <ele>364.0</ele>
      </trkpt>
      <trkpt lat="24.75716" lon="121.108705">
        <ele>365.0</ele>
      </trkpt>
      <trkpt lat="24.757158" lon="121.108769">
        <ele>365.0</ele>
      </trkpt>
      <trkpt lat="24.757022" lon="121.109034">
        <ele>371.0</ele>
      </trkpt>
      <trkpt lat="24.756839" lon="121.109498">
        <ele>382.0</ele>
      </trkpt>
      <trkpt lat="24.756769" lon="121.109605">
        <ele>386.0</ele>
      </trkpt>
      <trkpt lat="24.756721" lon="121.109742">
        <ele>390.0</ele>
      </trkpt>
      <trkpt lat="24.756709" lon="121.109862">
        <ele>392.0</ele>
      </trkpt>
      <trkpt lat="24.756718" lon="121.109933">
        <ele>393.0</ele>
      </trkpt>
      <trkpt lat="24.756674" lon="121.110077">
        <ele>395.0</ele>
      </trkpt>
      <trkpt lat="24.756674" lon="121.110078">
        <ele>395.0</ele>
      </trkpt>
      <trkpt lat="24.756866" lon="121.110157">
        <ele>389.0</ele>
      </trkpt>
      <trkpt lat="24.756982" lon="121.110291">
        <ele>385.0</ele>
      </trkpt>
      <trkpt lat="24.757029" lon="121.110372">
        <ele>384.0</ele>
      </trkpt>
      <trkpt lat="24.757047" lon="121.110491">
        <ele>384.0</ele>
      </trkpt>
      <trkpt lat="24.757083" lon="121.110578">
        <ele>383.0</ele>
      </trkpt>
      <trkpt lat="24.757192" lon="121.11112">
        <ele>382.0</ele>
      </trkpt>
      <trkpt lat="24.757291" lon="121.111474">
        <ele>381.0</ele>
      </trkpt>
      <trkpt lat="24.757337" lon="121.111859">
        <ele>382.0</ele>
      </trkpt>
      <trkpt lat="24.757353" lon="121.112249">
        <ele>381.0</ele>
      </trkpt>
      <trkpt lat="24.75732" lon="121.112414">
        <ele>380.0</ele>
      </trkpt>
      <trkpt lat="24.757312" lon="121.112628">
        <ele>379.0</ele>
      </trkpt>
      <trkpt lat="24.757372" lon="121.113068">
        <ele>378.0</ele>
      </trkpt>
      <trkpt lat="24.757448" lon="121.113274">
        <ele>380.0</ele>
      </trkpt>
      <trkpt lat="24.757561" lon="121.11346">
        <ele>377.0</ele>
      </trkpt>
      <trkpt lat="24.757524" lon="121.113625">
        <ele>376.0</ele>
      </trkpt>
      <trkpt lat="24.757515" lon="121.113799">
        <ele>374.0</ele>
      </trkpt>
      <trkpt lat="24.757549" lon="121.114016">
        <ele>370.0</ele>
      </trkpt>
      <trkpt lat="24.7576" lon="121.114197">
        <ele>368.0</ele>
      </trkpt>
      <trkpt lat="24.757696" lon="121.11441">
        <ele>369.0</ele>
      </trkpt>
      <trkpt lat="24.757727" lon="121.114615">
        <ele>370.0</ele>
      </trkpt>
      <trkpt lat="24.757804" lon="121.114917">
        <ele>373.0</ele>
      </trkpt>
      <trkpt lat="24.758082" lon="121.115437">
        <ele>372.0</ele>
      </trkpt>
      <trkpt lat="24.758082" lon="121.115437">
        <ele>372.0</ele>
      </trkpt>
      <trkpt lat="24.758185" lon="121.115635">
        <ele>374.0</ele>
      </trkpt>
      <trkpt lat="24.758368" lon="121.115863">
        <ele>379.0</ele>
      </trkpt>
      <trkpt lat="24.758464" lon="121.115954">
        <ele>380.0</ele>
      </trkpt>
      <trkpt lat="24.758576" lon="121.116177">
        <ele>383.0</ele>
      </trkpt>
      <trkpt lat="24.758743" lon="121.116553">
        <ele>389.0</ele>
      </trkpt>
      <trkpt lat="24.758748" lon="121.116874">
        <ele>389.0</ele>
      </trkpt>
      <trkpt lat="24.758811" lon="121.117103">
        <ele>391.0</ele>
      </trkpt>
      <trkpt lat="24.758883" lon="121.117276">
        <ele>392.0</ele>
      </trkpt>
      <trkpt lat="24.758976" lon="121.117362">
        <ele>394.0</ele>
      </trkpt>
      <trkpt lat="24.759066" lon="121.117379">
        <ele>396.0</ele>
      </trkpt>
      <trkpt lat="24.759143" lon="121.117369">
        <ele>398.0</ele>
      </trkpt>
      <trkpt lat="24.759238" lon="121.117309">
        <ele>398.0</ele>
      </trkpt>
      <trkpt lat="24.759387" lon="121.117141">
        <ele>400.0</ele>
      </trkpt>
      <trkpt lat="24.759592" lon="121.116736">
        <ele>409.0</ele>
      </trkpt>
      <trkpt lat="24.759976" lon="121.116097">
        <ele>417.0</ele>
      </trkpt>
      <trkpt lat="24.760102" lon="121.116052">
        <ele>418.0</ele>
      </trkpt>
      <trkpt lat="24.76019" lon="121.116102">
        <ele>418.0</ele>
      </trkpt>
      <trkpt lat="24.760385" lon="121.116285">
        <ele>418.0</ele>
      </trkpt>
      <trkpt lat="24.760547" lon="121.116363">
        <ele>419.0</ele>
      </trkpt>
      <trkpt lat="24.760642" lon="121.116361">
        <ele>420.0</ele>
      </trkpt>
      <trkpt lat="24.761207" lon="121.116564">
        <ele>427.0</ele>
      </trkpt>
      <trkpt lat="24.761504" lon="121.116592">
        <ele>432.0</ele>
      </trkpt>
      <trkpt lat="24.761504" lon="121.116592">
        <ele>432.0</ele>
      </trkpt>
      <trkpt lat="24.761583" lon="121.1166">
        <ele>434.0</ele>
      </trkpt>
      <trkpt lat="24.762014" lon="121.116721">
        <ele>439.0</ele>
      </trkpt>
      <trkpt lat="24.762351" lon="121.11655">
        <ele>438.0</ele>
      </trkpt>
      <trkpt lat="24.762551" lon="121.116473">
        <ele>437.0</ele>
      </trkpt>
      <trkpt lat="24.762773" lon="121.116494">
        <ele>440.0</ele>
      </trkpt>
      <trkpt lat="24.762934" lon="121.116531">
        <ele>443.0</ele>
      </trkpt>
      <trkpt lat="24.763142" lon="121.116654">
        <ele>448.0</ele>
      </trkpt>
      <trkpt lat="24.76338" lon="121.116762">
        <ele>449.0</ele>
      </trkpt>
      <trkpt lat="24.763627" lon="121.11683">
        <ele>445.0</ele>
      </trkpt>
      <trkpt lat="24.763731" lon="121.116508">
        <ele>442.0</ele>
      </trkpt>
      <trkpt lat="24.763809" lon="121.11636">
        <ele>440.0</ele>
      </trkpt>
      <trkpt lat="24.763886" lon="121.116249">
        <ele>439.0</ele>
      </trkpt>
      <trkpt lat="24.764004" lon="121.116132">
        <ele>439.0</ele>
      </trkpt>
      <trkpt lat="24.764082" lon="121.116004">
        <ele>440.0</ele>
      </trkpt>
      <trkpt lat="24.764162" lon="121.115823">
        <ele>441.0</ele>
      </trkpt>
      <trkpt lat="24.764114" lon="121.115662">
        <ele>437.0</ele>
      </trkpt>
      <trkpt lat="24.764191" lon="121.1154">
        <ele>433.0</ele>
      </trkpt>
      <trkpt lat="24.76443" lon="121.11493">
        <ele>422.0</ele>
      </trkpt>
      <trkpt lat="24.764768" lon="121.114207">
        <ele>414.0</ele>
      </trkpt>
      <trkpt lat="24.765037" lon="121.113569">
        <ele>410.0</ele>
      </trkpt>
      <trkpt lat="24.765185" lon="121.113275">
        <ele>405.0</ele>
      </trkpt>
      <trkpt lat="24.765343" lon="121.112947">
        <ele>403.0</ele>
      </trkpt>
      <trkpt lat="24.765361" lon="121.112763">
        <ele>402.0</ele>
      </trkpt>
      <trkpt lat="24.765502" lon="121.112475">
        <ele>403.0</ele>
      </trkpt>
      <trkpt lat="24.76566" lon="121.112216">
        <ele>404.0</ele>
      </trkpt>
      <trkpt lat="24.76566" lon="121.112216">
        <ele>404.0</ele>
      </trkpt>
      <trkpt lat="24.765502" lon="121.112475">
        <ele>403.0</ele>
      </trkpt>
      <trkpt lat="24.765361" lon="121.112763">
        <ele>402.0</ele>
      </trkpt>
      <trkpt lat="24.765343" lon="121.112947">
        <ele>403.0</ele>
      </trkpt>
      <trkpt lat="24.765185" lon="121.113275">
        <ele>405.0</ele>
      </trkpt>
      <trkpt lat="24.765037" lon="121.113569">
        <ele>410.0</ele>
      </trkpt>
      <trkpt lat="24.764768" lon="121.114207">
        <ele>414.0</ele>
      </trkpt>
      <trkpt lat="24.76443" lon="121.11493">
        <ele>422.0</ele>
      </trkpt>
      <trkpt lat="24.764191" lon="121.1154">
        <ele>433.0</ele>
      </trkpt>
      <trkpt lat="24.764114" lon="121.115662">
        <ele>437.0</ele>
      </trkpt>
      <trkpt lat="24.764162" lon="121.115823">
        <ele>441.0</ele>
      </trkpt>
      <trkpt lat="24.764082" lon="121.116004">
        <ele>440.0</ele>
      </trkpt>
      <trkpt lat="24.764004" lon="121.116132">
        <ele>439.0</ele>
      </trkpt>
      <trkpt lat="24.763886" lon="121.116249">
        <ele>439.0</ele>
      </trkpt>
      <trkpt lat="24.763809" lon="121.11636">
        <ele>440.0</ele>
      </trkpt>
      <trkpt lat="24.763731" lon="121.116508">
        <ele>442.0</ele>
      </trkpt>
      <trkpt lat="24.763627" lon="121.11683">
        <ele>445.0</ele>
      </trkpt>
      <trkpt lat="24.763648" lon="121.116914">
        <ele>445.0</ele>
      </trkpt>
      <trkpt lat="24.763657" lon="121.117039">
        <ele>445.0</ele>
      </trkpt>
      <trkpt lat="24.763724" lon="121.117213">
        <ele>444.0</ele>
      </trkpt>
      <trkpt lat="24.763847" lon="121.117394">
        <ele>444.0</ele>
      </trkpt>
      <trkpt lat="24.76401" lon="121.117537">
        <ele>444.0</ele>
      </trkpt>
      <trkpt lat="24.764427" lon="121.117823">
        <ele>436.0</ele>
      </trkpt>
      <trkpt lat="24.764535" lon="121.11786">
        <ele>435.0</ele>
      </trkpt>
      <trkpt lat="24.764562" lon="121.11784">
        <ele>435.0</ele>
      </trkpt>
      <trkpt lat="24.764593" lon="121.117853">
        <ele>434.0</ele>
      </trkpt>
      <trkpt lat="24.764619" lon="121.117872">
        <ele>434.0</ele>
      </trkpt>
      <trkpt lat="24.764625" lon="121.11791">
        <ele>433.0</ele>
      </trkpt>
      <trkpt lat="24.765105" lon="121.117846">
        <ele>428.0</ele>
      </trkpt>
      <trkpt lat="24.765105" lon="121.117846">
        <ele>428.0</ele>
      </trkpt>
      <trkpt lat="24.765252" lon="121.117827">
        <ele>427.0</ele>
      </trkpt>
      <trkpt lat="24.765514" lon="121.118198">
        <ele>432.0</ele>
      </trkpt>
      <trkpt lat="24.765816" lon="121.118498">
        <ele>434.0</ele>
      </trkpt>
      <trkpt lat="24.766094" lon="121.118584">
        <ele>435.0</ele>
      </trkpt>
      <trkpt lat="24.766418" lon="121.118767">
        <ele>437.0</ele>
      </trkpt>
      <trkpt lat="24.766492" lon="121.118798">
        <ele>438.0</ele>
      </trkpt>
      <trkpt lat="24.766581" lon="121.118942">
        <ele>440.0</ele>
      </trkpt>
      <trkpt lat="24.766581" lon="121.118942">
        <ele>440.0</ele>
      </trkpt>
      <trkpt lat="24.766606" lon="121.118983">
        <ele>441.0</ele>
      </trkpt>
      <trkpt lat="24.766539" lon="121.119284">
        <ele>438.0</ele>
      </trkpt>
      <trkpt lat="24.766592" lon="121.11938">
        <ele>438.0</ele>
      </trkpt>
      <trkpt lat="24.766593" lon="121.119427">
        <ele>437.0</ele>
      </trkpt>
      <trkpt lat="24.766517" lon="121.119833">
        <ele>426.0</ele>
      </trkpt>
      <trkpt lat="24.766528" lon="121.120068">
        <ele>421.0</ele>
      </trkpt>
      <trkpt lat="24.766415" lon="121.120367">
        <ele>415.0</ele>
      </trkpt>
      <trkpt lat="24.766603" lon="121.120725">
        <ele>415.0</ele>
      </trkpt>
      <trkpt lat="24.766613" lon="121.121241">
        <ele>406.0</ele>
      </trkpt>
      <trkpt lat="24.766753" lon="121.121454">
        <ele>402.0</ele>
      </trkpt>
      <trkpt lat="24.766753" lon="121.121454">
        <ele>402.0</ele>
      </trkpt>
      <trkpt lat="24.766856" lon="121.12161">
        <ele>399.0</ele>
      </trkpt>
      <trkpt lat="24.766933" lon="121.121729">
        <ele>398.0</ele>
      </trkpt>
      <trkpt lat="24.766993" lon="121.121819">
        <ele>398.0</ele>
      </trkpt>
      <trkpt lat="24.767238" lon="121.12209">
        <ele>401.0</ele>
      </trkpt>
      <trkpt lat="24.767234" lon="121.122151">
        <ele>402.0</ele>
      </trkpt>
      <trkpt lat="24.767171" lon="121.122376">
        <ele>405.0</ele>
      </trkpt>
      <trkpt lat="24.767156" lon="121.122515">
        <ele>406.0</ele>
      </trkpt>
      <trkpt lat="24.767164" lon="121.122586">
        <ele>404.0</ele>
      </trkpt>
      <trkpt lat="24.767119" lon="121.122787">
        <ele>399.0</ele>
      </trkpt>
      <trkpt lat="24.76699" lon="121.123067">
        <ele>393.0</ele>
      </trkpt>
      <trkpt lat="24.766884" lon="121.123205">
        <ele>392.0</ele>
      </trkpt>
      <trkpt lat="24.76677" lon="121.123399">
        <ele>392.0</ele>
      </trkpt>
      <trkpt lat="24.766699" lon="121.123451">
        <ele>394.0</ele>
      </trkpt>
      <trkpt lat="24.766555" lon="121.123778">
        <ele>394.0</ele>
      </trkpt>
      <trkpt lat="24.766613" lon="121.124063">
        <ele>397.0</ele>
      </trkpt>
      <trkpt lat="24.766671" lon="121.124107">
        <ele>399.0</ele>
      </trkpt>
      <trkpt lat="24.766702" lon="121.124155">
        <ele>399.0</ele>
      </trkpt>
      <trkpt lat="24.766669" lon="121.124343">
        <ele>401.0</ele>
      </trkpt>
      <trkpt lat="24.766625" lon="121.124408">
        <ele>400.0</ele>
      </trkpt>
      <trkpt lat="24.766581" lon="121.124528">
        <ele>400.0</ele>
      </trkpt>
      <trkpt lat="24.766614" lon="121.124733">
        <ele>402.0</ele>
      </trkpt>
      <trkpt lat="24.767029" lon="121.125172">
        <ele>404.0</ele>
      </trkpt>
      <trkpt lat="24.767032" lon="121.125247">
        <ele>405.0</ele>
      </trkpt>
      <trkpt lat="24.766902" lon="121.125532">
        <ele>410.0</ele>
      </trkpt>
      <trkpt lat="24.766808" lon="121.125645">
        <ele>414.0</ele>
      </trkpt>
      <trkpt lat="24.766815" lon="121.125711">
        <ele>414.0</ele>
      </trkpt>
      <trkpt lat="24.766783" lon="121.125825">
        <ele>417.0</ele>
      </trkpt>
      <trkpt lat="24.766767" lon="121.125981">
        <ele>418.0</ele>
      </trkpt>
      <trkpt lat="24.766605" lon="121.126158">
        <ele>422.0</ele>
      </trkpt>
      <trkpt lat="24.766485" lon="121.126338">
        <ele>425.0</ele>
      </trkpt>
      <trkpt lat="24.765996" lon="121.126767">
        <ele>437.0</ele>
      </trkpt>
      <trkpt lat="24.765945" lon="121.12683">
        <ele>438.0</ele>
      </trkpt>
      <trkpt lat="24.765907" lon="121.126969">
        <ele>439.0</ele>
      </trkpt>
      <trkpt lat="24.765748" lon="121.127079">
        <ele>441.0</ele>
      </trkpt>
      <trkpt lat="24.765622" lon="121.127131">
        <ele>440.0</ele>
      </trkpt>
      <trkpt lat="24.765622" lon="121.127131">
        <ele>440.0</ele>
      </trkpt>
      <trkpt lat="24.765736" lon="121.127248">
        <ele>441.0</ele>
      </trkpt>
      <trkpt lat="24.765736" lon="121.127308">
        <ele>441.0</ele>
      </trkpt>
      <trkpt lat="24.76584" lon="121.127418">
        <ele>442.0</ele>
      </trkpt>
      <trkpt lat="24.765857" lon="121.12756">
        <ele>440.0</ele>
      </trkpt>
      <trkpt lat="24.765854" lon="121.127802">
        <ele>435.0</ele>
      </trkpt>
      <trkpt lat="24.765776" lon="121.127959">
        <ele>432.0</ele>
      </trkpt>
      <trkpt lat="24.765841" lon="121.128097">
        <ele>430.0</ele>
      </trkpt>
      <trkpt lat="24.765855" lon="121.128179">
        <ele>428.0</ele>
      </trkpt>
      <trkpt lat="24.765851" lon="121.128249">
        <ele>426.0</ele>
      </trkpt>
      <trkpt lat="24.765796" lon="121.128416">
        <ele>424.0</ele>
      </trkpt>
      <trkpt lat="24.765827" lon="121.128686">
        <ele>421.0</ele>
      </trkpt>
      <trkpt lat="24.76581" lon="121.12873">
        <ele>421.0</ele>
      </trkpt>
      <trkpt lat="24.765952" lon="121.129271">
        <ele>414.0</ele>
      </trkpt>
      <trkpt lat="24.766" lon="121.129412">
        <ele>412.0</ele>
      </trkpt>
      <trkpt lat="24.766192" lon="121.12966">
        <ele>408.0</ele>
      </trkpt>
      <trkpt lat="24.766452" lon="121.129659">
        <ele>406.0</ele>
      </trkpt>
      <trkpt lat="24.76659" lon="121.129838">
        <ele>406.0</ele>
      </trkpt>
      <trkpt lat="24.766601" lon="121.129944">
        <ele>407.0</ele>
      </trkpt>
      <trkpt lat="24.766573" lon="121.130024">
        <ele>407.0</ele>
      </trkpt>
      <trkpt lat="24.766482" lon="121.13011">
        <ele>408.0</ele>
      </trkpt>
      <trkpt lat="24.766356" lon="121.130761">
        <ele>413.0</ele>
      </trkpt>
      <trkpt lat="24.76628" lon="121.130934">
        <ele>415.0</ele>
      </trkpt>
      <trkpt lat="24.766182" lon="121.131051">
        <ele>417.0</ele>
      </trkpt>
      <trkpt lat="24.766119" lon="121.131197">
        <ele>420.0</ele>
      </trkpt>
      <trkpt lat="24.766119" lon="121.131197">
        <ele>420.0</ele>
      </trkpt>
      <trkpt lat="24.766043" lon="121.131372">
        <ele>423.0</ele>
      </trkpt>
      <trkpt lat="24.766048" lon="121.131625">
        <ele>424.0</ele>
      </trkpt>
      <trkpt lat="24.766015" lon="121.131772">
        <ele>425.0</ele>
      </trkpt>
      <trkpt lat="24.765918" lon="121.131907">
        <ele>428.0</ele>
      </trkpt>
      <trkpt lat="24.765936" lon="121.13216">
        <ele>424.0</ele>
      </trkpt>
      <trkpt lat="24.765874" lon="121.132331">
        <ele>425.0</ele>
      </trkpt>
      <trkpt lat="24.765767" lon="121.132503">
        <ele>426.0</ele>
      </trkpt>
      <trkpt lat="24.765653" lon="121.132819">
        <ele>424.0</ele>
      </trkpt>
      <trkpt lat="24.765619" lon="121.132654">
        <ele>426.0</ele>
      </trkpt>
      <trkpt lat="24.765632" lon="121.132397">
        <ele>428.0</ele>
      </trkpt>
      <trkpt lat="24.765718" lon="121.132271">
        <ele>429.0</ele>
      </trkpt>
      <trkpt lat="24.765736" lon="121.132184">
        <ele>429.0</ele>
      </trkpt>
      <trkpt lat="24.765597" lon="121.131912">
        <ele>433.0</ele>
      </trkpt>
      <trkpt lat="24.765536" lon="121.131685">
        <ele>436.0</ele>
      </trkpt>
      <trkpt lat="24.765429" lon="121.131576">
        <ele>436.0</ele>
      </trkpt>
      <trkpt lat="24.765422" lon="121.131538">
        <ele>435.0</ele>
      </trkpt>
      <trkpt lat="24.765422" lon="121.131538">
        <ele>435.0</ele>
      </trkpt>
      <trkpt lat="24.765429" lon="121.131576">
        <ele>436.0</ele>
      </trkpt>
      <trkpt lat="24.765536" lon="121.131685">
        <ele>436.0</ele>
      </trkpt>
      <trkpt lat="24.765597" lon="121.131912">
        <ele>433.0</ele>
      </trkpt>
      <trkpt lat="24.765736" lon="121.132184">
        <ele>429.0</ele>
      </trkpt>
      <trkpt lat="24.765718" lon="121.132271">
        <ele>429.0</ele>
      </trkpt>
      <trkpt lat="24.765632" lon="121.132397">
        <ele>428.0</ele>
      </trkpt>
      <trkpt lat="24.765619" lon="121.132654">
        <ele>426.0</ele>
      </trkpt>
      <trkpt lat="24.765653" lon="121.132819">
        <ele>424.0</ele>
      </trkpt>
      <trkpt lat="24.765629" lon="121.133004">
        <ele>423.0</ele>
      </trkpt>
      <trkpt lat="24.765699" lon="121.133165">
        <ele>422.0</ele>
      </trkpt>
      <trkpt lat="24.765827" lon="121.133338">
        <ele>419.0</ele>
      </trkpt>
      <trkpt lat="24.765867" lon="121.133434">
        <ele>417.0</ele>
      </trkpt>
      <trkpt lat="24.765878" lon="121.133538">
        <ele>416.0</ele>
      </trkpt>
      <trkpt lat="24.765871" lon="121.133984">
        <ele>414.0</ele>
      </trkpt>
      <trkpt lat="24.765842" lon="121.134244">
        <ele>413.0</ele>
      </trkpt>
      <trkpt lat="24.765842" lon="121.134244">
        <ele>413.0</ele>
      </trkpt>
      <trkpt lat="24.765855" lon="121.134333">
        <ele>411.0</ele>
      </trkpt>
      <trkpt lat="24.765957" lon="121.134413">
        <ele>408.0</ele>
      </trkpt>
      <trkpt lat="24.766394" lon="121.134547">
        <ele>402.0</ele>
      </trkpt>
      <trkpt lat="24.766852" lon="121.135159">
        <ele>401.0</ele>
      </trkpt>
      <trkpt lat="24.766843" lon="121.135623">
        <ele>400.0</ele>
      </trkpt>
      <trkpt lat="24.766725" lon="121.135842">
        <ele>404.0</ele>
      </trkpt>
      <trkpt lat="24.766632" lon="121.135867">
        <ele>406.0</ele>
      </trkpt>
      <trkpt lat="24.766508" lon="121.135815">
        <ele>406.0</ele>
      </trkpt>
      <trkpt lat="24.766435" lon="121.135746">
        <ele>406.0</ele>
      </trkpt>
      <trkpt lat="24.766418" lon="121.135866">
        <ele>406.0</ele>
      </trkpt>
      <trkpt lat="24.76639" lon="121.135949">
        <ele>407.0</ele>
      </trkpt>
      <trkpt lat="24.766305" lon="121.136026">
        <ele>408.0</ele>
      </trkpt>
      <trkpt lat="24.766253" lon="121.136127">
        <ele>410.0</ele>
      </trkpt>
      <trkpt lat="24.766158" lon="121.136191">
        <ele>412.0</ele>
      </trkpt>
      <trkpt lat="24.766117" lon="121.13625">
        <ele>414.0</ele>
      </trkpt>
      <trkpt lat="24.766092" lon="121.136348">
        <ele>416.0</ele>
      </trkpt>
      <trkpt lat="24.766111" lon="121.136397">
        <ele>417.0</ele>
      </trkpt>
      <trkpt lat="24.766116" lon="121.136496">
        <ele>419.0</ele>
      </trkpt>
      <trkpt lat="24.766102" lon="121.136533">
        <ele>420.0</ele>
      </trkpt>
      <trkpt lat="24.766071" lon="121.136541">
        <ele>421.0</ele>
      </trkpt>
      <trkpt lat="24.765994" lon="121.136616">
        <ele>424.0</ele>
      </trkpt>
      <trkpt lat="24.765974" lon="121.136842">
        <ele>428.0</ele>
      </trkpt>
      <trkpt lat="24.766" lon="121.136942">
        <ele>429.0</ele>
      </trkpt>
      <trkpt lat="24.765941" lon="121.137162">
        <ele>434.0</ele>
      </trkpt>
      <trkpt lat="24.765892" lon="121.137222">
        <ele>436.0</ele>
      </trkpt>
      <trkpt lat="24.765836" lon="121.137344">
        <ele>440.0</ele>
      </trkpt>
      <trkpt lat="24.76579" lon="121.137376">
        <ele>441.0</ele>
      </trkpt>
      <trkpt lat="24.76577" lon="121.137423">
        <ele>442.0</ele>
      </trkpt>
      <trkpt lat="24.76532" lon="121.137645">
        <ele>447.0</ele>
      </trkpt>
      <trkpt lat="24.765205" lon="121.137625">
        <ele>448.0</ele>
      </trkpt>
      <trkpt lat="24.765186" lon="121.13764">
        <ele>448.0</ele>
      </trkpt>
      <trkpt lat="24.765082" lon="121.13763">
        <ele>449.0</ele>
      </trkpt>
      <trkpt lat="24.765082" lon="121.13763">
        <ele>449.0</ele>
      </trkpt>
      <trkpt lat="24.765186" lon="121.13764">
        <ele>448.0</ele>
      </trkpt>
      <trkpt lat="24.765205" lon="121.137625">
        <ele>448.0</ele>
      </trkpt>
      <trkpt lat="24.76532" lon="121.137645">
        <ele>447.0</ele>
      </trkpt>
      <trkpt lat="24.76537" lon="121.13773">
        <ele>446.0</ele>
      </trkpt>
      <trkpt lat="24.765377" lon="121.137772">
        <ele>445.0</ele>
      </trkpt>
      <trkpt lat="24.765441" lon="121.137853">
        <ele>444.0</ele>
      </trkpt>
      <trkpt lat="24.765448" lon="121.137918">
        <ele>443.0</ele>
      </trkpt>
      <trkpt lat="24.76562" lon="121.138231">
        <ele>440.0</ele>
      </trkpt>
      <trkpt lat="24.765627" lon="121.138411">
        <ele>438.0</ele>
      </trkpt>
      <trkpt lat="24.765664" lon="121.138529">
        <ele>437.0</ele>
      </trkpt>
      <trkpt lat="24.765654" lon="121.138598">
        <ele>436.0</ele>
      </trkpt>
      <trkpt lat="24.765673" lon="121.138663">
        <ele>435.0</ele>
      </trkpt>
      <trkpt lat="24.765659" lon="121.138759">
        <ele>434.0</ele>
      </trkpt>
      <trkpt lat="24.765661" lon="121.13892">
        <ele>432.0</ele>
      </trkpt>
      <trkpt lat="24.765755" lon="121.139031">
        <ele>433.0</ele>
      </trkpt>
      <trkpt lat="24.765899" lon="121.139152">
        <ele>431.0</ele>
      </trkpt>
      <trkpt lat="24.765911" lon="121.139198">
        <ele>430.0</ele>
      </trkpt>
      <trkpt lat="24.76597" lon="121.139285">
        <ele>428.0</ele>
      </trkpt>
      <trkpt lat="24.766013" lon="121.139388">
        <ele>426.0</ele>
      </trkpt>
      <trkpt lat="24.765971" lon="121.139455">
        <ele>427.0</ele>
      </trkpt>
      <trkpt lat="24.76595" lon="121.139536">
        <ele>427.0</ele>
      </trkpt>
      <trkpt lat="24.765891" lon="121.139619">
        <ele>429.0</ele>
      </trkpt>
      <trkpt lat="24.765877" lon="121.139684">
        <ele>429.0</ele>
      </trkpt>
      <trkpt lat="24.76562" lon="121.139982">
        <ele>428.0</ele>
      </trkpt>
      <trkpt lat="24.765544" lon="121.139985">
        <ele>428.0</ele>
      </trkpt>
      <trkpt lat="24.765454" lon="121.140026">
        <ele>428.0</ele>
      </trkpt>
      <trkpt lat="24.765386" lon="121.140067">
        <ele>428.0</ele>
      </trkpt>
      <trkpt lat="24.765264" lon="121.140175">
        <ele>430.0</ele>
      </trkpt>
      <trkpt lat="24.765258" lon="121.140246">
        <ele>430.0</ele>
      </trkpt>
      <trkpt lat="24.765225" lon="121.140317">
        <ele>431.0</ele>
      </trkpt>
      <trkpt lat="24.765232" lon="121.140409">
        <ele>432.0</ele>
      </trkpt>
      <trkpt lat="24.765216" lon="121.14045">
        <ele>432.0</ele>
      </trkpt>
      <trkpt lat="24.765241" lon="121.140645">
        <ele>434.0</ele>
      </trkpt>
      <trkpt lat="24.765292" lon="121.140767">
        <ele>434.0</ele>
      </trkpt>
      <trkpt lat="24.765425" lon="121.140896">
        <ele>432.0</ele>
      </trkpt>
      <trkpt lat="24.765455" lon="121.140988">
        <ele>432.0</ele>
      </trkpt>
      <trkpt lat="24.76541" lon="121.141041">
        <ele>433.0</ele>
      </trkpt>
      <trkpt lat="24.765367" lon="121.141168">
        <ele>435.0</ele>
      </trkpt>
      <trkpt lat="24.765223" lon="121.141343">
        <ele>439.0</ele>
      </trkpt>
      <trkpt lat="24.765204" lon="121.141411">
        <ele>441.0</ele>
      </trkpt>
      <trkpt lat="24.765229" lon="121.141487">
        <ele>440.0</ele>
      </trkpt>
      <trkpt lat="24.76522" lon="121.141522">
        <ele>441.0</ele>
      </trkpt>
      <trkpt lat="24.765164" lon="121.141565">
        <ele>443.0</ele>
      </trkpt>
      <trkpt lat="24.765117" lon="121.141677">
        <ele>446.0</ele>
      </trkpt>
      <trkpt lat="24.765051" lon="121.141767">
        <ele>449.0</ele>
      </trkpt>
      <trkpt lat="24.765051" lon="121.141767">
        <ele>449.0</ele>
      </trkpt>
      <trkpt lat="24.764977" lon="121.141844">
        <ele>451.0</ele>
      </trkpt>
      <trkpt lat="24.764977" lon="121.141844">
        <ele>451.0</ele>
      </trkpt>
      <trkpt lat="24.764994" lon="121.141958">
        <ele>452.0</ele>
      </trkpt>
      <trkpt lat="24.764894" lon="121.141941">
        <ele>452.0</ele>
      </trkpt>
      <trkpt lat="24.764864" lon="121.141935">
        <ele>452.0</ele>
      </trkpt>
      <trkpt lat="24.7651987" lon="121.1422162">
        <ele>450.0</ele>
      </trkpt>
      <trkpt lat="24.765219" lon="121.14226">
        <ele>450.0</ele>
      </trkpt>
      <trkpt lat="24.765295" lon="121.14228">
        <ele>449.0</ele>
      </trkpt>
      <trkpt lat="24.765348" lon="121.142265">
        <ele>447.0</ele>
      </trkpt>
      <trkpt lat="24.765439" lon="121.14227">
        <ele>446.0</ele>
      </trkpt>
      <trkpt lat="24.765466" lon="121.142298">
        <ele>446.0</ele>
      </trkpt>
      <trkpt lat="24.765473" lon="121.142382">
        <ele>447.0</ele>
      </trkpt>
      <trkpt lat="24.765494" lon="121.142687">
        <ele>447.0</ele>
      </trkpt>
      <trkpt lat="24.765485" lon="121.142751">
        <ele>446.0</ele>
      </trkpt>
      <trkpt lat="24.765518" lon="121.142814">
        <ele>445.0</ele>
      </trkpt>
      <trkpt lat="24.765407" lon="121.14299">
        <ele>444.0</ele>
      </trkpt>
      <trkpt lat="24.765359" lon="121.143154">
        <ele>443.0</ele>
      </trkpt>
      <trkpt lat="24.76506" lon="121.143492">
        <ele>440.0</ele>
      </trkpt>
      <trkpt lat="24.764984" lon="121.143657">
        <ele>437.0</ele>
      </trkpt>
      <trkpt lat="24.764897" lon="121.143711">
        <ele>434.0</ele>
      </trkpt>
      <trkpt lat="24.764768" lon="121.143829">
        <ele>430.0</ele>
      </trkpt>
      <trkpt lat="24.764585" lon="121.144077">
        <ele>424.0</ele>
      </trkpt>
      <trkpt lat="24.764563" lon="121.144152">
        <ele>422.0</ele>
      </trkpt>
      <trkpt lat="24.764442" lon="121.144226">
        <ele>420.0</ele>
      </trkpt>
      <trkpt lat="24.764407" lon="121.144266">
        <ele>420.0</ele>
      </trkpt>
      <trkpt lat="24.764407" lon="121.144266">
        <ele>420.0</ele>
      </trkpt>
      <trkpt lat="24.764375" lon="121.144342">
        <ele>419.0</ele>
      </trkpt>
      <trkpt lat="24.76441" lon="121.144436">
        <ele>418.0</ele>
      </trkpt>
      <trkpt lat="24.764258" lon="121.144587">
        <ele>418.0</ele>
      </trkpt>
      <trkpt lat="24.764131" lon="121.144801">
        <ele>419.0</ele>
      </trkpt>
      <trkpt lat="24.764079" lon="121.144828">
        <ele>419.0</ele>
      </trkpt>
      <trkpt lat="24.764001" lon="121.144798">
        <ele>417.0</ele>
      </trkpt>
      <trkpt lat="24.763895" lon="121.14483">
        <ele>415.0</ele>
      </trkpt>
      <trkpt lat="24.763803" lon="121.144964">
        <ele>415.0</ele>
      </trkpt>
      <trkpt lat="24.763877" lon="121.145049">
        <ele>416.0</ele>
      </trkpt>
      <trkpt lat="24.76387" lon="121.145095">
        <ele>415.0</ele>
      </trkpt>
      <trkpt lat="24.763777" lon="121.145158">
        <ele>414.0</ele>
      </trkpt>
      <trkpt lat="24.763665" lon="121.145202">
        <ele>412.0</ele>
      </trkpt>
      <trkpt lat="24.763577" lon="121.14529">
        <ele>411.0</ele>
      </trkpt>
      <trkpt lat="24.763587" lon="121.145324">
        <ele>412.0</ele>
      </trkpt>
      <trkpt lat="24.763508" lon="121.145422">
        <ele>411.0</ele>
      </trkpt>
      <trkpt lat="24.763471" lon="121.14565">
        <ele>412.0</ele>
      </trkpt>
      <trkpt lat="24.763428" lon="121.145703">
        <ele>413.0</ele>
      </trkpt>
      <trkpt lat="24.763214" lon="121.14579">
        <ele>413.0</ele>
      </trkpt>
      <trkpt lat="24.76299" lon="121.14582">
        <ele>411.0</ele>
      </trkpt>
      <trkpt lat="24.76295" lon="121.145811">
        <ele>411.0</ele>
      </trkpt>
      <trkpt lat="24.762871" lon="121.145745">
        <ele>409.0</ele>
      </trkpt>
      <trkpt lat="24.76272" lon="121.145718">
        <ele>406.0</ele>
      </trkpt>
      <trkpt lat="24.762622" lon="121.145755">
        <ele>406.0</ele>
      </trkpt>
      <trkpt lat="24.762579" lon="121.145789">
        <ele>407.0</ele>
      </trkpt>
      <trkpt lat="24.762547" lon="121.145826">
        <ele>407.0</ele>
      </trkpt>
      <trkpt lat="24.762542" lon="121.145862">
        <ele>407.0</ele>
      </trkpt>
      <trkpt lat="24.7624" lon="121.145946">
        <ele>405.0</ele>
      </trkpt>
      <trkpt lat="24.762368" lon="121.146002">
        <ele>404.0</ele>
      </trkpt>
      <trkpt lat="24.762181" lon="121.1461">
        <ele>404.0</ele>
      </trkpt>
      <trkpt lat="24.762137" lon="121.146105">
        <ele>404.0</ele>
      </trkpt>
      <trkpt lat="24.762084" lon="121.146142">
        <ele>404.0</ele>
      </trkpt>
      <trkpt lat="24.762068" lon="121.146177">
        <ele>404.0</ele>
      </trkpt>
      <trkpt lat="24.761977" lon="121.146171">
        <ele>404.0</ele>
      </trkpt>
      <trkpt lat="24.761829" lon="121.145947">
        <ele>403.0</ele>
      </trkpt>
      <trkpt lat="24.761752" lon="121.145988">
        <ele>403.0</ele>
      </trkpt>
      <trkpt lat="24.761671" lon="121.146085">
        <ele>404.0</ele>
      </trkpt>
      <trkpt lat="24.761522" lon="121.146084">
        <ele>403.0</ele>
      </trkpt>
      <trkpt lat="24.761508" lon="121.146006">
        <ele>401.0</ele>
      </trkpt>
      <trkpt lat="24.761456" lon="121.145926">
        <ele>399.0</ele>
      </trkpt>
      <trkpt lat="24.761277" lon="121.146067">
        <ele>401.0</ele>
      </trkpt>
      <trkpt lat="24.761194" lon="121.146257">
        <ele>405.0</ele>
      </trkpt>
      <trkpt lat="24.761059" lon="121.146284">
        <ele>405.0</ele>
      </trkpt>
      <trkpt lat="24.761074" lon="121.146356">
        <ele>407.0</ele>
      </trkpt>
      <trkpt lat="24.761054" lon="121.146587">
        <ele>414.0</ele>
      </trkpt>
      <trkpt lat="24.761008" lon="121.146834">
        <ele>416.0</ele>
      </trkpt>
      <trkpt lat="24.761084" lon="121.147077">
        <ele>415.0</ele>
      </trkpt>
      <trkpt lat="24.761163" lon="121.147215">
        <ele>415.0</ele>
      </trkpt>
      <trkpt lat="24.761107" lon="121.147427">
        <ele>414.0</ele>
      </trkpt>
      <trkpt lat="24.7611" lon="121.147542">
        <ele>413.0</ele>
      </trkpt>
      <trkpt lat="24.761043" lon="121.147594">
        <ele>412.0</ele>
      </trkpt>
      <trkpt lat="24.760952" lon="121.147643">
        <ele>411.0</ele>
      </trkpt>
      <trkpt lat="24.760859" lon="121.147656">
        <ele>411.0</ele>
      </trkpt>
      <trkpt lat="24.760791" lon="121.147696">
        <ele>409.0</ele>
      </trkpt>
      <trkpt lat="24.76053" lon="121.147773">
        <ele>405.0</ele>
      </trkpt>
      <trkpt lat="24.760436" lon="121.147783">
        <ele>405.0</ele>
      </trkpt>
      <trkpt lat="24.760378" lon="121.147816">
        <ele>404.0</ele>
      </trkpt>
      <trkpt lat="24.760245" lon="121.147851">
        <ele>403.0</ele>
      </trkpt>
      <trkpt lat="24.759936" lon="121.148072">
        <ele>404.0</ele>
      </trkpt>
      <trkpt lat="24.759936" lon="121.148072">
        <ele>404.0</ele>
      </trkpt>
      <trkpt lat="24.759739" lon="121.148225">
        <ele>404.0</ele>
      </trkpt>
      <trkpt lat="24.759532" lon="121.148497">
        <ele>402.0</ele>
      </trkpt>
      <trkpt lat="24.759684" lon="121.148672">
        <ele>403.0</ele>
      </trkpt>
      <trkpt lat="24.759921" lon="121.148871">
        <ele>406.0</ele>
      </trkpt>
      <trkpt lat="24.759923" lon="121.148953">
        <ele>406.0</ele>
      </trkpt>
      <trkpt lat="24.759957" lon="121.149029">
        <ele>407.0</ele>
      </trkpt>
      <trkpt lat="24.760063" lon="121.149174">
        <ele>406.0</ele>
      </trkpt>
      <trkpt lat="24.760073" lon="121.14926">
        <ele>405.0</ele>
      </trkpt>
      <trkpt lat="24.760157" lon="121.149384">
        <ele>402.0</ele>
      </trkpt>
      <trkpt lat="24.760246" lon="121.149636">
        <ele>400.0</ele>
      </trkpt>
      <trkpt lat="24.760355" lon="121.14987">
        <ele>398.0</ele>
      </trkpt>
      <trkpt lat="24.760289" lon="121.150041">
        <ele>398.0</ele>
      </trkpt>
      <trkpt lat="24.760181" lon="121.150148">
        <ele>399.0</ele>
      </trkpt>
      <trkpt lat="24.760154" lon="121.150242">
        <ele>399.0</ele>
      </trkpt>
      <trkpt lat="24.760188" lon="121.150338">
        <ele>399.0</ele>
      </trkpt>
      <trkpt lat="24.760152" lon="121.150392">
        <ele>400.0</ele>
      </trkpt>
      <trkpt lat="24.760079" lon="121.150457">
        <ele>401.0</ele>
      </trkpt>
      <trkpt lat="24.759937" lon="121.150535">
        <ele>401.0</ele>
      </trkpt>
      <trkpt lat="24.759931" lon="121.150563">
        <ele>401.0</ele>
      </trkpt>
      <trkpt lat="24.759898" lon="121.150579">
        <ele>401.0</ele>
      </trkpt>
      <trkpt lat="24.75955" lon="121.150603">
        <ele>399.0</ele>
      </trkpt>
      <trkpt lat="24.75932" lon="121.150734">
        <ele>400.0</ele>
      </trkpt>
      <trkpt lat="24.759277" lon="121.15079">
        <ele>401.0</ele>
      </trkpt>
      <trkpt lat="24.759193" lon="121.150837">
        <ele>402.0</ele>
      </trkpt>
      <trkpt lat="24.759151" lon="121.150878">
        <ele>401.0</ele>
      </trkpt>
      <trkpt lat="24.759105" lon="121.150874">
        <ele>401.0</ele>
      </trkpt>
      <trkpt lat="24.759048" lon="121.15092">
        <ele>400.0</ele>
      </trkpt>
      <trkpt lat="24.75894" lon="121.150946">
        <ele>400.0</ele>
      </trkpt>
      <trkpt lat="24.758833" lon="121.151045">
        <ele>399.0</ele>
      </trkpt>
      <trkpt lat="24.758711" lon="121.151081">
        <ele>399.0</ele>
      </trkpt>
      <trkpt lat="24.758691" lon="121.151106">
        <ele>399.0</ele>
      </trkpt>
      <trkpt lat="24.758518" lon="121.15117">
        <ele>399.0</ele>
      </trkpt>
      <trkpt lat="24.758396" lon="121.151272">
        <ele>400.0</ele>
      </trkpt>
      <trkpt lat="24.758396" lon="121.151338">
        <ele>401.0</ele>
      </trkpt>
      <trkpt lat="24.758423" lon="121.151395">
        <ele>401.0</ele>
      </trkpt>
      <trkpt lat="24.758436" lon="121.151502">
        <ele>402.0</ele>
      </trkpt>
      <trkpt lat="24.758556" lon="121.151719">
        <ele>401.0</ele>
      </trkpt>
      <trkpt lat="24.758597" lon="121.15183">
        <ele>400.0</ele>
      </trkpt>
      <trkpt lat="24.758612" lon="121.151942">
        <ele>399.0</ele>
      </trkpt>
      <trkpt lat="24.758587" lon="121.15246">
        <ele>397.0</ele>
      </trkpt>
      <trkpt lat="24.75857" lon="121.152557">
        <ele>396.0</ele>
      </trkpt>
      <trkpt lat="24.758507" lon="121.152642">
        <ele>394.0</ele>
      </trkpt>
      <trkpt lat="24.758475" lon="121.152655">
        <ele>394.0</ele>
      </trkpt>
      <trkpt lat="24.758392" lon="121.15277">
        <ele>392.0</ele>
      </trkpt>
      <trkpt lat="24.758329" lon="121.152781">
        <ele>392.0</ele>
      </trkpt>
      <trkpt lat="24.758307" lon="121.152802">
        <ele>391.0</ele>
      </trkpt>
      <trkpt lat="24.758278" lon="121.152873">
        <ele>389.0</ele>
      </trkpt>
      <trkpt lat="24.758278" lon="121.152943">
        <ele>387.0</ele>
      </trkpt>
      <trkpt lat="24.758181" lon="121.152941">
        <ele>387.0</ele>
      </trkpt>
      <trkpt lat="24.758181" lon="121.152941">
        <ele>387.0</ele>
      </trkpt>
      <trkpt lat="24.757922" lon="121.152935">
        <ele>384.0</ele>
      </trkpt>
      <trkpt lat="24.757765" lon="121.15287">
        <ele>383.0</ele>
      </trkpt>
      <trkpt lat="24.757081" lon="121.152516">
        <ele>377.0</ele>
      </trkpt>
      <trkpt lat="24.756929" lon="121.152459">
        <ele>376.0</ele>
      </trkpt>
      <trkpt lat="24.756776" lon="121.152443">
        <ele>374.0</ele>
      </trkpt>
      <trkpt lat="24.756583" lon="121.152485">
        <ele>372.0</ele>
      </trkpt>
      <trkpt lat="24.756491" lon="121.152476">
        <ele>370.0</ele>
      </trkpt>
      <trkpt lat="24.756439" lon="121.152422">
        <ele>369.0</ele>
      </trkpt>
      <trkpt lat="24.756364" lon="121.152276">
        <ele>366.0</ele>
      </trkpt>
      <trkpt lat="24.756272" lon="121.152215">
        <ele>364.0</ele>
      </trkpt>
      <trkpt lat="24.756118" lon="121.152153">
        <ele>361.0</ele>
      </trkpt>
      <trkpt lat="24.755974" lon="121.152151">
        <ele>359.0</ele>
      </trkpt>
      <trkpt lat="24.755796" lon="121.152192">
        <ele>357.0</ele>
      </trkpt>
      <trkpt lat="24.755386" lon="121.152179">
        <ele>354.0</ele>
      </trkpt>
      <trkpt lat="24.755386" lon="121.152179">
        <ele>354.0</ele>
      </trkpt>
      <trkpt lat="24.755194" lon="121.152274">
        <ele>353.0</ele>
      </trkpt>
      <trkpt lat="24.755051" lon="121.152327">
        <ele>353.0</ele>
      </trkpt>
      <trkpt lat="24.754898" lon="121.152362">
        <ele>352.0</ele>
      </trkpt>
      <trkpt lat="24.754811" lon="121.152302">
        <ele>350.0</ele>
      </trkpt>
      <trkpt lat="24.754776" lon="121.152207">
        <ele>349.0</ele>
      </trkpt>
      <trkpt lat="24.754784" lon="121.152147">
        <ele>349.0</ele>
      </trkpt>
      <trkpt lat="24.75445" lon="121.152083">
        <ele>346.0</ele>
      </trkpt>
      <trkpt lat="24.754235" lon="121.15202">
        <ele>345.0</ele>
      </trkpt>
      <trkpt lat="24.754007" lon="121.152046">
        <ele>344.0</ele>
      </trkpt>
      <trkpt lat="24.753883" lon="121.151959">
        <ele>345.0</ele>
      </trkpt>
      <trkpt lat="24.753493" lon="121.151901">
        <ele>347.0</ele>
      </trkpt>
      <trkpt lat="24.753352" lon="121.151792">
        <ele>349.0</ele>
      </trkpt>
      <trkpt lat="24.753233" lon="121.151625">
        <ele>349.0</ele>
      </trkpt>
      <trkpt lat="24.75321" lon="121.151659">
        <ele>350.0</ele>
      </trkpt>
      <trkpt lat="24.753117" lon="121.151568">
        <ele>347.0</ele>
      </trkpt>
      <trkpt lat="24.753117" lon="121.151568">
        <ele>347.0</ele>
      </trkpt>
      <trkpt lat="24.752871" lon="121.151439">
        <ele>344.0</ele>
      </trkpt>
      <trkpt lat="24.752701" lon="121.151562">
        <ele>346.0</ele>
      </trkpt>
      <trkpt lat="24.75264" lon="121.151633">
        <ele>346.0</ele>
      </trkpt>
      <trkpt lat="24.752638" lon="121.151682">
        <ele>346.0</ele>
      </trkpt>
      <trkpt lat="24.752557" lon="121.151783">
        <ele>343.0</ele>
      </trkpt>
      <trkpt lat="24.752403" lon="121.151808">
        <ele>340.0</ele>
      </trkpt>
      <trkpt lat="24.752376" lon="121.151787">
        <ele>340.0</ele>
      </trkpt>
      <trkpt lat="24.752315" lon="121.151797">
        <ele>339.0</ele>
      </trkpt>
      <trkpt lat="24.752145" lon="121.151647">
        <ele>340.0</ele>
      </trkpt>
      <trkpt lat="24.751915" lon="121.151406">
        <ele>338.0</ele>
      </trkpt>
      <trkpt lat="24.751904" lon="121.151368">
        <ele>338.0</ele>
      </trkpt>
      <trkpt lat="24.751723" lon="121.151188">
        <ele>340.0</ele>
      </trkpt>
      <trkpt lat="24.751697" lon="121.151146">
        <ele>340.0</ele>
      </trkpt>
      <trkpt lat="24.751151" lon="121.150705">
        <ele>350.0</ele>
      </trkpt>
      <trkpt lat="24.751114" lon="121.150628">
        <ele>351.0</ele>
      </trkpt>
      <trkpt lat="24.751152" lon="121.150508">
        <ele>352.0</ele>
      </trkpt>
      <trkpt lat="24.751069" lon="121.150323">
        <ele>355.0</ele>
      </trkpt>
      <trkpt lat="24.750956" lon="121.150242">
        <ele>358.0</ele>
      </trkpt>
      <trkpt lat="24.750936" lon="121.150202">
        <ele>359.0</ele>
      </trkpt>
      <trkpt lat="24.750825" lon="121.150129">
        <ele>361.0</ele>
      </trkpt>
      <trkpt lat="24.7506191" lon="121.1497995">
        <ele>361.0</ele>
      </trkpt>
      <trkpt lat="24.7507043" lon="121.1495313">
        <ele>363.0</ele>
      </trkpt>
      <trkpt lat="24.7506191" lon="121.1497834">
        <ele>361.0</ele>
      </trkpt>
      <trkpt lat="24.7504071" lon="121.1499068">
        <ele>359.0</ele>
      </trkpt>
      <trkpt lat="24.7500465" lon="121.1499028">
        <ele>355.0</ele>
      </trkpt>
      <trkpt lat="24.749948" lon="121.1499">
        <ele>355.0</ele>
      </trkpt>
      <trkpt lat="24.74979" lon="121.149948">
        <ele>356.0</ele>
      </trkpt>
      <trkpt lat="24.749626" lon="121.150037">
        <ele>356.0</ele>
      </trkpt>
      <trkpt lat="24.749585" lon="121.150028">
        <ele>356.0</ele>
      </trkpt>
      <trkpt lat="24.749585" lon="121.150028">
        <ele>356.0</ele>
      </trkpt>
      <trkpt lat="24.749476" lon="121.150002">
        <ele>357.0</ele>
      </trkpt>
      <trkpt lat="24.748971" lon="121.149433">
        <ele>350.0</ele>
      </trkpt>
      <trkpt lat="24.748934" lon="121.149448">
        <ele>350.0</ele>
      </trkpt>
      <trkpt lat="24.748934" lon="121.149448">
        <ele>350.0</ele>
      </trkpt>
      <trkpt lat="24.748817" lon="121.149495">
        <ele>349.0</ele>
      </trkpt>
      <trkpt lat="24.74871" lon="121.149597">
        <ele>349.0</ele>
      </trkpt>
      <trkpt lat="24.748248" lon="121.149898">
        <ele>345.0</ele>
      </trkpt>
      <trkpt lat="24.748248" lon="121.149898">
        <ele>345.0</ele>
      </trkpt>
      <trkpt lat="24.748194" lon="121.149933">
        <ele>344.0</ele>
      </trkpt>
      <trkpt lat="24.748093" lon="121.150114">
        <ele>342.0</ele>
      </trkpt>
      <trkpt lat="24.747832" lon="121.150352">
        <ele>335.0</ele>
      </trkpt>
      <trkpt lat="24.747545" lon="121.15042">
        <ele>330.0</ele>
      </trkpt>
      <trkpt lat="24.747545" lon="121.15042">
        <ele>330.0</ele>
      </trkpt>
      <trkpt lat="24.747171" lon="121.150509">
        <ele>328.0</ele>
      </trkpt>
      <trkpt lat="24.747078" lon="121.15062">
        <ele>328.0</ele>
      </trkpt>
      <trkpt lat="24.74698" lon="121.150659">
        <ele>328.0</ele>
      </trkpt>
      <trkpt lat="24.746891" lon="121.150842">
        <ele>329.0</ele>
      </trkpt>
      <trkpt lat="24.746834" lon="121.150882">
        <ele>328.0</ele>
      </trkpt>
      <trkpt lat="24.746834" lon="121.150882">
        <ele>328.0</ele>
      </trkpt>
      <trkpt lat="24.746685" lon="121.15087">
        <ele>328.0</ele>
      </trkpt>
      <trkpt lat="24.746542" lon="121.15089">
        <ele>327.0</ele>
      </trkpt>
      <trkpt lat="24.746407" lon="121.150961">
        <ele>323.0</ele>
      </trkpt>
      <trkpt lat="24.74621" lon="121.151025">
        <ele>319.0</ele>
      </trkpt>
      <trkpt lat="24.746174" lon="121.150891">
        <ele>323.0</ele>
      </trkpt>
      <trkpt lat="24.746073" lon="121.150762">
        <ele>325.0</ele>
      </trkpt>
      <trkpt lat="24.746028" lon="121.150645">
        <ele>325.0</ele>
      </trkpt>
      <trkpt lat="24.745952" lon="121.15051">
        <ele>327.0</ele>
      </trkpt>
      <trkpt lat="24.745912" lon="121.15052">
        <ele>327.0</ele>
      </trkpt>
      <trkpt lat="24.745836" lon="121.150454">
        <ele>328.0</ele>
      </trkpt>
      <trkpt lat="24.745672" lon="121.150396">
        <ele>330.0</ele>
      </trkpt>
      <trkpt lat="24.745563" lon="121.150399">
        <ele>331.0</ele>
      </trkpt>
      <trkpt lat="24.745455" lon="121.150306">
        <ele>335.0</ele>
      </trkpt>
      <trkpt lat="24.745448" lon="121.150275">
        <ele>336.0</ele>
      </trkpt>
      <trkpt lat="24.745239" lon="121.150142">
        <ele>344.0</ele>
      </trkpt>
      <trkpt lat="24.745018" lon="121.149937">
        <ele>355.0</ele>
      </trkpt>
      <trkpt lat="24.744894" lon="121.149846">
        <ele>354.0</ele>
      </trkpt>
      <trkpt lat="24.74479" lon="121.149689">
        <ele>354.0</ele>
      </trkpt>
      <trkpt lat="24.744669" lon="121.14968">
        <ele>354.0</ele>
      </trkpt>
      <trkpt lat="24.744213" lon="121.149455">
        <ele>359.0</ele>
      </trkpt>
      <trkpt lat="24.744145" lon="121.149382">
        <ele>361.0</ele>
      </trkpt>
      <trkpt lat="24.744104" lon="121.149302">
        <ele>363.0</ele>
      </trkpt>
      <trkpt lat="24.744111" lon="121.149228">
        <ele>365.0</ele>
      </trkpt>
      <trkpt lat="24.744006" lon="121.14905">
        <ele>367.0</ele>
      </trkpt>
      <trkpt lat="24.743963" lon="121.149007">
        <ele>368.0</ele>
      </trkpt>
      <trkpt lat="24.743796" lon="121.148953">
        <ele>370.0</ele>
      </trkpt>
      <trkpt lat="24.743675" lon="121.148856">
        <ele>371.0</ele>
      </trkpt>
      <trkpt lat="24.743472" lon="121.148793">
        <ele>374.0</ele>
      </trkpt>
      <trkpt lat="24.743472" lon="121.148793">
        <ele>374.0</ele>
      </trkpt>
      <trkpt lat="24.743347" lon="121.148798">
        <ele>376.0</ele>
      </trkpt>
      <trkpt lat="24.743266" lon="121.148776">
        <ele>375.0</ele>
      </trkpt>
      <trkpt lat="24.74319" lon="121.148726">
        <ele>374.0</ele>
      </trkpt>
      <trkpt lat="24.743113" lon="121.148634">
        <ele>374.0</ele>
      </trkpt>
      <trkpt lat="24.74312" lon="121.148445">
        <ele>377.0</ele>
      </trkpt>
      <trkpt lat="24.742915" lon="121.148306">
        <ele>376.0</ele>
      </trkpt>
      <trkpt lat="24.742563" lon="121.147794">
        <ele>377.0</ele>
      </trkpt>
      <trkpt lat="24.742332" lon="121.147408">
        <ele>376.0</ele>
      </trkpt>
      <trkpt lat="24.742257" lon="121.14733">
        <ele>375.0</ele>
      </trkpt>
      <trkpt lat="24.741977" lon="121.147343">
        <ele>375.0</ele>
      </trkpt>
      <trkpt lat="24.741977" lon="121.147343">
        <ele>375.0</ele>
      </trkpt>
      <trkpt lat="24.741888" lon="121.14732">
        <ele>375.0</ele>
      </trkpt>
      <trkpt lat="24.74179" lon="121.147264">
        <ele>375.0</ele>
      </trkpt>
      <trkpt lat="24.741735" lon="121.147163">
        <ele>375.0</ele>
      </trkpt>
      <trkpt lat="24.741659" lon="121.146947">
        <ele>376.0</ele>
      </trkpt>
      <trkpt lat="24.741566" lon="121.146879">
        <ele>377.0</ele>
      </trkpt>
      <trkpt lat="24.741522" lon="121.14686">
        <ele>377.0</ele>
      </trkpt>
      <trkpt lat="24.741389" lon="121.146862">
        <ele>378.0</ele>
      </trkpt>
      <trkpt lat="24.741175" lon="121.146806">
        <ele>380.0</ele>
      </trkpt>
      <trkpt lat="24.740972" lon="121.146619">
        <ele>385.0</ele>
      </trkpt>
      <trkpt lat="24.740492" lon="121.146372">
        <ele>380.0</ele>
      </trkpt>
      <trkpt lat="24.740481" lon="121.146367">
        <ele>380.0</ele>
      </trkpt>
      <trkpt lat="24.740481" lon="121.146367">
        <ele>380.0</ele>
      </trkpt>
      <trkpt lat="24.740043" lon="121.146656">
        <ele>379.0</ele>
      </trkpt>
      <trkpt lat="24.739962" lon="121.14663">
        <ele>377.0</ele>
      </trkpt>
      <trkpt lat="24.73975" lon="121.146638">
        <ele>372.0</ele>
      </trkpt>
      <trkpt lat="24.739515" lon="121.146609">
        <ele>366.0</ele>
      </trkpt>
      <trkpt lat="24.739437" lon="121.146632">
        <ele>365.0</ele>
      </trkpt>
      <trkpt lat="24.739355" lon="121.146699">
        <ele>363.0</ele>
      </trkpt>
      <trkpt lat="24.739261" lon="121.146744">
        <ele>360.0</ele>
      </trkpt>
      <trkpt lat="24.739173" lon="121.146837">
        <ele>357.0</ele>
      </trkpt>
      <trkpt lat="24.73908" lon="121.147036">
        <ele>355.0</ele>
      </trkpt>
      <trkpt lat="24.739071" lon="121.147416">
        <ele>353.0</ele>
      </trkpt>
      <trkpt lat="24.738735" lon="121.147689">
        <ele>352.0</ele>
      </trkpt>
      <trkpt lat="24.738505" lon="121.147692">
        <ele>355.0</ele>
      </trkpt>
      <trkpt lat="24.7381" lon="121.147341">
        <ele>355.0</ele>
      </trkpt>
      <trkpt lat="24.737994" lon="121.147185">
        <ele>353.0</ele>
      </trkpt>
      <trkpt lat="24.738017" lon="121.147355">
        <ele>355.0</ele>
      </trkpt>
      <trkpt lat="24.738169" lon="121.147647">
        <ele>356.0</ele>
      </trkpt>
      <trkpt lat="24.73821" lon="121.147868">
        <ele>353.0</ele>
      </trkpt>
      <trkpt lat="24.738134" lon="121.148025">
        <ele>349.0</ele>
      </trkpt>
      <trkpt lat="24.738034" lon="121.14818">
        <ele>346.0</ele>
      </trkpt>
      <trkpt lat="24.737915" lon="121.148521">
        <ele>339.0</ele>
      </trkpt>
      <trkpt lat="24.738014" lon="121.14876">
        <ele>335.0</ele>
      </trkpt>
      <trkpt lat="24.738136" lon="121.149135">
        <ele>329.0</ele>
      </trkpt>
      <trkpt lat="24.738136" lon="121.149135">
        <ele>329.0</ele>
      </trkpt>
      <trkpt lat="24.738014" lon="121.14876">
        <ele>335.0</ele>
      </trkpt>
      <trkpt lat="24.737915" lon="121.148521">
        <ele>339.0</ele>
      </trkpt>
      <trkpt lat="24.738034" lon="121.14818">
        <ele>346.0</ele>
      </trkpt>
      <trkpt lat="24.738134" lon="121.148025">
        <ele>349.0</ele>
      </trkpt>
      <trkpt lat="24.73821" lon="121.147868">
        <ele>353.0</ele>
      </trkpt>
      <trkpt lat="24.738169" lon="121.147647">
        <ele>356.0</ele>
      </trkpt>
      <trkpt lat="24.738017" lon="121.147355">
        <ele>355.0</ele>
      </trkpt>
      <trkpt lat="24.737994" lon="121.147185">
        <ele>353.0</ele>
      </trkpt>
      <trkpt lat="24.737775" lon="121.147129">
        <ele>349.0</ele>
      </trkpt>
      <trkpt lat="24.737634" lon="121.147162">
        <ele>348.0</ele>
      </trkpt>
      <trkpt lat="24.737528" lon="121.147256">
        <ele>348.0</ele>
      </trkpt>
      <trkpt lat="24.737161" lon="121.14729">
        <ele>346.0</ele>
      </trkpt>
      <trkpt lat="24.737058" lon="121.147222">
        <ele>345.0</ele>
      </trkpt>
      <trkpt lat="24.736769" lon="121.146897">
        <ele>344.0</ele>
      </trkpt>
      <trkpt lat="24.736769" lon="121.146897">
        <ele>344.0</ele>
      </trkpt>
      <trkpt lat="24.736621" lon="121.146731">
        <ele>344.0</ele>
      </trkpt>
      <trkpt lat="24.736431" lon="121.146609">
        <ele>343.0</ele>
      </trkpt>
      <trkpt lat="24.736218" lon="121.146449">
        <ele>342.0</ele>
      </trkpt>
      <trkpt lat="24.735878" lon="121.146269">
        <ele>342.0</ele>
      </trkpt>
      <trkpt lat="24.735537" lon="121.146229">
        <ele>344.0</ele>
      </trkpt>
      <trkpt lat="24.735372" lon="121.14621">
        <ele>346.0</ele>
      </trkpt>
      <trkpt lat="24.735171" lon="121.146095">
        <ele>349.0</ele>
      </trkpt>
      <trkpt lat="24.735042" lon="121.145908">
        <ele>354.0</ele>
      </trkpt>
      <trkpt lat="24.734639" lon="121.145652">
        <ele>351.0</ele>
      </trkpt>
      <trkpt lat="24.734538" lon="121.145306">
        <ele>352.0</ele>
      </trkpt>
      <trkpt lat="24.734506" lon="121.145123">
        <ele>354.0</ele>
      </trkpt>
      <trkpt lat="24.734515" lon="121.145056">
        <ele>355.0</ele>
      </trkpt>
      <trkpt lat="24.734492" lon="121.144951">
        <ele>356.0</ele>
      </trkpt>
      <trkpt lat="24.734497" lon="121.144907">
        <ele>356.0</ele>
      </trkpt>
      <trkpt lat="24.734831" lon="121.144316">
        <ele>372.0</ele>
      </trkpt>
      <trkpt lat="24.734851" lon="121.144129">
        <ele>376.0</ele>
      </trkpt>
      <trkpt lat="24.734851" lon="121.144129">
        <ele>376.0</ele>
      </trkpt>
      <trkpt lat="24.734838" lon="121.144017">
        <ele>377.0</ele>
      </trkpt>
      <trkpt lat="24.734786" lon="121.143888">
        <ele>377.0</ele>
      </trkpt>
      <trkpt lat="24.734649" lon="121.143661">
        <ele>377.0</ele>
      </trkpt>
      <trkpt lat="24.73461" lon="121.143565">
        <ele>377.0</ele>
      </trkpt>
      <trkpt lat="24.734619" lon="121.143522">
        <ele>378.0</ele>
      </trkpt>
      <trkpt lat="24.734669" lon="121.143509">
        <ele>379.0</ele>
      </trkpt>
      <trkpt lat="24.734791" lon="121.143552">
        <ele>381.0</ele>
      </trkpt>
      <trkpt lat="24.734866" lon="121.143703">
        <ele>381.0</ele>
      </trkpt>
      <trkpt lat="24.734866" lon="121.143703">
        <ele>381.0</ele>
      </trkpt>
      <trkpt lat="24.734892" lon="121.143755">
        <ele>381.0</ele>
      </trkpt>
      <trkpt lat="24.734934" lon="121.143608">
        <ele>384.0</ele>
      </trkpt>
      <trkpt lat="24.735067" lon="121.14364">
        <ele>385.0</ele>
      </trkpt>
      <trkpt lat="24.735271" lon="121.143608">
        <ele>384.0</ele>
      </trkpt>
      <trkpt lat="24.73525" lon="121.143584">
        <ele>385.0</ele>
      </trkpt>
      <trkpt lat="24.73525" lon="121.143584">
        <ele>385.0</ele>
      </trkpt>
      <trkpt lat="24.73529" lon="121.143483">
        <ele>385.0</ele>
      </trkpt>
      <trkpt lat="24.735253" lon="121.143426">
        <ele>386.0</ele>
      </trkpt>
      <trkpt lat="24.735177" lon="121.143427">
        <ele>386.0</ele>
      </trkpt>
      <trkpt lat="24.735305" lon="121.143216">
        <ele>385.0</ele>
      </trkpt>
      <trkpt lat="24.735311" lon="121.143164">
        <ele>385.0</ele>
      </trkpt>
      <trkpt lat="24.735297" lon="121.143142">
        <ele>385.0</ele>
      </trkpt>
      <trkpt lat="24.735262" lon="121.143136">
        <ele>385.0</ele>
      </trkpt>
      <trkpt lat="24.735262" lon="121.143136">
        <ele>385.0</ele>
      </trkpt>
      <trkpt lat="24.735235" lon="121.143147">
        <ele>385.0</ele>
      </trkpt>
      <trkpt lat="24.735183" lon="121.143252">
        <ele>386.0</ele>
      </trkpt>
      <trkpt lat="24.735092" lon="121.143311">
        <ele>387.0</ele>
      </trkpt>
      <trkpt lat="24.73494" lon="121.143261">
        <ele>386.0</ele>
      </trkpt>
      <trkpt lat="24.734852" lon="121.143251">
        <ele>384.0</ele>
      </trkpt>
      <trkpt lat="24.734751" lon="121.143297">
        <ele>382.0</ele>
      </trkpt>
      <trkpt lat="24.734614" lon="121.14332">
        <ele>380.0</ele>
      </trkpt>
      <trkpt lat="24.734542" lon="121.143314">
        <ele>378.0</ele>
      </trkpt>
      <trkpt lat="24.734506" lon="121.143253">
        <ele>377.0</ele>
      </trkpt>
      <trkpt lat="24.734515" lon="121.143197">
        <ele>376.0</ele>
      </trkpt>
      <trkpt lat="24.734573" lon="121.143125">
        <ele>376.0</ele>
      </trkpt>
      <trkpt lat="24.73467" lon="121.143087">
        <ele>378.0</ele>
      </trkpt>
      <trkpt lat="24.734724" lon="121.14309">
        <ele>379.0</ele>
      </trkpt>
      <trkpt lat="24.734794" lon="121.143046">
        <ele>380.0</ele>
      </trkpt>
      <trkpt lat="24.734813" lon="121.143011">
        <ele>380.0</ele>
      </trkpt>
      <trkpt lat="24.734801" lon="121.14298">
        <ele>380.0</ele>
      </trkpt>
      <trkpt lat="24.73467" lon="121.142997">
        <ele>377.0</ele>
      </trkpt>
      <trkpt lat="24.734549" lon="121.142953">
        <ele>373.0</ele>
      </trkpt>
      <trkpt lat="24.734455" lon="121.142888">
        <ele>370.0</ele>
      </trkpt>
      <trkpt lat="24.734397" lon="121.142866">
        <ele>368.0</ele>
      </trkpt>
      <trkpt lat="24.734278" lon="121.142951">
        <ele>367.0</ele>
      </trkpt>
      <trkpt lat="24.734229" lon="121.142953">
        <ele>366.0</ele>
      </trkpt>
      <trkpt lat="24.734055" lon="121.142821">
        <ele>359.0</ele>
      </trkpt>
      <trkpt lat="24.734036" lon="121.142775">
        <ele>358.0</ele>
      </trkpt>
      <trkpt lat="24.734064" lon="121.142721">
        <ele>358.0</ele>
      </trkpt>
      <trkpt lat="24.734256" lon="121.142442">
        <ele>357.0</ele>
      </trkpt>
      <trkpt lat="24.734268" lon="121.142365">
        <ele>355.0</ele>
      </trkpt>
      <trkpt lat="24.734258" lon="121.142276">
        <ele>353.0</ele>
      </trkpt>
      <trkpt lat="24.734203" lon="121.142142">
        <ele>348.0</ele>
      </trkpt>
      <trkpt lat="24.734191" lon="121.142089">
        <ele>346.0</ele>
      </trkpt>
      <trkpt lat="24.734199" lon="121.142045">
        <ele>345.0</ele>
      </trkpt>
      <trkpt lat="24.734199" lon="121.142045">
        <ele>345.0</ele>
      </trkpt>
      <trkpt lat="24.734201" lon="121.142031">
        <ele>345.0</ele>
      </trkpt>
      <trkpt lat="24.734158" lon="121.142046">
        <ele>344.0</ele>
      </trkpt>
      <trkpt lat="24.734131" lon="121.142084">
        <ele>345.0</ele>
      </trkpt>
      <trkpt lat="24.734007" lon="121.141988">
        <ele>341.0</ele>
      </trkpt>
      <trkpt lat="24.734" lon="121.141935">
        <ele>340.0</ele>
      </trkpt>
      <trkpt lat="24.734008" lon="121.142086">
        <ele>343.0</ele>
      </trkpt>
      <trkpt lat="24.733967" lon="121.142113">
        <ele>343.0</ele>
      </trkpt>
      <trkpt lat="24.733892" lon="121.1421">
        <ele>342.0</ele>
      </trkpt>
      <trkpt lat="24.733836" lon="121.14214">
        <ele>342.0</ele>
      </trkpt>
      <trkpt lat="24.733519" lon="121.142254">
        <ele>339.0</ele>
      </trkpt>
      <trkpt lat="24.733438" lon="121.142348">
        <ele>340.0</ele>
      </trkpt>
      <trkpt lat="24.733307" lon="121.142438">
        <ele>339.0</ele>
      </trkpt>
      <trkpt lat="24.733171" lon="121.142389">
        <ele>336.0</ele>
      </trkpt>
      <trkpt lat="24.733099" lon="121.142397">
        <ele>335.0</ele>
      </trkpt>
      <trkpt lat="24.732984" lon="121.142483">
        <ele>333.0</ele>
      </trkpt>
      <trkpt lat="24.73274" lon="121.142539">
        <ele>329.0</ele>
      </trkpt>
      <trkpt lat="24.732724" lon="121.142461">
        <ele>328.0</ele>
      </trkpt>
      <trkpt lat="24.732701" lon="121.142372">
        <ele>328.0</ele>
      </trkpt>
      <trkpt lat="24.732657" lon="121.142297">
        <ele>327.0</ele>
      </trkpt>
      <trkpt lat="24.732502" lon="121.142114">
        <ele>325.0</ele>
      </trkpt>
      <trkpt lat="24.732439" lon="121.142071">
        <ele>324.0</ele>
      </trkpt>
      <trkpt lat="24.732214" lon="121.141967">
        <ele>320.0</ele>
      </trkpt>
      <trkpt lat="24.732144" lon="121.141944">
        <ele>319.0</ele>
      </trkpt>
      <trkpt lat="24.731724" lon="121.141928">
        <ele>310.0</ele>
      </trkpt>
      <trkpt lat="24.731504" lon="121.141946">
        <ele>305.0</ele>
      </trkpt>
      <trkpt lat="24.731504" lon="121.141946">
        <ele>305.0</ele>
      </trkpt>
      <trkpt lat="24.731214" lon="121.141968">
        <ele>298.0</ele>
      </trkpt>
      <trkpt lat="24.730776" lon="121.142091">
        <ele>287.0</ele>
      </trkpt>
      <trkpt lat="24.730586" lon="121.142098">
        <ele>284.0</ele>
      </trkpt>
      <trkpt lat="24.730164" lon="121.142062">
        <ele>279.0</ele>
      </trkpt>
      <trkpt lat="24.730164" lon="121.142062">
        <ele>279.0</ele>
      </trkpt>
      <trkpt lat="24.730098" lon="121.14206">
        <ele>278.0</ele>
      </trkpt>
      <trkpt lat="24.729512" lon="121.142256">
        <ele>268.0</ele>
      </trkpt>
      <trkpt lat="24.729323" lon="121.142274">
        <ele>265.0</ele>
      </trkpt>
      <trkpt lat="24.729193" lon="121.142264">
        <ele>263.0</ele>
      </trkpt>
      <trkpt lat="24.728672" lon="121.141836">
        <ele>251.0</ele>
      </trkpt>
      <trkpt lat="24.728409" lon="121.141736">
        <ele>245.0</ele>
      </trkpt>
      <trkpt lat="24.728269" lon="121.141713">
        <ele>243.0</ele>
      </trkpt>
      <trkpt lat="24.728054" lon="121.141733">
        <ele>238.0</ele>
      </trkpt>
      <trkpt lat="24.727716" lon="121.141694">
        <ele>231.0</ele>
      </trkpt>
      <trkpt lat="24.727641" lon="121.141732">
        <ele>229.0</ele>
      </trkpt>
      <trkpt lat="24.727405" lon="121.141929">
        <ele>224.0</ele>
      </trkpt>
      <trkpt lat="24.727236" lon="121.142049">
        <ele>221.0</ele>
      </trkpt>
      <trkpt lat="24.727164" lon="121.142081">
        <ele>220.0</ele>
      </trkpt>
      <trkpt lat="24.726997" lon="121.14211">
        <ele>219.0</ele>
      </trkpt>
      <trkpt lat="24.726903" lon="121.142145">
        <ele>218.0</ele>
      </trkpt>
      <trkpt lat="24.7269" lon="121.142138">
        <ele>218.0</ele>
      </trkpt>
      <trkpt lat="24.7269" lon="121.142138">
        <ele>218.0</ele>
      </trkpt>
      <trkpt lat="24.726829" lon="121.141955">
        <ele>217.0</ele>
      </trkpt>
      <trkpt lat="24.726759" lon="121.141843">
        <ele>217.0</ele>
      </trkpt>
      <trkpt lat="24.726673" lon="121.141781">
        <ele>215.0</ele>
      </trkpt>
      <trkpt lat="24.726705" lon="121.141909">
        <ele>216.0</ele>
      </trkpt>
      <trkpt lat="24.726719" lon="121.142078">
        <ele>216.0</ele>
      </trkpt>
      <trkpt lat="24.726344" lon="121.142268">
        <ele>219.0</ele>
      </trkpt>
      <trkpt lat="24.725968" lon="121.142555">
        <ele>224.0</ele>
      </trkpt>
      <trkpt lat="24.725809" lon="121.142459">
        <ele>226.0</ele>
      </trkpt>
      <trkpt lat="24.725591" lon="121.1424">
        <ele>227.0</ele>
      </trkpt>
      <trkpt lat="24.725511" lon="121.142398">
        <ele>227.0</ele>
      </trkpt>
      <trkpt lat="24.725511" lon="121.142398">
        <ele>227.0</ele>
      </trkpt>
      <trkpt lat="24.725438" lon="121.142397">
        <ele>228.0</ele>
      </trkpt>
      <trkpt lat="24.725288" lon="121.142478">
        <ele>231.0</ele>
      </trkpt>
      <trkpt lat="24.725184" lon="121.142494">
        <ele>232.0</ele>
      </trkpt>
      <trkpt lat="24.725033" lon="121.142638">
        <ele>232.0</ele>
      </trkpt>
      <trkpt lat="24.724927" lon="121.142659">
        <ele>233.0</ele>
      </trkpt>
      <trkpt lat="24.724679" lon="121.142589">
        <ele>236.0</ele>
      </trkpt>
      <trkpt lat="24.724512" lon="121.142481">
        <ele>238.0</ele>
      </trkpt>
      <trkpt lat="24.724431" lon="121.142376">
        <ele>237.0</ele>
      </trkpt>
      <trkpt lat="24.724341" lon="121.14234">
        <ele>237.0</ele>
      </trkpt>
      <trkpt lat="24.724302" lon="121.142377">
        <ele>238.0</ele>
      </trkpt>
      <trkpt lat="24.724253" lon="121.142368">
        <ele>238.0</ele>
      </trkpt>
      <trkpt lat="24.724265" lon="121.142219">
        <ele>235.0</ele>
      </trkpt>
      <trkpt lat="24.724294" lon="121.142159">
        <ele>234.0</ele>
      </trkpt>
      <trkpt lat="24.724236" lon="121.142098">
        <ele>233.0</ele>
      </trkpt>
      <trkpt lat="24.724174" lon="121.142002">
        <ele>232.0</ele>
      </trkpt>
      <trkpt lat="24.724197" lon="121.14191">
        <ele>230.0</ele>
      </trkpt>
      <trkpt lat="24.724323" lon="121.141849">
        <ele>227.0</ele>
      </trkpt>
      <trkpt lat="24.724336" lon="121.141789">
        <ele>225.0</ele>
      </trkpt>
      <trkpt lat="24.724332" lon="121.141687">
        <ele>223.0</ele>
      </trkpt>
      <trkpt lat="24.724371" lon="121.14157">
        <ele>222.0</ele>
      </trkpt>
      <trkpt lat="24.724315" lon="121.141536">
        <ele>223.0</ele>
      </trkpt>
      <trkpt lat="24.724307" lon="121.141499">
        <ele>223.0</ele>
      </trkpt>
      <trkpt lat="24.724321" lon="121.141455">
        <ele>223.0</ele>
      </trkpt>
      <trkpt lat="24.724418" lon="121.141292">
        <ele>221.0</ele>
      </trkpt>
      <trkpt lat="24.724407" lon="121.141251">
        <ele>221.0</ele>
      </trkpt>
      <trkpt lat="24.724431" lon="121.141164">
        <ele>221.0</ele>
      </trkpt>
      <trkpt lat="24.724413" lon="121.141116">
        <ele>221.0</ele>
      </trkpt>
      <trkpt lat="24.724443" lon="121.141061">
        <ele>220.0</ele>
      </trkpt>
      <trkpt lat="24.724364" lon="121.140942">
        <ele>221.0</ele>
      </trkpt>
      <trkpt lat="24.724392" lon="121.140829">
        <ele>221.0</ele>
      </trkpt>
      <trkpt lat="24.724357" lon="121.140774">
        <ele>221.0</ele>
      </trkpt>
      <trkpt lat="24.724361" lon="121.140701">
        <ele>221.0</ele>
      </trkpt>
      <trkpt lat="24.724267" lon="121.140488">
        <ele>223.0</ele>
      </trkpt>
      <trkpt lat="24.724181" lon="121.140458">
        <ele>224.0</ele>
      </trkpt>
      <trkpt lat="24.724125" lon="121.140393">
        <ele>224.0</ele>
      </trkpt>
      <trkpt lat="24.724116" lon="121.140358">
        <ele>224.0</ele>
      </trkpt>
      <trkpt lat="24.724122" lon="121.140214">
        <ele>224.0</ele>
      </trkpt>
      <trkpt lat="24.72415" lon="121.140063">
        <ele>225.0</ele>
      </trkpt>
      <trkpt lat="24.724115" lon="121.13966">
        <ele>223.0</ele>
      </trkpt>
      <trkpt lat="24.724104" lon="121.139531">
        <ele>222.0</ele>
      </trkpt>
      <trkpt lat="24.724085" lon="121.139409">
        <ele>222.0</ele>
      </trkpt>
      <trkpt lat="24.72401" lon="121.139341">
        <ele>221.0</ele>
      </trkpt>
      <trkpt lat="24.723979" lon="121.139237">
        <ele>220.0</ele>
      </trkpt>
      <trkpt lat="24.723979" lon="121.139237">
        <ele>220.0</ele>
      </trkpt>
      <trkpt lat="24.723932" lon="121.139083">
        <ele>218.0</ele>
      </trkpt>
      <trkpt lat="24.723841" lon="121.138913">
        <ele>214.0</ele>
      </trkpt>
      <trkpt lat="24.72385" lon="121.138863">
        <ele>213.0</ele>
      </trkpt>
      <trkpt lat="24.723907" lon="121.138778">
        <ele>212.0</ele>
      </trkpt>
      <trkpt lat="24.723915" lon="121.138682">
        <ele>211.0</ele>
      </trkpt>
      <trkpt lat="24.723865" lon="121.138609">
        <ele>208.0</ele>
      </trkpt>
      <trkpt lat="24.723821" lon="121.138578">
        <ele>207.0</ele>
      </trkpt>
      <trkpt lat="24.723711" lon="121.138579">
        <ele>205.0</ele>
      </trkpt>
      <trkpt lat="24.723663" lon="121.138562">
        <ele>204.0</ele>
      </trkpt>
      <trkpt lat="24.723608" lon="121.138459">
        <ele>201.0</ele>
      </trkpt>
      <trkpt lat="24.723568" lon="121.138309">
        <ele>197.0</ele>
      </trkpt>
      <trkpt lat="24.723621" lon="121.138184">
        <ele>196.0</ele>
      </trkpt>
      <trkpt lat="24.723712" lon="121.138104">
        <ele>198.0</ele>
      </trkpt>
      <trkpt lat="24.723732" lon="121.13791">
        <ele>196.0</ele>
      </trkpt>
      <trkpt lat="24.723761" lon="121.137816">
        <ele>196.0</ele>
      </trkpt>
      <trkpt lat="24.723817" lon="121.137787">
        <ele>197.0</ele>
      </trkpt>
      <trkpt lat="24.723901" lon="121.137693">
        <ele>197.0</ele>
      </trkpt>
      <trkpt lat="24.723953" lon="121.137597">
        <ele>197.0</ele>
      </trkpt>
      <trkpt lat="24.723961" lon="121.137555">
        <ele>197.0</ele>
      </trkpt>
      <trkpt lat="24.723944" lon="121.137527">
        <ele>196.0</ele>
      </trkpt>
      <trkpt lat="24.723947" lon="121.137393">
        <ele>195.0</ele>
      </trkpt>
      <trkpt lat="24.723924" lon="121.137361">
        <ele>194.0</ele>
      </trkpt>
      <trkpt lat="24.72394" lon="121.137326">
        <ele>194.0</ele>
      </trkpt>
      <trkpt lat="24.723898" lon="121.13724">
        <ele>193.0</ele>
      </trkpt>
      <trkpt lat="24.723921" lon="121.137195">
        <ele>193.0</ele>
      </trkpt>
      <trkpt lat="24.723898" lon="121.137129">
        <ele>192.0</ele>
      </trkpt>
      <trkpt lat="24.723979" lon="121.136899">
        <ele>191.0</ele>
      </trkpt>
      <trkpt lat="24.724174" lon="121.136587">
        <ele>191.0</ele>
      </trkpt>
      <trkpt lat="24.724189" lon="121.136461">
        <ele>191.0</ele>
      </trkpt>
      <trkpt lat="24.724418" lon="121.135912">
        <ele>187.0</ele>
      </trkpt>
      <trkpt lat="24.724401" lon="121.135442">
        <ele>187.0</ele>
      </trkpt>
      <trkpt lat="24.724401" lon="121.135442">
        <ele>187.0</ele>
      </trkpt>
      <trkpt lat="24.724395" lon="121.135276">
        <ele>187.0</ele>
      </trkpt>
      <trkpt lat="24.724342" lon="121.135181">
        <ele>187.0</ele>
      </trkpt>
      <trkpt lat="24.724325" lon="121.135103">
        <ele>187.0</ele>
      </trkpt>
      <trkpt lat="24.724369" lon="121.134745">
        <ele>185.0</ele>
      </trkpt>
      <trkpt lat="24.724707" lon="121.134244">
        <ele>187.0</ele>
      </trkpt>
      <trkpt lat="24.724774" lon="121.134235">
        <ele>188.0</ele>
      </trkpt>
      <trkpt lat="24.724842" lon="121.134258">
        <ele>190.0</ele>
      </trkpt>
      <trkpt lat="24.724989" lon="121.134187">
        <ele>193.0</ele>
      </trkpt>
      <trkpt lat="24.725146" lon="121.134148">
        <ele>190.0</ele>
      </trkpt>
      <trkpt lat="24.725266" lon="121.134088">
        <ele>187.0</ele>
      </trkpt>
      <trkpt lat="24.725296" lon="121.134088">
        <ele>187.0</ele>
      </trkpt>
      <trkpt lat="24.725343" lon="121.133912">
        <ele>184.0</ele>
      </trkpt>
      <trkpt lat="24.72547" lon="121.133599">
        <ele>179.0</ele>
      </trkpt>
      <trkpt lat="24.725559" lon="121.133451">
        <ele>178.0</ele>
      </trkpt>
      <trkpt lat="24.725564" lon="121.133081">
        <ele>176.0</ele>
      </trkpt>
      <trkpt lat="24.725584" lon="121.132923">
        <ele>175.0</ele>
      </trkpt>
      <trkpt lat="24.725567" lon="121.132851">
        <ele>175.0</ele>
      </trkpt>
      <trkpt lat="24.725408" lon="121.132754">
        <ele>174.0</ele>
      </trkpt>
      <trkpt lat="24.725421" lon="121.132679">
        <ele>174.0</ele>
      </trkpt>
      <trkpt lat="24.725404" lon="121.132628">
        <ele>174.0</ele>
      </trkpt>
      <trkpt lat="24.725436" lon="121.132503">
        <ele>173.0</ele>
      </trkpt>
      <trkpt lat="24.725428" lon="121.132374">
        <ele>171.0</ele>
      </trkpt>
      <trkpt lat="24.725478" lon="121.132181">
        <ele>168.0</ele>
      </trkpt>
      <trkpt lat="24.725495" lon="121.132021">
        <ele>165.0</ele>
      </trkpt>
      <trkpt lat="24.72565" lon="121.131743">
        <ele>161.0</ele>
      </trkpt>
      <trkpt lat="24.725794" lon="121.131692">
        <ele>159.0</ele>
      </trkpt>
      <trkpt lat="24.725824" lon="121.131662">
        <ele>159.0</ele>
      </trkpt>
      <trkpt lat="24.725824" lon="121.131662">
        <ele>159.0</ele>
      </trkpt>
      <trkpt lat="24.725876" lon="121.131612">
        <ele>159.0</ele>
      </trkpt>
      <trkpt lat="24.72587" lon="121.131543">
        <ele>159.0</ele>
      </trkpt>
      <trkpt lat="24.725884" lon="121.131475">
        <ele>159.0</ele>
      </trkpt>
      <trkpt lat="24.725919" lon="121.13135">
        <ele>158.0</ele>
      </trkpt>
      <trkpt lat="24.72581" lon="121.131263">
        <ele>159.0</ele>
      </trkpt>
      <trkpt lat="24.725543" lon="121.130965">
        <ele>158.0</ele>
      </trkpt>
      <trkpt lat="24.725928" lon="121.130119">
        <ele>157.0</ele>
      </trkpt>
    </trkseg>
  </trk>
</gpx>
