<?xml version="1.0" encoding="UTF-8"?>
<gpx xmlns="http://www.topografix.com/GPX/1/1" xmlns:xsi="http://www.w3.org/2001/XMLSchema-instance" xsi:schemaLocation="http://www.topografix.com/GPX/1/1 http://www.topografix.com/GPX/1/1/gpx.xsd" version="1.1" creator="Martin Schneider">
  <wpt lat="24.698008" lon="121.263489">
    <ele>1189.0</ele>
    <name>Start</name>
  </wpt>
  <wpt lat="24.715652" lon="121.278626">
    <ele>779.0</ele>
    <name>End</name>
  </wpt>
  <wpt lat="24.6889841" lon="121.2748923">
    <name>1</name>
    <desc>Dahunshan</desc>
  </wpt>
  <wpt lat="24.7186828" lon="121.2844481">
    <name>2</name>
    <desc>Bawushan</desc>
  </wpt>
  <wpt lat="24.692665" lon="121.303652">
    <ele>1902.0</ele>
    <name>Summit Lidongshan</name>
  </wpt>
  <trk>
    <name>028_Lidongshan</name>
    <trkseg>
      <trkpt lat="24.698008" lon="121.263489">
        <ele>1189.0</ele>
      </trkpt>
      <trkpt lat="24.698007" lon="121.263488">
        <ele>1189.0</ele>
      </trkpt>
      <trkpt lat="24.69788" lon="121.263652">
        <ele>1186.0</ele>
      </trkpt>
      <trkpt lat="24.697772" lon="121.263878">
        <ele>1184.0</ele>
      </trkpt>
      <trkpt lat="24.697712" lon="121.263938">
        <ele>1185.0</ele>
      </trkpt>
      <trkpt lat="24.697462" lon="121.263924">
        <ele>1192.0</ele>
      </trkpt>
      <trkpt lat="24.697219" lon="121.263949">
        <ele>1198.0</ele>
      </trkpt>
      <trkpt lat="24.696964" lon="121.263888">
        <ele>1205.0</ele>
      </trkpt>
      <trkpt lat="24.696867" lon="121.263843">
        <ele>1208.0</ele>
      </trkpt>
      <trkpt lat="24.696664" lon="121.263709">
        <ele>1215.0</ele>
      </trkpt>
      <trkpt lat="24.696475" lon="121.263643">
        <ele>1220.0</ele>
      </trkpt>
      <trkpt lat="24.696317" lon="121.263626">
        <ele>1224.0</ele>
      </trkpt>
      <trkpt lat="24.696109" lon="121.263718">
        <ele>1229.0</ele>
      </trkpt>
      <trkpt lat="24.695867" lon="121.263772">
        <ele>1236.0</ele>
      </trkpt>
      <trkpt lat="24.69546" lon="121.264246">
        <ele>1244.0</ele>
      </trkpt>
      <trkpt lat="24.695347" lon="121.264304">
        <ele>1244.0</ele>
      </trkpt>
      <trkpt lat="24.695228" lon="121.264402">
        <ele>1244.0</ele>
      </trkpt>
      <trkpt lat="24.695074" lon="121.264493">
        <ele>1245.0</ele>
      </trkpt>
      <trkpt lat="24.69483" lon="121.264693">
        <ele>1242.0</ele>
      </trkpt>
      <trkpt lat="24.694696" lon="121.264775">
        <ele>1240.0</ele>
      </trkpt>
      <trkpt lat="24.694558" lon="121.264925">
        <ele>1241.0</ele>
      </trkpt>
      <trkpt lat="24.694331" lon="121.26524">
        <ele>1244.0</ele>
      </trkpt>
      <trkpt lat="24.694145" lon="121.265458">
        <ele>1249.0</ele>
      </trkpt>
      <trkpt lat="24.693994" lon="121.265575">
        <ele>1250.0</ele>
      </trkpt>
      <trkpt lat="24.693949" lon="121.265631">
        <ele>1252.0</ele>
      </trkpt>
      <trkpt lat="24.69391" lon="121.265696">
        <ele>1253.0</ele>
      </trkpt>
      <trkpt lat="24.693878" lon="121.26581">
        <ele>1257.0</ele>
      </trkpt>
      <trkpt lat="24.693836" lon="121.265871">
        <ele>1259.0</ele>
      </trkpt>
      <trkpt lat="24.693629" lon="121.266036">
        <ele>1265.0</ele>
      </trkpt>
      <trkpt lat="24.693614" lon="121.266063">
        <ele>1266.0</ele>
      </trkpt>
      <trkpt lat="24.693401" lon="121.26617">
        <ele>1274.0</ele>
      </trkpt>
      <trkpt lat="24.693172" lon="121.266565">
        <ele>1290.0</ele>
      </trkpt>
      <trkpt lat="24.693143" lon="121.266682">
        <ele>1294.0</ele>
      </trkpt>
      <trkpt lat="24.693118" lon="121.266728">
        <ele>1294.0</ele>
      </trkpt>
      <trkpt lat="24.693062" lon="121.266811">
        <ele>1296.0</ele>
      </trkpt>
      <trkpt lat="24.692951" lon="121.266913">
        <ele>1299.0</ele>
      </trkpt>
      <trkpt lat="24.692892" lon="121.267016">
        <ele>1302.0</ele>
      </trkpt>
      <trkpt lat="24.692857" lon="121.267153">
        <ele>1306.0</ele>
      </trkpt>
      <trkpt lat="24.692771" lon="121.267282">
        <ele>1311.0</ele>
      </trkpt>
      <trkpt lat="24.692756" lon="121.267326">
        <ele>1313.0</ele>
      </trkpt>
      <trkpt lat="24.692773" lon="121.267433">
        <ele>1315.0</ele>
      </trkpt>
      <trkpt lat="24.69276" lon="121.267645">
        <ele>1319.0</ele>
      </trkpt>
      <trkpt lat="24.692745" lon="121.267698">
        <ele>1320.0</ele>
      </trkpt>
      <trkpt lat="24.692702" lon="121.267792">
        <ele>1323.0</ele>
      </trkpt>
      <trkpt lat="24.692614" lon="121.267923">
        <ele>1329.0</ele>
      </trkpt>
      <trkpt lat="24.692532" lon="121.268015">
        <ele>1334.0</ele>
      </trkpt>
      <trkpt lat="24.692463" lon="121.268136">
        <ele>1338.0</ele>
      </trkpt>
      <trkpt lat="24.692296" lon="121.268306">
        <ele>1346.0</ele>
      </trkpt>
      <trkpt lat="24.691887" lon="121.268619">
        <ele>1361.0</ele>
      </trkpt>
      <trkpt lat="24.691678" lon="121.268815">
        <ele>1371.0</ele>
      </trkpt>
      <trkpt lat="24.691643" lon="121.268955">
        <ele>1374.0</ele>
      </trkpt>
      <trkpt lat="24.691471" lon="121.269097">
        <ele>1377.0</ele>
      </trkpt>
      <trkpt lat="24.691263" lon="121.269208">
        <ele>1381.0</ele>
      </trkpt>
      <trkpt lat="24.691125" lon="121.26938">
        <ele>1386.0</ele>
      </trkpt>
      <trkpt lat="24.690928" lon="121.269432">
        <ele>1391.0</ele>
      </trkpt>
      <trkpt lat="24.690882" lon="121.269525">
        <ele>1395.0</ele>
      </trkpt>
      <trkpt lat="24.690884" lon="121.269732">
        <ele>1401.0</ele>
      </trkpt>
      <trkpt lat="24.690788" lon="121.269853">
        <ele>1407.0</ele>
      </trkpt>
      <trkpt lat="24.690638" lon="121.270108">
        <ele>1413.0</ele>
      </trkpt>
      <trkpt lat="24.690535" lon="121.270341">
        <ele>1417.0</ele>
      </trkpt>
      <trkpt lat="24.690436" lon="121.270507">
        <ele>1422.0</ele>
      </trkpt>
      <trkpt lat="24.690203" lon="121.270815">
        <ele>1435.0</ele>
      </trkpt>
      <trkpt lat="24.690059" lon="121.270969">
        <ele>1442.0</ele>
      </trkpt>
      <trkpt lat="24.689981" lon="121.27101">
        <ele>1445.0</ele>
      </trkpt>
      <trkpt lat="24.689896" lon="121.27109">
        <ele>1445.0</ele>
      </trkpt>
      <trkpt lat="24.689781" lon="121.271303">
        <ele>1448.0</ele>
      </trkpt>
      <trkpt lat="24.6897" lon="121.271391">
        <ele>1449.0</ele>
      </trkpt>
      <trkpt lat="24.689597" lon="121.271557">
        <ele>1453.0</ele>
      </trkpt>
      <trkpt lat="24.689532" lon="121.27172">
        <ele>1457.0</ele>
      </trkpt>
      <trkpt lat="24.689375" lon="121.271994">
        <ele>1466.0</ele>
      </trkpt>
      <trkpt lat="24.689245" lon="121.272285">
        <ele>1478.0</ele>
      </trkpt>
      <trkpt lat="24.689025" lon="121.272512">
        <ele>1484.0</ele>
      </trkpt>
      <trkpt lat="24.688897" lon="121.272675">
        <ele>1485.0</ele>
      </trkpt>
      <trkpt lat="24.688838" lon="121.272859">
        <ele>1489.0</ele>
      </trkpt>
      <trkpt lat="24.688831" lon="121.272967">
        <ele>1492.0</ele>
      </trkpt>
      <trkpt lat="24.688755" lon="121.273329">
        <ele>1501.0</ele>
      </trkpt>
      <trkpt lat="24.688694" lon="121.273439">
        <ele>1503.0</ele>
      </trkpt>
      <trkpt lat="24.688736" lon="121.273552">
        <ele>1506.0</ele>
      </trkpt>
      <trkpt lat="24.688723" lon="121.273637">
        <ele>1508.0</ele>
      </trkpt>
      <trkpt lat="24.68868" lon="121.273718">
        <ele>1509.0</ele>
      </trkpt>
      <trkpt lat="24.688613" lon="121.273784">
        <ele>1509.0</ele>
      </trkpt>
      <trkpt lat="24.688555" lon="121.273989">
        <ele>1513.0</ele>
      </trkpt>
      <trkpt lat="24.688487" lon="121.274074">
        <ele>1514.0</ele>
      </trkpt>
      <trkpt lat="24.688474" lon="121.274151">
        <ele>1516.0</ele>
      </trkpt>
      <trkpt lat="24.688399" lon="121.274373">
        <ele>1514.0</ele>
      </trkpt>
      <trkpt lat="24.688393" lon="121.274495">
        <ele>1514.0</ele>
      </trkpt>
      <trkpt lat="24.688433" lon="121.274698">
        <ele>1514.0</ele>
      </trkpt>
      <trkpt lat="24.688515" lon="121.274859">
        <ele>1516.0</ele>
      </trkpt>
      <trkpt lat="24.68854" lon="121.274976">
        <ele>1517.0</ele>
      </trkpt>
      <trkpt lat="24.688573" lon="121.275054">
        <ele>1518.0</ele>
      </trkpt>
      <trkpt lat="24.688725" lon="121.275279">
        <ele>1521.0</ele>
      </trkpt>
      <trkpt lat="24.68883" lon="121.275291">
        <ele>1524.0</ele>
      </trkpt>
      <trkpt lat="24.688942" lon="121.275342">
        <ele>1527.0</ele>
      </trkpt>
      <trkpt lat="24.689078" lon="121.275595">
        <ele>1530.0</ele>
      </trkpt>
      <trkpt lat="24.689092" lon="121.275647">
        <ele>1530.0</ele>
      </trkpt>
      <trkpt lat="24.688867" lon="121.276243">
        <ele>1525.0</ele>
      </trkpt>
      <trkpt lat="24.6888" lon="121.276358">
        <ele>1524.0</ele>
      </trkpt>
      <trkpt lat="24.688773" lon="121.276449">
        <ele>1525.0</ele>
      </trkpt>
      <trkpt lat="24.688631" lon="121.276624">
        <ele>1526.0</ele>
      </trkpt>
      <trkpt lat="24.688549" lon="121.276647">
        <ele>1526.0</ele>
      </trkpt>
      <trkpt lat="24.688518" lon="121.276976">
        <ele>1530.0</ele>
      </trkpt>
      <trkpt lat="24.688539" lon="121.277362">
        <ele>1534.0</ele>
      </trkpt>
      <trkpt lat="24.688529" lon="121.277579">
        <ele>1535.0</ele>
      </trkpt>
      <trkpt lat="24.688549" lon="121.277847">
        <ele>1533.0</ele>
      </trkpt>
      <trkpt lat="24.688584" lon="121.278075">
        <ele>1532.0</ele>
      </trkpt>
      <trkpt lat="24.688644" lon="121.278286">
        <ele>1530.0</ele>
      </trkpt>
      <trkpt lat="24.68859" lon="121.278473">
        <ele>1531.0</ele>
      </trkpt>
      <trkpt lat="24.688547" lon="121.278744">
        <ele>1532.0</ele>
      </trkpt>
      <trkpt lat="24.688552" lon="121.278955">
        <ele>1533.0</ele>
      </trkpt>
      <trkpt lat="24.688598" lon="121.279226">
        <ele>1534.0</ele>
      </trkpt>
      <trkpt lat="24.688628" lon="121.279279">
        <ele>1533.0</ele>
      </trkpt>
      <trkpt lat="24.688708" lon="121.279525">
        <ele>1532.0</ele>
      </trkpt>
      <trkpt lat="24.688831" lon="121.279707">
        <ele>1532.0</ele>
      </trkpt>
      <trkpt lat="24.68902" lon="121.279894">
        <ele>1533.0</ele>
      </trkpt>
      <trkpt lat="24.689088" lon="121.279926">
        <ele>1534.0</ele>
      </trkpt>
      <trkpt lat="24.689146" lon="121.280009">
        <ele>1535.0</ele>
      </trkpt>
      <trkpt lat="24.689325" lon="121.280176">
        <ele>1529.0</ele>
      </trkpt>
      <trkpt lat="24.689422" lon="121.280349">
        <ele>1526.0</ele>
      </trkpt>
      <trkpt lat="24.689469" lon="121.280482">
        <ele>1525.0</ele>
      </trkpt>
      <trkpt lat="24.689486" lon="121.280571">
        <ele>1525.0</ele>
      </trkpt>
      <trkpt lat="24.689468" lon="121.28065">
        <ele>1525.0</ele>
      </trkpt>
      <trkpt lat="24.68954" lon="121.280948">
        <ele>1525.0</ele>
      </trkpt>
      <trkpt lat="24.689522" lon="121.281194">
        <ele>1527.0</ele>
      </trkpt>
      <trkpt lat="24.689555" lon="121.281258">
        <ele>1527.0</ele>
      </trkpt>
      <trkpt lat="24.689601" lon="121.281457">
        <ele>1529.0</ele>
      </trkpt>
      <trkpt lat="24.689638" lon="121.281491">
        <ele>1529.0</ele>
      </trkpt>
      <trkpt lat="24.689674" lon="121.281566">
        <ele>1530.0</ele>
      </trkpt>
      <trkpt lat="24.689773" lon="121.281825">
        <ele>1535.0</ele>
      </trkpt>
      <trkpt lat="24.689794" lon="121.282045">
        <ele>1540.0</ele>
      </trkpt>
      <trkpt lat="24.689872" lon="121.282151">
        <ele>1545.0</ele>
      </trkpt>
      <trkpt lat="24.689956" lon="121.282452">
        <ele>1556.0</ele>
      </trkpt>
      <trkpt lat="24.690056" lon="121.282694">
        <ele>1560.0</ele>
      </trkpt>
      <trkpt lat="24.690123" lon="121.283118">
        <ele>1564.0</ele>
      </trkpt>
      <trkpt lat="24.690111" lon="121.283287">
        <ele>1567.0</ele>
      </trkpt>
      <trkpt lat="24.690163" lon="121.283565">
        <ele>1570.0</ele>
      </trkpt>
      <trkpt lat="24.690158" lon="121.283676">
        <ele>1572.0</ele>
      </trkpt>
      <trkpt lat="24.690195" lon="121.283823">
        <ele>1574.0</ele>
      </trkpt>
      <trkpt lat="24.690182" lon="121.283884">
        <ele>1575.0</ele>
      </trkpt>
      <trkpt lat="24.690203" lon="121.283944">
        <ele>1576.0</ele>
      </trkpt>
      <trkpt lat="24.690198" lon="121.284019">
        <ele>1578.0</ele>
      </trkpt>
      <trkpt lat="24.690248" lon="121.284117">
        <ele>1579.0</ele>
      </trkpt>
      <trkpt lat="24.690301" lon="121.284464">
        <ele>1582.0</ele>
      </trkpt>
      <trkpt lat="24.690429" lon="121.284792">
        <ele>1584.0</ele>
      </trkpt>
      <trkpt lat="24.690475" lon="121.28502">
        <ele>1586.0</ele>
      </trkpt>
      <trkpt lat="24.690427" lon="121.285184">
        <ele>1586.0</ele>
      </trkpt>
      <trkpt lat="24.690438" lon="121.285246">
        <ele>1586.0</ele>
      </trkpt>
      <trkpt lat="24.690429" lon="121.285427">
        <ele>1586.0</ele>
      </trkpt>
      <trkpt lat="24.690458" lon="121.285661">
        <ele>1586.0</ele>
      </trkpt>
      <trkpt lat="24.69048" lon="121.285728">
        <ele>1586.0</ele>
      </trkpt>
      <trkpt lat="24.690426" lon="121.285994">
        <ele>1586.0</ele>
      </trkpt>
      <trkpt lat="24.69049" lon="121.286322">
        <ele>1588.0</ele>
      </trkpt>
      <trkpt lat="24.690509" lon="121.286528">
        <ele>1589.0</ele>
      </trkpt>
      <trkpt lat="24.690535" lon="121.286591">
        <ele>1590.0</ele>
      </trkpt>
      <trkpt lat="24.690523" lon="121.286701">
        <ele>1591.0</ele>
      </trkpt>
      <trkpt lat="24.690537" lon="121.286805">
        <ele>1592.0</ele>
      </trkpt>
      <trkpt lat="24.69058" lon="121.287074">
        <ele>1597.0</ele>
      </trkpt>
      <trkpt lat="24.690721" lon="121.287339">
        <ele>1605.0</ele>
      </trkpt>
      <trkpt lat="24.690762" lon="121.287798">
        <ele>1617.0</ele>
      </trkpt>
      <trkpt lat="24.690797" lon="121.287886">
        <ele>1620.0</ele>
      </trkpt>
      <trkpt lat="24.69082" lon="121.287996">
        <ele>1624.0</ele>
      </trkpt>
      <trkpt lat="24.690799" lon="121.288211">
        <ele>1629.0</ele>
      </trkpt>
      <trkpt lat="24.690838" lon="121.288427">
        <ele>1636.0</ele>
      </trkpt>
      <trkpt lat="24.69098" lon="121.288907">
        <ele>1644.0</ele>
      </trkpt>
      <trkpt lat="24.691023" lon="121.289313">
        <ele>1653.0</ele>
      </trkpt>
      <trkpt lat="24.690998" lon="121.289533">
        <ele>1660.0</ele>
      </trkpt>
      <trkpt lat="24.691016" lon="121.290357">
        <ele>1688.0</ele>
      </trkpt>
      <trkpt lat="24.690996" lon="121.290558">
        <ele>1697.0</ele>
      </trkpt>
      <trkpt lat="24.690996" lon="121.290558">
        <ele>1697.0</ele>
      </trkpt>
      <trkpt lat="24.691001" lon="121.290755">
        <ele>1705.0</ele>
      </trkpt>
      <trkpt lat="24.690984" lon="121.2909">
        <ele>1709.0</ele>
      </trkpt>
      <trkpt lat="24.691" lon="121.291011">
        <ele>1709.0</ele>
      </trkpt>
      <trkpt lat="24.690968" lon="121.291125">
        <ele>1711.0</ele>
      </trkpt>
      <trkpt lat="24.690965" lon="121.29119">
        <ele>1712.0</ele>
      </trkpt>
      <trkpt lat="24.690999" lon="121.291251">
        <ele>1711.0</ele>
      </trkpt>
      <trkpt lat="24.690995" lon="121.291303">
        <ele>1711.0</ele>
      </trkpt>
      <trkpt lat="24.690939" lon="121.291366">
        <ele>1714.0</ele>
      </trkpt>
      <trkpt lat="24.690918" lon="121.291439">
        <ele>1716.0</ele>
      </trkpt>
      <trkpt lat="24.690841" lon="121.291579">
        <ele>1721.0</ele>
      </trkpt>
      <trkpt lat="24.690775" lon="121.291635">
        <ele>1720.0</ele>
      </trkpt>
      <trkpt lat="24.69067" lon="121.29181">
        <ele>1715.0</ele>
      </trkpt>
      <trkpt lat="24.690493" lon="121.292199">
        <ele>1708.0</ele>
      </trkpt>
      <trkpt lat="24.690458" lon="121.292433">
        <ele>1706.0</ele>
      </trkpt>
      <trkpt lat="24.69034" lon="121.292694">
        <ele>1703.0</ele>
      </trkpt>
      <trkpt lat="24.690247" lon="121.293012">
        <ele>1700.0</ele>
      </trkpt>
      <trkpt lat="24.690241" lon="121.29359">
        <ele>1699.0</ele>
      </trkpt>
      <trkpt lat="24.690185" lon="121.293854">
        <ele>1701.0</ele>
      </trkpt>
      <trkpt lat="24.69003" lon="121.294265">
        <ele>1709.0</ele>
      </trkpt>
      <trkpt lat="24.689997" lon="121.294527">
        <ele>1712.0</ele>
      </trkpt>
      <trkpt lat="24.68996" lon="121.2946">
        <ele>1711.0</ele>
      </trkpt>
      <trkpt lat="24.689828" lon="121.294751">
        <ele>1710.0</ele>
      </trkpt>
      <trkpt lat="24.689788" lon="121.294977">
        <ele>1713.0</ele>
      </trkpt>
      <trkpt lat="24.689678" lon="121.295268">
        <ele>1714.0</ele>
      </trkpt>
      <trkpt lat="24.689628" lon="121.295365">
        <ele>1715.0</ele>
      </trkpt>
      <trkpt lat="24.689578" lon="121.295447">
        <ele>1716.0</ele>
      </trkpt>
      <trkpt lat="24.689396" lon="121.295663">
        <ele>1722.0</ele>
      </trkpt>
      <trkpt lat="24.689289" lon="121.295764">
        <ele>1727.0</ele>
      </trkpt>
      <trkpt lat="24.689211" lon="121.295815">
        <ele>1730.0</ele>
      </trkpt>
      <trkpt lat="24.689158" lon="121.295917">
        <ele>1733.0</ele>
      </trkpt>
      <trkpt lat="24.689173" lon="121.296006">
        <ele>1733.0</ele>
      </trkpt>
      <trkpt lat="24.689158" lon="121.296088">
        <ele>1734.0</ele>
      </trkpt>
      <trkpt lat="24.689175" lon="121.296164">
        <ele>1735.0</ele>
      </trkpt>
      <trkpt lat="24.689166" lon="121.296206">
        <ele>1735.0</ele>
      </trkpt>
      <trkpt lat="24.689099" lon="121.296326">
        <ele>1734.0</ele>
      </trkpt>
      <trkpt lat="24.689073" lon="121.296427">
        <ele>1734.0</ele>
      </trkpt>
      <trkpt lat="24.689009" lon="121.296499">
        <ele>1733.0</ele>
      </trkpt>
      <trkpt lat="24.689141" lon="121.296636">
        <ele>1738.0</ele>
      </trkpt>
      <trkpt lat="24.689264" lon="121.296865">
        <ele>1735.0</ele>
      </trkpt>
      <trkpt lat="24.689354" lon="121.296944">
        <ele>1734.0</ele>
      </trkpt>
      <trkpt lat="24.689647" lon="121.297324">
        <ele>1735.0</ele>
      </trkpt>
      <trkpt lat="24.689837" lon="121.297453">
        <ele>1739.0</ele>
      </trkpt>
      <trkpt lat="24.689901" lon="121.297508">
        <ele>1741.0</ele>
      </trkpt>
      <trkpt lat="24.689965" lon="121.297601">
        <ele>1741.0</ele>
      </trkpt>
      <trkpt lat="24.690146" lon="121.297706">
        <ele>1740.0</ele>
      </trkpt>
      <trkpt lat="24.690336" lon="121.297884">
        <ele>1741.0</ele>
      </trkpt>
      <trkpt lat="24.69051" lon="121.297975">
        <ele>1743.0</ele>
      </trkpt>
      <trkpt lat="24.690619" lon="121.298105">
        <ele>1747.0</ele>
      </trkpt>
      <trkpt lat="24.690737" lon="121.298213">
        <ele>1751.0</ele>
      </trkpt>
      <trkpt lat="24.69081" lon="121.298256">
        <ele>1754.0</ele>
      </trkpt>
      <trkpt lat="24.690859" lon="121.298313">
        <ele>1755.0</ele>
      </trkpt>
      <trkpt lat="24.690899" lon="121.298325">
        <ele>1754.0</ele>
      </trkpt>
      <trkpt lat="24.691001" lon="121.298436">
        <ele>1751.0</ele>
      </trkpt>
      <trkpt lat="24.691282" lon="121.298991">
        <ele>1758.0</ele>
      </trkpt>
      <trkpt lat="24.691388" lon="121.299537">
        <ele>1774.0</ele>
      </trkpt>
      <trkpt lat="24.691416" lon="121.299685">
        <ele>1779.0</ele>
      </trkpt>
      <trkpt lat="24.6914" lon="121.299932">
        <ele>1785.0</ele>
      </trkpt>
      <trkpt lat="24.691428" lon="121.30006">
        <ele>1789.0</ele>
      </trkpt>
      <trkpt lat="24.691683" lon="121.300515">
        <ele>1809.0</ele>
      </trkpt>
      <trkpt lat="24.691827" lon="121.300866">
        <ele>1818.0</ele>
      </trkpt>
      <trkpt lat="24.692057" lon="121.301129">
        <ele>1827.0</ele>
      </trkpt>
      <trkpt lat="24.692122" lon="121.301245">
        <ele>1832.0</ele>
      </trkpt>
      <trkpt lat="24.692113" lon="121.301343">
        <ele>1834.0</ele>
      </trkpt>
      <trkpt lat="24.692144" lon="121.301454">
        <ele>1838.0</ele>
      </trkpt>
      <trkpt lat="24.692189" lon="121.301552">
        <ele>1842.0</ele>
      </trkpt>
      <trkpt lat="24.692212" lon="121.301698">
        <ele>1847.0</ele>
      </trkpt>
      <trkpt lat="24.692318" lon="121.301954">
        <ele>1857.0</ele>
      </trkpt>
      <trkpt lat="24.692378" lon="121.302008">
        <ele>1861.0</ele>
      </trkpt>
      <trkpt lat="24.692445" lon="121.302022">
        <ele>1863.0</ele>
      </trkpt>
      <trkpt lat="24.692529" lon="121.302136">
        <ele>1869.0</ele>
      </trkpt>
      <trkpt lat="24.692624" lon="121.302399">
        <ele>1876.0</ele>
      </trkpt>
      <trkpt lat="24.692682" lon="121.302447">
        <ele>1878.0</ele>
      </trkpt>
      <trkpt lat="24.692732" lon="121.302564">
        <ele>1881.0</ele>
      </trkpt>
      <trkpt lat="24.69277" lon="121.302583">
        <ele>1881.0</ele>
      </trkpt>
      <trkpt lat="24.692966" lon="121.303045">
        <ele>1893.0</ele>
      </trkpt>
      <trkpt lat="24.692949" lon="121.303106">
        <ele>1895.0</ele>
      </trkpt>
      <trkpt lat="24.69296" lon="121.30322">
        <ele>1898.0</ele>
      </trkpt>
      <trkpt lat="24.692898" lon="121.303425">
        <ele>1902.0</ele>
      </trkpt>
      <trkpt lat="24.692831" lon="121.303517">
        <ele>1902.0</ele>
      </trkpt>
      <trkpt lat="24.692831" lon="121.303517">
        <ele>1902.0</ele>
      </trkpt>
      <trkpt lat="24.692785" lon="121.303582">
        <ele>1902.0</ele>
      </trkpt>
      <trkpt lat="24.692752" lon="121.3036">
        <ele>1902.0</ele>
      </trkpt>
      <trkpt lat="24.692665" lon="121.303652">
        <ele>1902.0</ele>
      </trkpt>
      <trkpt lat="24.692665" lon="121.303652">
        <ele>1902.0</ele>
      </trkpt>
      <trkpt lat="24.692752" lon="121.3036">
        <ele>1902.0</ele>
      </trkpt>
      <trkpt lat="24.692785" lon="121.303582">
        <ele>1902.0</ele>
      </trkpt>
      <trkpt lat="24.692898" lon="121.303425">
        <ele>1902.0</ele>
      </trkpt>
      <trkpt lat="24.69296" lon="121.30322">
        <ele>1898.0</ele>
      </trkpt>
      <trkpt lat="24.692949" lon="121.303106">
        <ele>1895.0</ele>
      </trkpt>
      <trkpt lat="24.692966" lon="121.303045">
        <ele>1893.0</ele>
      </trkpt>
      <trkpt lat="24.69277" lon="121.302583">
        <ele>1881.0</ele>
      </trkpt>
      <trkpt lat="24.692732" lon="121.302564">
        <ele>1881.0</ele>
      </trkpt>
      <trkpt lat="24.692682" lon="121.302447">
        <ele>1878.0</ele>
      </trkpt>
      <trkpt lat="24.692624" lon="121.302399">
        <ele>1876.0</ele>
      </trkpt>
      <trkpt lat="24.692529" lon="121.302136">
        <ele>1869.0</ele>
      </trkpt>
      <trkpt lat="24.692445" lon="121.302022">
        <ele>1863.0</ele>
      </trkpt>
      <trkpt lat="24.692378" lon="121.302008">
        <ele>1861.0</ele>
      </trkpt>
      <trkpt lat="24.692318" lon="121.301954">
        <ele>1857.0</ele>
      </trkpt>
      <trkpt lat="24.692212" lon="121.301698">
        <ele>1847.0</ele>
      </trkpt>
      <trkpt lat="24.692189" lon="121.301552">
        <ele>1842.0</ele>
      </trkpt>
      <trkpt lat="24.692144" lon="121.301454">
        <ele>1838.0</ele>
      </trkpt>
      <trkpt lat="24.692113" lon="121.301343">
        <ele>1834.0</ele>
      </trkpt>
      <trkpt lat="24.692122" lon="121.301245">
        <ele>1832.0</ele>
      </trkpt>
      <trkpt lat="24.692118" lon="121.30096">
        <ele>1824.0</ele>
      </trkpt>
      <trkpt lat="24.692104" lon="121.300829">
        <ele>1820.0</ele>
      </trkpt>
      <trkpt lat="24.692083" lon="121.300716">
        <ele>1816.0</ele>
      </trkpt>
      <trkpt lat="24.691987" lon="121.300435">
        <ele>1807.0</ele>
      </trkpt>
      <trkpt lat="24.692011" lon="121.300401">
        <ele>1806.0</ele>
      </trkpt>
      <trkpt lat="24.692043" lon="121.300391">
        <ele>1805.0</ele>
      </trkpt>
      <trkpt lat="24.692431" lon="121.300383">
        <ele>1804.0</ele>
      </trkpt>
      <trkpt lat="24.692528" lon="121.300472">
        <ele>1807.0</ele>
      </trkpt>
      <trkpt lat="24.692625" lon="121.300762">
        <ele>1820.0</ele>
      </trkpt>
      <trkpt lat="24.692659" lon="121.300804">
        <ele>1822.0</ele>
      </trkpt>
      <trkpt lat="24.692795" lon="121.300828">
        <ele>1822.0</ele>
      </trkpt>
      <trkpt lat="24.69305" lon="121.300817">
        <ele>1819.0</ele>
      </trkpt>
      <trkpt lat="24.693113" lon="121.30084">
        <ele>1819.0</ele>
      </trkpt>
      <trkpt lat="24.693271" lon="121.300938">
        <ele>1822.0</ele>
      </trkpt>
      <trkpt lat="24.69341" lon="121.300964">
        <ele>1821.0</ele>
      </trkpt>
      <trkpt lat="24.693459" lon="121.300953">
        <ele>1819.0</ele>
      </trkpt>
      <trkpt lat="24.69384" lon="121.300794">
        <ele>1808.0</ele>
      </trkpt>
      <trkpt lat="24.69401" lon="121.300677">
        <ele>1804.0</ele>
      </trkpt>
      <trkpt lat="24.694163" lon="121.300511">
        <ele>1802.0</ele>
      </trkpt>
      <trkpt lat="24.694219" lon="121.300416">
        <ele>1802.0</ele>
      </trkpt>
      <trkpt lat="24.694327" lon="121.300146">
        <ele>1804.0</ele>
      </trkpt>
      <trkpt lat="24.694486" lon="121.300066">
        <ele>1807.0</ele>
      </trkpt>
      <trkpt lat="24.694636" lon="121.299961">
        <ele>1812.0</ele>
      </trkpt>
      <trkpt lat="24.694805" lon="121.299767">
        <ele>1813.0</ele>
      </trkpt>
      <trkpt lat="24.694904" lon="121.299605">
        <ele>1815.0</ele>
      </trkpt>
      <trkpt lat="24.694942" lon="121.29958">
        <ele>1817.0</ele>
      </trkpt>
      <trkpt lat="24.695286" lon="121.299542">
        <ele>1816.0</ele>
      </trkpt>
      <trkpt lat="24.695441" lon="121.299539">
        <ele>1814.0</ele>
      </trkpt>
      <trkpt lat="24.695612" lon="121.299468">
        <ele>1814.0</ele>
      </trkpt>
      <trkpt lat="24.695667" lon="121.299462">
        <ele>1813.0</ele>
      </trkpt>
      <trkpt lat="24.695808" lon="121.299518">
        <ele>1811.0</ele>
      </trkpt>
      <trkpt lat="24.695937" lon="121.299536">
        <ele>1809.0</ele>
      </trkpt>
      <trkpt lat="24.696041" lon="121.299529">
        <ele>1807.0</ele>
      </trkpt>
      <trkpt lat="24.696158" lon="121.299503">
        <ele>1806.0</ele>
      </trkpt>
      <trkpt lat="24.696614" lon="121.299351">
        <ele>1801.0</ele>
      </trkpt>
      <trkpt lat="24.696699" lon="121.299364">
        <ele>1798.0</ele>
      </trkpt>
      <trkpt lat="24.696878" lon="121.299447">
        <ele>1785.0</ele>
      </trkpt>
      <trkpt lat="24.696961" lon="121.299467">
        <ele>1780.0</ele>
      </trkpt>
      <trkpt lat="24.697299" lon="121.299677">
        <ele>1761.0</ele>
      </trkpt>
      <trkpt lat="24.697516" lon="121.299869">
        <ele>1754.0</ele>
      </trkpt>
      <trkpt lat="24.697716" lon="121.300099">
        <ele>1741.0</ele>
      </trkpt>
      <trkpt lat="24.697826" lon="121.300278">
        <ele>1730.0</ele>
      </trkpt>
      <trkpt lat="24.697894" lon="121.300316">
        <ele>1727.0</ele>
      </trkpt>
      <trkpt lat="24.697985" lon="121.300317">
        <ele>1723.0</ele>
      </trkpt>
      <trkpt lat="24.698185" lon="121.300247">
        <ele>1715.0</ele>
      </trkpt>
      <trkpt lat="24.698259" lon="121.300267">
        <ele>1712.0</ele>
      </trkpt>
      <trkpt lat="24.698318" lon="121.30033">
        <ele>1710.0</ele>
      </trkpt>
      <trkpt lat="24.698573" lon="121.300714">
        <ele>1708.0</ele>
      </trkpt>
      <trkpt lat="24.698617" lon="121.300756">
        <ele>1708.0</ele>
      </trkpt>
      <trkpt lat="24.698704" lon="121.300776">
        <ele>1706.0</ele>
      </trkpt>
      <trkpt lat="24.698776" lon="121.30077">
        <ele>1704.0</ele>
      </trkpt>
      <trkpt lat="24.698841" lon="121.300742">
        <ele>1702.0</ele>
      </trkpt>
      <trkpt lat="24.699009" lon="121.300714">
        <ele>1696.0</ele>
      </trkpt>
      <trkpt lat="24.699113" lon="121.30074">
        <ele>1695.0</ele>
      </trkpt>
      <trkpt lat="24.699527" lon="121.30093">
        <ele>1690.0</ele>
      </trkpt>
      <trkpt lat="24.700172" lon="121.301188">
        <ele>1682.0</ele>
      </trkpt>
      <trkpt lat="24.70059" lon="121.30139">
        <ele>1679.0</ele>
      </trkpt>
      <trkpt lat="24.700707" lon="121.301475">
        <ele>1680.0</ele>
      </trkpt>
      <trkpt lat="24.700883" lon="121.301541">
        <ele>1680.0</ele>
      </trkpt>
      <trkpt lat="24.701261" lon="121.301717">
        <ele>1679.0</ele>
      </trkpt>
      <trkpt lat="24.701459" lon="121.301895">
        <ele>1673.0</ele>
      </trkpt>
      <trkpt lat="24.701517" lon="121.301975">
        <ele>1671.0</ele>
      </trkpt>
      <trkpt lat="24.70158" lon="121.302033">
        <ele>1670.0</ele>
      </trkpt>
      <trkpt lat="24.701629" lon="121.302056">
        <ele>1669.0</ele>
      </trkpt>
      <trkpt lat="24.701845" lon="121.302003">
        <ele>1671.0</ele>
      </trkpt>
      <trkpt lat="24.702035" lon="121.302182">
        <ele>1670.0</ele>
      </trkpt>
      <trkpt lat="24.702255" lon="121.302305">
        <ele>1671.0</ele>
      </trkpt>
      <trkpt lat="24.702612" lon="121.302647">
        <ele>1669.0</ele>
      </trkpt>
      <trkpt lat="24.702786" lon="121.302757">
        <ele>1668.0</ele>
      </trkpt>
      <trkpt lat="24.702975" lon="121.302955">
        <ele>1665.0</ele>
      </trkpt>
      <trkpt lat="24.70314" lon="121.303061">
        <ele>1667.0</ele>
      </trkpt>
      <trkpt lat="24.703437" lon="121.303121">
        <ele>1669.0</ele>
      </trkpt>
      <trkpt lat="24.703538" lon="121.303162">
        <ele>1665.0</ele>
      </trkpt>
      <trkpt lat="24.703685" lon="121.30317">
        <ele>1660.0</ele>
      </trkpt>
      <trkpt lat="24.703809" lon="121.303136">
        <ele>1658.0</ele>
      </trkpt>
      <trkpt lat="24.703968" lon="121.303023">
        <ele>1658.0</ele>
      </trkpt>
      <trkpt lat="24.704045" lon="121.303025">
        <ele>1655.0</ele>
      </trkpt>
      <trkpt lat="24.704165" lon="121.303092">
        <ele>1650.0</ele>
      </trkpt>
      <trkpt lat="24.704244" lon="121.303103">
        <ele>1647.0</ele>
      </trkpt>
      <trkpt lat="24.704368" lon="121.303087">
        <ele>1643.0</ele>
      </trkpt>
      <trkpt lat="24.70446" lon="121.303038">
        <ele>1642.0</ele>
      </trkpt>
      <trkpt lat="24.704848" lon="121.302917">
        <ele>1634.0</ele>
      </trkpt>
      <trkpt lat="24.704909" lon="121.302933">
        <ele>1631.0</ele>
      </trkpt>
      <trkpt lat="24.704972" lon="121.302971">
        <ele>1627.0</ele>
      </trkpt>
      <trkpt lat="24.705021" lon="121.303023">
        <ele>1624.0</ele>
      </trkpt>
      <trkpt lat="24.705052" lon="121.303108">
        <ele>1620.0</ele>
      </trkpt>
      <trkpt lat="24.705099" lon="121.30318">
        <ele>1617.0</ele>
      </trkpt>
      <trkpt lat="24.705159" lon="121.303185">
        <ele>1616.0</ele>
      </trkpt>
      <trkpt lat="24.705457" lon="121.302999">
        <ele>1614.0</ele>
      </trkpt>
      <trkpt lat="24.705569" lon="121.302866">
        <ele>1614.0</ele>
      </trkpt>
      <trkpt lat="24.705667" lon="121.302708">
        <ele>1614.0</ele>
      </trkpt>
      <trkpt lat="24.705724" lon="121.302677">
        <ele>1612.0</ele>
      </trkpt>
      <trkpt lat="24.705831" lon="121.302665">
        <ele>1608.0</ele>
      </trkpt>
      <trkpt lat="24.705927" lon="121.30269">
        <ele>1605.0</ele>
      </trkpt>
      <trkpt lat="24.706046" lon="121.302752">
        <ele>1600.0</ele>
      </trkpt>
      <trkpt lat="24.706241" lon="121.302992">
        <ele>1591.0</ele>
      </trkpt>
      <trkpt lat="24.706318" lon="121.303007">
        <ele>1588.0</ele>
      </trkpt>
      <trkpt lat="24.706533" lon="121.302958">
        <ele>1581.0</ele>
      </trkpt>
      <trkpt lat="24.706599" lon="121.302925">
        <ele>1579.0</ele>
      </trkpt>
      <trkpt lat="24.706772" lon="121.302935">
        <ele>1572.0</ele>
      </trkpt>
      <trkpt lat="24.707034" lon="121.303082">
        <ele>1561.0</ele>
      </trkpt>
      <trkpt lat="24.70717" lon="121.303136">
        <ele>1555.0</ele>
      </trkpt>
      <trkpt lat="24.707308" lon="121.303118">
        <ele>1550.0</ele>
      </trkpt>
      <trkpt lat="24.707568" lon="121.302963">
        <ele>1542.0</ele>
      </trkpt>
      <trkpt lat="24.707746" lon="121.302987">
        <ele>1539.0</ele>
      </trkpt>
      <trkpt lat="24.707813" lon="121.302974">
        <ele>1538.0</ele>
      </trkpt>
      <trkpt lat="24.707928" lon="121.302914">
        <ele>1536.0</ele>
      </trkpt>
      <trkpt lat="24.70798" lon="121.302917">
        <ele>1535.0</ele>
      </trkpt>
      <trkpt lat="24.708132" lon="121.302992">
        <ele>1533.0</ele>
      </trkpt>
      <trkpt lat="24.708251" lon="121.303005">
        <ele>1532.0</ele>
      </trkpt>
      <trkpt lat="24.708445" lon="121.302971">
        <ele>1526.0</ele>
      </trkpt>
      <trkpt lat="24.708703" lon="121.303131">
        <ele>1521.0</ele>
      </trkpt>
      <trkpt lat="24.708775" lon="121.303257">
        <ele>1522.0</ele>
      </trkpt>
      <trkpt lat="24.708909" lon="121.303347">
        <ele>1521.0</ele>
      </trkpt>
      <trkpt lat="24.709033" lon="121.303401">
        <ele>1518.0</ele>
      </trkpt>
      <trkpt lat="24.709243" lon="121.303425">
        <ele>1513.0</ele>
      </trkpt>
      <trkpt lat="24.709641" lon="121.303664">
        <ele>1500.0</ele>
      </trkpt>
      <trkpt lat="24.70973" lon="121.303749">
        <ele>1498.0</ele>
      </trkpt>
      <trkpt lat="24.709765" lon="121.303824">
        <ele>1498.0</ele>
      </trkpt>
      <trkpt lat="24.710074" lon="121.304218">
        <ele>1493.0</ele>
      </trkpt>
      <trkpt lat="24.710289" lon="121.304342">
        <ele>1485.0</ele>
      </trkpt>
      <trkpt lat="24.710409" lon="121.304429">
        <ele>1482.0</ele>
      </trkpt>
      <trkpt lat="24.710657" lon="121.30454">
        <ele>1477.0</ele>
      </trkpt>
      <trkpt lat="24.710772" lon="121.30455">
        <ele>1475.0</ele>
      </trkpt>
      <trkpt lat="24.710891" lon="121.304522">
        <ele>1471.0</ele>
      </trkpt>
      <trkpt lat="24.71097" lon="121.30444">
        <ele>1466.0</ele>
      </trkpt>
      <trkpt lat="24.711034" lon="121.304422">
        <ele>1463.0</ele>
      </trkpt>
      <trkpt lat="24.711265" lon="121.304509">
        <ele>1455.0</ele>
      </trkpt>
      <trkpt lat="24.711644" lon="121.304532">
        <ele>1441.0</ele>
      </trkpt>
      <trkpt lat="24.71211" lon="121.304777">
        <ele>1424.0</ele>
      </trkpt>
      <trkpt lat="24.712347" lon="121.305014">
        <ele>1419.0</ele>
      </trkpt>
      <trkpt lat="24.712517" lon="121.305158">
        <ele>1414.0</ele>
      </trkpt>
      <trkpt lat="24.71277" lon="121.305184">
        <ele>1404.0</ele>
      </trkpt>
      <trkpt lat="24.713138" lon="121.3053">
        <ele>1392.0</ele>
      </trkpt>
      <trkpt lat="24.713559" lon="121.305393">
        <ele>1382.0</ele>
      </trkpt>
      <trkpt lat="24.713776" lon="121.305377">
        <ele>1379.0</ele>
      </trkpt>
      <trkpt lat="24.713961" lon="121.305423">
        <ele>1377.0</ele>
      </trkpt>
      <trkpt lat="24.713961" lon="121.305423">
        <ele>1377.0</ele>
      </trkpt>
      <trkpt lat="24.714144" lon="121.305434">
        <ele>1375.0</ele>
      </trkpt>
      <trkpt lat="24.714333" lon="121.305251">
        <ele>1368.0</ele>
      </trkpt>
      <trkpt lat="24.714476" lon="121.30505">
        <ele>1361.0</ele>
      </trkpt>
      <trkpt lat="24.714553" lon="121.304999">
        <ele>1359.0</ele>
      </trkpt>
      <trkpt lat="24.715068" lon="121.304805">
        <ele>1347.0</ele>
      </trkpt>
      <trkpt lat="24.715237" lon="121.304726">
        <ele>1341.0</ele>
      </trkpt>
      <trkpt lat="24.715557" lon="121.304481">
        <ele>1325.0</ele>
      </trkpt>
      <trkpt lat="24.715649" lon="121.304437">
        <ele>1321.0</ele>
      </trkpt>
      <trkpt lat="24.715864" lon="121.304406">
        <ele>1314.0</ele>
      </trkpt>
      <trkpt lat="24.715969" lon="121.304429">
        <ele>1312.0</ele>
      </trkpt>
      <trkpt lat="24.716229" lon="121.304599">
        <ele>1310.0</ele>
      </trkpt>
      <trkpt lat="24.716365" lon="121.304653">
        <ele>1308.0</ele>
      </trkpt>
      <trkpt lat="24.716435" lon="121.304656">
        <ele>1306.0</ele>
      </trkpt>
      <trkpt lat="24.716547" lon="121.304602">
        <ele>1301.0</ele>
      </trkpt>
      <trkpt lat="24.71662" lon="121.304602">
        <ele>1299.0</ele>
      </trkpt>
      <trkpt lat="24.717142" lon="121.304675">
        <ele>1290.0</ele>
      </trkpt>
      <trkpt lat="24.717282" lon="121.304597">
        <ele>1285.0</ele>
      </trkpt>
      <trkpt lat="24.717329" lon="121.304262">
        <ele>1274.0</ele>
      </trkpt>
      <trkpt lat="24.717259" lon="121.303984">
        <ele>1266.0</ele>
      </trkpt>
      <trkpt lat="24.717142" lon="121.303845">
        <ele>1262.0</ele>
      </trkpt>
      <trkpt lat="24.716945" lon="121.303654">
        <ele>1258.0</ele>
      </trkpt>
      <trkpt lat="24.71688" lon="121.303489">
        <ele>1253.0</ele>
      </trkpt>
      <trkpt lat="24.7168" lon="121.303005">
        <ele>1240.0</ele>
      </trkpt>
      <trkpt lat="24.716721" lon="121.302794">
        <ele>1235.0</ele>
      </trkpt>
      <trkpt lat="24.716604" lon="121.302608">
        <ele>1231.0</ele>
      </trkpt>
      <trkpt lat="24.716435" lon="121.302222">
        <ele>1219.0</ele>
      </trkpt>
      <trkpt lat="24.716327" lon="121.302016">
        <ele>1212.0</ele>
      </trkpt>
      <trkpt lat="24.716239" lon="121.301939">
        <ele>1209.0</ele>
      </trkpt>
      <trkpt lat="24.71615" lon="121.301696">
        <ele>1201.0</ele>
      </trkpt>
      <trkpt lat="24.716051" lon="121.301233">
        <ele>1188.0</ele>
      </trkpt>
      <trkpt lat="24.715897" lon="121.301022">
        <ele>1182.0</ele>
      </trkpt>
      <trkpt lat="24.715579" lon="121.300692">
        <ele>1178.0</ele>
      </trkpt>
      <trkpt lat="24.715429" lon="121.30047">
        <ele>1176.0</ele>
      </trkpt>
      <trkpt lat="24.715242" lon="121.300233">
        <ele>1174.0</ele>
      </trkpt>
      <trkpt lat="24.715106" lon="121.299976">
        <ele>1170.0</ele>
      </trkpt>
      <trkpt lat="24.714966" lon="121.299811">
        <ele>1169.0</ele>
      </trkpt>
      <trkpt lat="24.714891" lon="121.299651">
        <ele>1168.0</ele>
      </trkpt>
      <trkpt lat="24.714764" lon="121.29944">
        <ele>1166.0</ele>
      </trkpt>
      <trkpt lat="24.714657" lon="121.299352">
        <ele>1166.0</ele>
      </trkpt>
      <trkpt lat="24.714521" lon="121.29927">
        <ele>1166.0</ele>
      </trkpt>
      <trkpt lat="24.71439" lon="121.29912">
        <ele>1166.0</ele>
      </trkpt>
      <trkpt lat="24.714301" lon="121.298899">
        <ele>1164.0</ele>
      </trkpt>
      <trkpt lat="24.714263" lon="121.298698">
        <ele>1161.0</ele>
      </trkpt>
      <trkpt lat="24.714315" lon="121.298512">
        <ele>1158.0</ele>
      </trkpt>
      <trkpt lat="24.714437" lon="121.29826">
        <ele>1153.0</ele>
      </trkpt>
      <trkpt lat="24.714558" lon="121.298059">
        <ele>1150.0</ele>
      </trkpt>
      <trkpt lat="24.714657" lon="121.297817">
        <ele>1146.0</ele>
      </trkpt>
      <trkpt lat="24.714703" lon="121.297636">
        <ele>1144.0</ele>
      </trkpt>
      <trkpt lat="24.71475" lon="121.297332">
        <ele>1138.0</ele>
      </trkpt>
      <trkpt lat="24.714741" lon="121.297188">
        <ele>1134.0</ele>
      </trkpt>
      <trkpt lat="24.714792" lon="121.296931">
        <ele>1127.0</ele>
      </trkpt>
      <trkpt lat="24.714816" lon="121.296627">
        <ele>1119.0</ele>
      </trkpt>
      <trkpt lat="24.714802" lon="121.296235">
        <ele>1114.0</ele>
      </trkpt>
      <trkpt lat="24.71476" lon="121.295905">
        <ele>1110.0</ele>
      </trkpt>
      <trkpt lat="24.714731" lon="121.295297">
        <ele>1096.0</ele>
      </trkpt>
      <trkpt lat="24.714741" lon="121.295065">
        <ele>1090.0</ele>
      </trkpt>
      <trkpt lat="24.714703" lon="121.294885">
        <ele>1088.0</ele>
      </trkpt>
      <trkpt lat="24.714638" lon="121.294694">
        <ele>1086.0</ele>
      </trkpt>
      <trkpt lat="24.714596" lon="121.294519">
        <ele>1084.0</ele>
      </trkpt>
      <trkpt lat="24.714605" lon="121.294313">
        <ele>1081.0</ele>
      </trkpt>
      <trkpt lat="24.714696" lon="121.293849">
        <ele>1075.0</ele>
      </trkpt>
      <trkpt lat="24.714616" lon="121.293503">
        <ele>1073.0</ele>
      </trkpt>
      <trkpt lat="24.714659" lon="121.293252">
        <ele>1070.0</ele>
      </trkpt>
      <trkpt lat="24.714729" lon="121.293051">
        <ele>1066.0</ele>
      </trkpt>
      <trkpt lat="24.714765" lon="121.292771">
        <ele>1063.0</ele>
      </trkpt>
      <trkpt lat="24.714868" lon="121.292286">
        <ele>1058.0</ele>
      </trkpt>
      <trkpt lat="24.714911" lon="121.292151">
        <ele>1058.0</ele>
      </trkpt>
      <trkpt lat="24.715014" lon="121.291943">
        <ele>1056.0</ele>
      </trkpt>
      <trkpt lat="24.715014" lon="121.291943">
        <ele>1056.0</ele>
      </trkpt>
      <trkpt lat="24.71543" lon="121.291292">
        <ele>1045.0</ele>
      </trkpt>
      <trkpt lat="24.715646" lon="121.291062">
        <ele>1038.0</ele>
      </trkpt>
      <trkpt lat="24.715798" lon="121.29087">
        <ele>1033.0</ele>
      </trkpt>
      <trkpt lat="24.716243" lon="121.290091">
        <ele>1001.0</ele>
      </trkpt>
      <trkpt lat="24.716402" lon="121.290122">
        <ele>992.0</ele>
      </trkpt>
      <trkpt lat="24.716538" lon="121.290184">
        <ele>984.0</ele>
      </trkpt>
      <trkpt lat="24.71658" lon="121.290256">
        <ele>982.0</ele>
      </trkpt>
      <trkpt lat="24.716596" lon="121.290373">
        <ele>981.0</ele>
      </trkpt>
      <trkpt lat="24.716669" lon="121.29054">
        <ele>977.0</ele>
      </trkpt>
      <trkpt lat="24.716732" lon="121.290538">
        <ele>973.0</ele>
      </trkpt>
      <trkpt lat="24.716816" lon="121.290504">
        <ele>968.0</ele>
      </trkpt>
      <trkpt lat="24.716889" lon="121.290514">
        <ele>963.0</ele>
      </trkpt>
      <trkpt lat="24.717083" lon="121.290581">
        <ele>951.0</ele>
      </trkpt>
      <trkpt lat="24.717165" lon="121.290592">
        <ele>946.0</ele>
      </trkpt>
      <trkpt lat="24.717228" lon="121.290581">
        <ele>942.0</ele>
      </trkpt>
      <trkpt lat="24.717458" lon="121.290321">
        <ele>924.0</ele>
      </trkpt>
      <trkpt lat="24.717526" lon="121.290262">
        <ele>920.0</ele>
      </trkpt>
      <trkpt lat="24.717647" lon="121.29021">
        <ele>916.0</ele>
      </trkpt>
      <trkpt lat="24.71761" lon="121.290113">
        <ele>916.0</ele>
      </trkpt>
      <trkpt lat="24.717685" lon="121.290016">
        <ele>912.0</ele>
      </trkpt>
      <trkpt lat="24.717768" lon="121.290002">
        <ele>910.0</ele>
      </trkpt>
      <trkpt lat="24.717815" lon="121.289954">
        <ele>908.0</ele>
      </trkpt>
      <trkpt lat="24.717858" lon="121.289806">
        <ele>905.0</ele>
      </trkpt>
      <trkpt lat="24.717857" lon="121.289658">
        <ele>903.0</ele>
      </trkpt>
      <trkpt lat="24.71778" lon="121.289454">
        <ele>903.0</ele>
      </trkpt>
      <trkpt lat="24.717841" lon="121.289209">
        <ele>899.0</ele>
      </trkpt>
      <trkpt lat="24.717901" lon="121.289087">
        <ele>897.0</ele>
      </trkpt>
      <trkpt lat="24.717843" lon="121.28902">
        <ele>898.0</ele>
      </trkpt>
      <trkpt lat="24.717832" lon="121.288903">
        <ele>897.0</ele>
      </trkpt>
      <trkpt lat="24.71788" lon="121.288892">
        <ele>896.0</ele>
      </trkpt>
      <trkpt lat="24.717945" lon="121.288779">
        <ele>893.0</ele>
      </trkpt>
      <trkpt lat="24.717911" lon="121.28862">
        <ele>893.0</ele>
      </trkpt>
      <trkpt lat="24.717977" lon="121.288265">
        <ele>887.0</ele>
      </trkpt>
      <trkpt lat="24.717998" lon="121.288026">
        <ele>884.0</ele>
      </trkpt>
      <trkpt lat="24.718243" lon="121.28751">
        <ele>867.0</ele>
      </trkpt>
      <trkpt lat="24.718244" lon="121.287411">
        <ele>867.0</ele>
      </trkpt>
      <trkpt lat="24.718207" lon="121.287111">
        <ele>866.0</ele>
      </trkpt>
      <trkpt lat="24.718265" lon="121.287006">
        <ele>862.0</ele>
      </trkpt>
      <trkpt lat="24.718272" lon="121.286903">
        <ele>861.0</ele>
      </trkpt>
      <trkpt lat="24.718332" lon="121.286626">
        <ele>856.0</ele>
      </trkpt>
      <trkpt lat="24.71839" lon="121.286619">
        <ele>855.0</ele>
      </trkpt>
      <trkpt lat="24.718442" lon="121.286567">
        <ele>854.0</ele>
      </trkpt>
      <trkpt lat="24.718454" lon="121.286487">
        <ele>854.0</ele>
      </trkpt>
      <trkpt lat="24.718434" lon="121.286304">
        <ele>853.0</ele>
      </trkpt>
      <trkpt lat="24.718458" lon="121.286246">
        <ele>852.0</ele>
      </trkpt>
      <trkpt lat="24.718709" lon="121.286101">
        <ele>848.0</ele>
      </trkpt>
      <trkpt lat="24.71875" lon="121.286022">
        <ele>847.0</ele>
      </trkpt>
      <trkpt lat="24.71876" lon="121.28592">
        <ele>846.0</ele>
      </trkpt>
      <trkpt lat="24.718715" lon="121.285736">
        <ele>846.0</ele>
      </trkpt>
      <trkpt lat="24.718727" lon="121.285598">
        <ele>845.0</ele>
      </trkpt>
      <trkpt lat="24.718759" lon="121.285479">
        <ele>845.0</ele>
      </trkpt>
      <trkpt lat="24.718822" lon="121.285322">
        <ele>843.0</ele>
      </trkpt>
      <trkpt lat="24.718926" lon="121.285152">
        <ele>841.0</ele>
      </trkpt>
      <trkpt lat="24.71904" lon="121.285019">
        <ele>838.0</ele>
      </trkpt>
      <trkpt lat="24.719148" lon="121.284844">
        <ele>836.0</ele>
      </trkpt>
      <trkpt lat="24.719213" lon="121.284697">
        <ele>836.0</ele>
      </trkpt>
      <trkpt lat="24.719244" lon="121.284491">
        <ele>836.0</ele>
      </trkpt>
      <trkpt lat="24.719236" lon="121.28419">
        <ele>837.0</ele>
      </trkpt>
      <trkpt lat="24.719271" lon="121.283724">
        <ele>837.0</ele>
      </trkpt>
      <trkpt lat="24.719273" lon="121.28364">
        <ele>837.0</ele>
      </trkpt>
      <trkpt lat="24.719247" lon="121.283595">
        <ele>837.0</ele>
      </trkpt>
      <trkpt lat="24.719127" lon="121.283642">
        <ele>838.0</ele>
      </trkpt>
      <trkpt lat="24.719022" lon="121.283773">
        <ele>839.0</ele>
      </trkpt>
      <trkpt lat="24.718986" lon="121.283874">
        <ele>839.0</ele>
      </trkpt>
      <trkpt lat="24.718961" lon="121.284176">
        <ele>841.0</ele>
      </trkpt>
      <trkpt lat="24.718936" lon="121.284241">
        <ele>841.0</ele>
      </trkpt>
      <trkpt lat="24.718836" lon="121.284338">
        <ele>842.0</ele>
      </trkpt>
      <trkpt lat="24.718659" lon="121.284412">
        <ele>844.0</ele>
      </trkpt>
      <trkpt lat="24.718285" lon="121.283661">
        <ele>838.0</ele>
      </trkpt>
      <trkpt lat="24.717774" lon="121.28265">
        <ele>834.0</ele>
      </trkpt>
      <trkpt lat="24.717684" lon="121.282507">
        <ele>834.0</ele>
      </trkpt>
      <trkpt lat="24.717561" lon="121.28231">
        <ele>834.0</ele>
      </trkpt>
      <trkpt lat="24.717396" lon="121.282155">
        <ele>835.0</ele>
      </trkpt>
      <trkpt lat="24.717233" lon="121.282063">
        <ele>837.0</ele>
      </trkpt>
      <trkpt lat="24.716736" lon="121.281866">
        <ele>835.0</ele>
      </trkpt>
      <trkpt lat="24.716632" lon="121.281774">
        <ele>831.0</ele>
      </trkpt>
      <trkpt lat="24.716559" lon="121.281636">
        <ele>826.0</ele>
      </trkpt>
      <trkpt lat="24.716526" lon="121.281491">
        <ele>823.0</ele>
      </trkpt>
      <trkpt lat="24.716526" lon="121.281405">
        <ele>821.0</ele>
      </trkpt>
      <trkpt lat="24.716547" lon="121.281298">
        <ele>818.0</ele>
      </trkpt>
      <trkpt lat="24.71659" lon="121.28119">
        <ele>816.0</ele>
      </trkpt>
      <trkpt lat="24.716719" lon="121.28104">
        <ele>814.0</ele>
      </trkpt>
      <trkpt lat="24.717517" lon="121.280638">
        <ele>812.0</ele>
      </trkpt>
      <trkpt lat="24.717689" lon="121.280509">
        <ele>810.0</ele>
      </trkpt>
      <trkpt lat="24.717775" lon="121.280359">
        <ele>807.0</ele>
      </trkpt>
      <trkpt lat="24.717818" lon="121.280209">
        <ele>804.0</ele>
      </trkpt>
      <trkpt lat="24.717818" lon="121.280101">
        <ele>803.0</ele>
      </trkpt>
      <trkpt lat="24.717753" lon="121.279908">
        <ele>799.0</ele>
      </trkpt>
      <trkpt lat="24.717668" lon="121.279793">
        <ele>797.0</ele>
      </trkpt>
      <trkpt lat="24.71756" lon="121.279728">
        <ele>796.0</ele>
      </trkpt>
      <trkpt lat="24.717432" lon="121.279686">
        <ele>795.0</ele>
      </trkpt>
      <trkpt lat="24.717281" lon="121.279664">
        <ele>795.0</ele>
      </trkpt>
      <trkpt lat="24.715937" lon="121.279656">
        <ele>788.0</ele>
      </trkpt>
      <trkpt lat="24.715679" lon="121.279635">
        <ele>789.0</ele>
      </trkpt>
      <trkpt lat="24.715508" lon="121.279506">
        <ele>790.0</ele>
      </trkpt>
      <trkpt lat="24.7154" lon="121.279334">
        <ele>789.0</ele>
      </trkpt>
      <trkpt lat="24.715374" lon="121.279152">
        <ele>788.0</ele>
      </trkpt>
      <trkpt lat="24.715388" lon="121.279036">
        <ele>787.0</ele>
      </trkpt>
      <trkpt lat="24.715431" lon="121.278932">
        <ele>785.0</ele>
      </trkpt>
      <trkpt lat="24.715652" lon="121.278626">
        <ele>779.0</ele>
      </trkpt>
    </trkseg>
  </trk>
</gpx>
