<?xml version="1.0" encoding="UTF-8"?>
<gpx xmlns="http://www.topografix.com/GPX/1/1" xmlns:xsi="http://www.w3.org/2001/XMLSchema-instance" xsi:schemaLocation="http://www.topografix.com/GPX/1/1 http://www.topografix.com/GPX/1/1/gpx.xsd" version="1.1" creator="Martin Schneider">
  <wpt lat="24.663545" lon="121.120308">
    <ele>258.0</ele>
    <name>Start</name>
  </wpt>
  <wpt lat="24.64282" lon="121.089876">
    <ele>682.0</ele>
    <name>End</name>
  </wpt>
  <wpt lat="24.641306" lon="121.096214">
    <ele>1013.0</ele>
    <name>Summit Wuzhishan</name>
  </wpt>
  <wpt lat="24.6581054" lon="121.1200833">
    <name>1</name>
    <desc>Trailhead</desc>
  </wpt>
  <wpt lat="24.6420747" lon="121.1022174">
    <name>2</name>
    <desc>Xiaozhifeng</desc>
  </wpt>
  <wpt lat="24.6419481" lon="121.1001291">
    <name>3</name>
    <desc>Wumingzhifeng</desc>
  </wpt>
  <wpt lat="24.6412881" lon="121.09616">
    <name>4</name>
    <desc>Zhongzifeng</desc>
  </wpt>
  <wpt lat="24.6392871" lon="121.0931471">
    <name>5</name>
    <desc>Shizifeng</desc>
  </wpt>
  <wpt lat="24.637216" lon="121.0908541">
    <name>6</name>
    <desc>Muzhifeng</desc>
  </wpt>
  <wpt lat="24.635174" lon="121.089871">
    <name>7</name>
    <desc>Fork</desc>
  </wpt>
  <wpt lat="24.6315151" lon="121.0853083">
    <name>8</name>
    <desc>Fork</desc>
  </wpt>
  <wpt lat="24.637346" lon="121.087076">
    <name>9</name>
    <desc>Fork</desc>
  </wpt>
  <wpt lat="24.6425524" lon="121.0931209">
    <name>10</name>
    <desc>Giant Boulder Crevice</desc>
  </wpt>
  <trk>
    <name>030_Wuzhishan</name>
    <trkseg>
      <trkpt lat="24.663545" lon="121.120308">
        <ele>258.0</ele>
      </trkpt>
      <trkpt lat="24.663697" lon="121.120208">
        <ele>257.0</ele>
      </trkpt>
      <trkpt lat="24.663558" lon="121.120098">
        <ele>258.0</ele>
      </trkpt>
      <trkpt lat="24.66342" lon="121.120038">
        <ele>259.0</ele>
      </trkpt>
      <trkpt lat="24.66342" lon="121.120038">
        <ele>259.0</ele>
      </trkpt>
      <trkpt lat="24.663182" lon="121.119935">
        <ele>262.0</ele>
      </trkpt>
      <trkpt lat="24.663105" lon="121.119885">
        <ele>263.0</ele>
      </trkpt>
      <trkpt lat="24.663052" lon="121.11985">
        <ele>264.0</ele>
      </trkpt>
      <trkpt lat="24.662982" lon="121.119783">
        <ele>265.0</ele>
      </trkpt>
      <trkpt lat="24.662535" lon="121.119625">
        <ele>273.0</ele>
      </trkpt>
      <trkpt lat="24.662232" lon="121.119568">
        <ele>277.0</ele>
      </trkpt>
      <trkpt lat="24.662169" lon="121.119527">
        <ele>278.0</ele>
      </trkpt>
      <trkpt lat="24.662015" lon="121.119504">
        <ele>281.0</ele>
      </trkpt>
      <trkpt lat="24.661842" lon="121.119609">
        <ele>283.0</ele>
      </trkpt>
      <trkpt lat="24.661701" lon="121.11965">
        <ele>285.0</ele>
      </trkpt>
      <trkpt lat="24.66146" lon="121.119714">
        <ele>288.0</ele>
      </trkpt>
      <trkpt lat="24.661252" lon="121.119689">
        <ele>291.0</ele>
      </trkpt>
      <trkpt lat="24.660812" lon="121.119722">
        <ele>297.0</ele>
      </trkpt>
      <trkpt lat="24.660438" lon="121.119811">
        <ele>303.0</ele>
      </trkpt>
      <trkpt lat="24.660045" lon="121.119866">
        <ele>310.0</ele>
      </trkpt>
      <trkpt lat="24.659929" lon="121.119858">
        <ele>313.0</ele>
      </trkpt>
      <trkpt lat="24.659722" lon="121.119788">
        <ele>318.0</ele>
      </trkpt>
      <trkpt lat="24.659607" lon="121.119719">
        <ele>322.0</ele>
      </trkpt>
      <trkpt lat="24.659522" lon="121.119633">
        <ele>324.0</ele>
      </trkpt>
      <trkpt lat="24.659457" lon="121.119611">
        <ele>326.0</ele>
      </trkpt>
      <trkpt lat="24.659221" lon="121.119676">
        <ele>333.0</ele>
      </trkpt>
      <trkpt lat="24.659157" lon="121.119676">
        <ele>334.0</ele>
      </trkpt>
      <trkpt lat="24.658856" lon="121.119611">
        <ele>343.0</ele>
      </trkpt>
      <trkpt lat="24.658556" lon="121.119654">
        <ele>350.0</ele>
      </trkpt>
      <trkpt lat="24.658356" lon="121.119735">
        <ele>354.0</ele>
      </trkpt>
      <trkpt lat="24.658277" lon="121.119804">
        <ele>355.0</ele>
      </trkpt>
      <trkpt lat="24.658148" lon="121.12004">
        <ele>353.0</ele>
      </trkpt>
      <trkpt lat="24.658105" lon="121.120083">
        <ele>353.0</ele>
      </trkpt>
      <trkpt lat="24.658103" lon="121.119962">
        <ele>354.0</ele>
      </trkpt>
      <trkpt lat="24.658057" lon="121.11971">
        <ele>356.0</ele>
      </trkpt>
      <trkpt lat="24.658027" lon="121.119592">
        <ele>358.0</ele>
      </trkpt>
      <trkpt lat="24.657937" lon="121.119443">
        <ele>360.0</ele>
      </trkpt>
      <trkpt lat="24.657917" lon="121.119317">
        <ele>362.0</ele>
      </trkpt>
      <trkpt lat="24.657905" lon="121.119142">
        <ele>364.0</ele>
      </trkpt>
      <trkpt lat="24.657931" lon="121.118843">
        <ele>368.0</ele>
      </trkpt>
      <trkpt lat="24.657923" lon="121.118683">
        <ele>370.0</ele>
      </trkpt>
      <trkpt lat="24.657874" lon="121.118483">
        <ele>374.0</ele>
      </trkpt>
      <trkpt lat="24.657807" lon="121.118322">
        <ele>377.0</ele>
      </trkpt>
      <trkpt lat="24.65767" lon="121.118156">
        <ele>384.0</ele>
      </trkpt>
      <trkpt lat="24.657584" lon="121.117861">
        <ele>392.0</ele>
      </trkpt>
      <trkpt lat="24.657544" lon="121.11776">
        <ele>395.0</ele>
      </trkpt>
      <trkpt lat="24.657486" lon="121.117682">
        <ele>399.0</ele>
      </trkpt>
      <trkpt lat="24.657089" lon="121.117465">
        <ele>420.0</ele>
      </trkpt>
      <trkpt lat="24.656812" lon="121.117246">
        <ele>431.0</ele>
      </trkpt>
      <trkpt lat="24.656758" lon="121.117159">
        <ele>433.0</ele>
      </trkpt>
      <trkpt lat="24.656757" lon="121.117105">
        <ele>432.0</ele>
      </trkpt>
      <trkpt lat="24.656839" lon="121.117012">
        <ele>427.0</ele>
      </trkpt>
      <trkpt lat="24.656828" lon="121.116971">
        <ele>428.0</ele>
      </trkpt>
      <trkpt lat="24.65679" lon="121.11695">
        <ele>429.0</ele>
      </trkpt>
      <trkpt lat="24.656709" lon="121.11695">
        <ele>434.0</ele>
      </trkpt>
      <trkpt lat="24.656446" lon="121.11707">
        <ele>446.0</ele>
      </trkpt>
      <trkpt lat="24.656293" lon="121.117088">
        <ele>453.0</ele>
      </trkpt>
      <trkpt lat="24.65613" lon="121.117137">
        <ele>461.0</ele>
      </trkpt>
      <trkpt lat="24.655746" lon="121.117214">
        <ele>479.0</ele>
      </trkpt>
      <trkpt lat="24.655694" lon="121.117264">
        <ele>482.0</ele>
      </trkpt>
      <trkpt lat="24.655612" lon="121.117386">
        <ele>487.0</ele>
      </trkpt>
      <trkpt lat="24.655495" lon="121.117433">
        <ele>492.0</ele>
      </trkpt>
      <trkpt lat="24.655407" lon="121.117437">
        <ele>494.0</ele>
      </trkpt>
      <trkpt lat="24.655298" lon="121.117416">
        <ele>497.0</ele>
      </trkpt>
      <trkpt lat="24.654904" lon="121.117267">
        <ele>505.0</ele>
      </trkpt>
      <trkpt lat="24.654859" lon="121.117208">
        <ele>506.0</ele>
      </trkpt>
      <trkpt lat="24.654859" lon="121.117208">
        <ele>506.0</ele>
      </trkpt>
      <trkpt lat="24.654814" lon="121.117147">
        <ele>506.0</ele>
      </trkpt>
      <trkpt lat="24.654686" lon="121.117051">
        <ele>509.0</ele>
      </trkpt>
      <trkpt lat="24.654608" lon="121.117029">
        <ele>511.0</ele>
      </trkpt>
      <trkpt lat="24.654421" lon="121.117023">
        <ele>517.0</ele>
      </trkpt>
      <trkpt lat="24.654194" lon="121.116969">
        <ele>524.0</ele>
      </trkpt>
      <trkpt lat="24.654111" lon="121.116965">
        <ele>528.0</ele>
      </trkpt>
      <trkpt lat="24.653964" lon="121.116996">
        <ele>536.0</ele>
      </trkpt>
      <trkpt lat="24.653882" lon="121.116972">
        <ele>541.0</ele>
      </trkpt>
      <trkpt lat="24.653573" lon="121.116954">
        <ele>558.0</ele>
      </trkpt>
      <trkpt lat="24.653544" lon="121.116976">
        <ele>559.0</ele>
      </trkpt>
      <trkpt lat="24.653488" lon="121.117066">
        <ele>561.0</ele>
      </trkpt>
      <trkpt lat="24.653457" lon="121.117085">
        <ele>563.0</ele>
      </trkpt>
      <trkpt lat="24.653257" lon="121.117108">
        <ele>571.0</ele>
      </trkpt>
      <trkpt lat="24.65297" lon="121.117067">
        <ele>579.0</ele>
      </trkpt>
      <trkpt lat="24.652856" lon="121.117087">
        <ele>582.0</ele>
      </trkpt>
      <trkpt lat="24.65278" lon="121.117068">
        <ele>584.0</ele>
      </trkpt>
      <trkpt lat="24.652739" lon="121.117028">
        <ele>586.0</ele>
      </trkpt>
      <trkpt lat="24.652554" lon="121.116812">
        <ele>595.0</ele>
      </trkpt>
      <trkpt lat="24.652461" lon="121.11667">
        <ele>599.0</ele>
      </trkpt>
      <trkpt lat="24.652395" lon="121.116366">
        <ele>599.0</ele>
      </trkpt>
      <trkpt lat="24.652343" lon="121.115903">
        <ele>602.0</ele>
      </trkpt>
      <trkpt lat="24.65234" lon="121.11569">
        <ele>601.0</ele>
      </trkpt>
      <trkpt lat="24.652308" lon="121.11556">
        <ele>600.0</ele>
      </trkpt>
      <trkpt lat="24.65206" lon="121.115383">
        <ele>604.0</ele>
      </trkpt>
      <trkpt lat="24.651901" lon="121.115303">
        <ele>608.0</ele>
      </trkpt>
      <trkpt lat="24.65183" lon="121.115286">
        <ele>609.0</ele>
      </trkpt>
      <trkpt lat="24.651745" lon="121.115234">
        <ele>612.0</ele>
      </trkpt>
      <trkpt lat="24.651575" lon="121.115052">
        <ele>614.0</ele>
      </trkpt>
      <trkpt lat="24.651496" lon="121.11482">
        <ele>613.0</ele>
      </trkpt>
      <trkpt lat="24.651395" lon="121.114687">
        <ele>612.0</ele>
      </trkpt>
      <trkpt lat="24.651283" lon="121.114602">
        <ele>611.0</ele>
      </trkpt>
      <trkpt lat="24.651248" lon="121.114543">
        <ele>611.0</ele>
      </trkpt>
      <trkpt lat="24.651224" lon="121.114456">
        <ele>612.0</ele>
      </trkpt>
      <trkpt lat="24.65125" lon="121.114154">
        <ele>616.0</ele>
      </trkpt>
      <trkpt lat="24.651235" lon="121.114008">
        <ele>614.0</ele>
      </trkpt>
      <trkpt lat="24.651088" lon="121.113853">
        <ele>615.0</ele>
      </trkpt>
      <trkpt lat="24.650987" lon="121.113821">
        <ele>616.0</ele>
      </trkpt>
      <trkpt lat="24.650962" lon="121.113789">
        <ele>616.0</ele>
      </trkpt>
      <trkpt lat="24.650857" lon="121.113407">
        <ele>617.0</ele>
      </trkpt>
      <trkpt lat="24.650857" lon="121.113407">
        <ele>617.0</ele>
      </trkpt>
      <trkpt lat="24.650765" lon="121.113015">
        <ele>610.0</ele>
      </trkpt>
      <trkpt lat="24.650721" lon="121.112977">
        <ele>609.0</ele>
      </trkpt>
      <trkpt lat="24.650645" lon="121.11295">
        <ele>608.0</ele>
      </trkpt>
      <trkpt lat="24.650585" lon="121.112858">
        <ele>606.0</ele>
      </trkpt>
      <trkpt lat="24.650553" lon="121.112637">
        <ele>604.0</ele>
      </trkpt>
      <trkpt lat="24.650598" lon="121.112348">
        <ele>599.0</ele>
      </trkpt>
      <trkpt lat="24.650593" lon="121.112278">
        <ele>598.0</ele>
      </trkpt>
      <trkpt lat="24.650552" lon="121.112184">
        <ele>597.0</ele>
      </trkpt>
      <trkpt lat="24.650496" lon="121.11209">
        <ele>597.0</ele>
      </trkpt>
      <trkpt lat="24.650362" lon="121.111923">
        <ele>599.0</ele>
      </trkpt>
      <trkpt lat="24.650328" lon="121.111924">
        <ele>600.0</ele>
      </trkpt>
      <trkpt lat="24.650259" lon="121.11196">
        <ele>602.0</ele>
      </trkpt>
      <trkpt lat="24.650223" lon="121.111951">
        <ele>603.0</ele>
      </trkpt>
      <trkpt lat="24.650198" lon="121.111888">
        <ele>604.0</ele>
      </trkpt>
      <trkpt lat="24.65013" lon="121.111809">
        <ele>607.0</ele>
      </trkpt>
      <trkpt lat="24.649952" lon="121.111675">
        <ele>612.0</ele>
      </trkpt>
      <trkpt lat="24.64988" lon="121.111643">
        <ele>611.0</ele>
      </trkpt>
      <trkpt lat="24.649781" lon="121.111546">
        <ele>610.0</ele>
      </trkpt>
      <trkpt lat="24.649744" lon="121.111522">
        <ele>610.0</ele>
      </trkpt>
      <trkpt lat="24.649732" lon="121.111494">
        <ele>610.0</ele>
      </trkpt>
      <trkpt lat="24.64968" lon="121.110996">
        <ele>615.0</ele>
      </trkpt>
      <trkpt lat="24.649651" lon="121.110868">
        <ele>617.0</ele>
      </trkpt>
      <trkpt lat="24.649452" lon="121.110549">
        <ele>615.0</ele>
      </trkpt>
      <trkpt lat="24.649434" lon="121.110408">
        <ele>612.0</ele>
      </trkpt>
      <trkpt lat="24.649413" lon="121.110379">
        <ele>612.0</ele>
      </trkpt>
      <trkpt lat="24.64925" lon="121.110265">
        <ele>618.0</ele>
      </trkpt>
      <trkpt lat="24.649078" lon="121.110194">
        <ele>623.0</ele>
      </trkpt>
      <trkpt lat="24.649018" lon="121.110172">
        <ele>623.0</ele>
      </trkpt>
      <trkpt lat="24.648887" lon="121.110162">
        <ele>624.0</ele>
      </trkpt>
      <trkpt lat="24.648689" lon="121.110083">
        <ele>626.0</ele>
      </trkpt>
      <trkpt lat="24.648637" lon="121.110049">
        <ele>627.0</ele>
      </trkpt>
      <trkpt lat="24.648542" lon="121.109911">
        <ele>627.0</ele>
      </trkpt>
      <trkpt lat="24.648495" lon="121.109867">
        <ele>627.0</ele>
      </trkpt>
      <trkpt lat="24.648013" lon="121.109723">
        <ele>636.0</ele>
      </trkpt>
      <trkpt lat="24.647928" lon="121.10968">
        <ele>638.0</ele>
      </trkpt>
      <trkpt lat="24.647894" lon="121.109639">
        <ele>640.0</ele>
      </trkpt>
      <trkpt lat="24.647843" lon="121.109501">
        <ele>643.0</ele>
      </trkpt>
      <trkpt lat="24.647762" lon="121.109348">
        <ele>649.0</ele>
      </trkpt>
      <trkpt lat="24.647716" lon="121.109304">
        <ele>652.0</ele>
      </trkpt>
      <trkpt lat="24.647438" lon="121.109205">
        <ele>669.0</ele>
      </trkpt>
      <trkpt lat="24.647438" lon="121.109205">
        <ele>669.0</ele>
      </trkpt>
      <trkpt lat="24.647317" lon="121.109167">
        <ele>676.0</ele>
      </trkpt>
      <trkpt lat="24.647163" lon="121.109163">
        <ele>684.0</ele>
      </trkpt>
      <trkpt lat="24.646917" lon="121.109263">
        <ele>694.0</ele>
      </trkpt>
      <trkpt lat="24.646547" lon="121.109297">
        <ele>710.0</ele>
      </trkpt>
      <trkpt lat="24.646429" lon="121.109282">
        <ele>715.0</ele>
      </trkpt>
      <trkpt lat="24.646315" lon="121.109243">
        <ele>721.0</ele>
      </trkpt>
      <trkpt lat="24.646236" lon="121.109187">
        <ele>726.0</ele>
      </trkpt>
      <trkpt lat="24.646008" lon="121.109125">
        <ele>735.0</ele>
      </trkpt>
      <trkpt lat="24.645946" lon="121.109087">
        <ele>738.0</ele>
      </trkpt>
      <trkpt lat="24.645784" lon="121.108941">
        <ele>742.0</ele>
      </trkpt>
      <trkpt lat="24.645666" lon="121.10869">
        <ele>744.0</ele>
      </trkpt>
      <trkpt lat="24.645486" lon="121.108391">
        <ele>750.0</ele>
      </trkpt>
      <trkpt lat="24.645449" lon="121.108374">
        <ele>751.0</ele>
      </trkpt>
      <trkpt lat="24.645314" lon="121.108388">
        <ele>755.0</ele>
      </trkpt>
      <trkpt lat="24.645246" lon="121.108376">
        <ele>758.0</ele>
      </trkpt>
      <trkpt lat="24.645073" lon="121.108166">
        <ele>766.0</ele>
      </trkpt>
      <trkpt lat="24.644792" lon="121.108035">
        <ele>768.0</ele>
      </trkpt>
      <trkpt lat="24.644698" lon="121.107962">
        <ele>769.0</ele>
      </trkpt>
      <trkpt lat="24.644651" lon="121.107855">
        <ele>771.0</ele>
      </trkpt>
      <trkpt lat="24.644632" lon="121.10758">
        <ele>776.0</ele>
      </trkpt>
      <trkpt lat="24.644585" lon="121.107339">
        <ele>781.0</ele>
      </trkpt>
      <trkpt lat="24.644434" lon="121.106983">
        <ele>791.0</ele>
      </trkpt>
      <trkpt lat="24.644318" lon="121.106765">
        <ele>800.0</ele>
      </trkpt>
      <trkpt lat="24.64432" lon="121.106705">
        <ele>802.0</ele>
      </trkpt>
      <trkpt lat="24.644357" lon="121.106564">
        <ele>803.0</ele>
      </trkpt>
      <trkpt lat="24.644302" lon="121.106307">
        <ele>811.0</ele>
      </trkpt>
      <trkpt lat="24.644408" lon="121.105939">
        <ele>811.0</ele>
      </trkpt>
      <trkpt lat="24.644443" lon="121.105869">
        <ele>810.0</ele>
      </trkpt>
      <trkpt lat="24.644441" lon="121.105804">
        <ele>810.0</ele>
      </trkpt>
      <trkpt lat="24.644355" lon="121.105658">
        <ele>815.0</ele>
      </trkpt>
      <trkpt lat="24.644188" lon="121.105451">
        <ele>828.0</ele>
      </trkpt>
      <trkpt lat="24.644188" lon="121.105451">
        <ele>828.0</ele>
      </trkpt>
      <trkpt lat="24.64408" lon="121.105318">
        <ele>830.0</ele>
      </trkpt>
      <trkpt lat="24.64405" lon="121.105316">
        <ele>831.0</ele>
      </trkpt>
      <trkpt lat="24.643791" lon="121.105483">
        <ele>833.0</ele>
      </trkpt>
      <trkpt lat="24.643727" lon="121.105542">
        <ele>833.0</ele>
      </trkpt>
      <trkpt lat="24.643689" lon="121.105559">
        <ele>833.0</ele>
      </trkpt>
      <trkpt lat="24.643647" lon="121.105556">
        <ele>834.0</ele>
      </trkpt>
      <trkpt lat="24.643563" lon="121.105464">
        <ele>836.0</ele>
      </trkpt>
      <trkpt lat="24.643499" lon="121.105345">
        <ele>839.0</ele>
      </trkpt>
      <trkpt lat="24.643452" lon="121.105088">
        <ele>846.0</ele>
      </trkpt>
      <trkpt lat="24.643344" lon="121.105028">
        <ele>850.0</ele>
      </trkpt>
      <trkpt lat="24.643255" lon="121.105015">
        <ele>855.0</ele>
      </trkpt>
      <trkpt lat="24.643065" lon="121.105028">
        <ele>867.0</ele>
      </trkpt>
      <trkpt lat="24.642947" lon="121.10498">
        <ele>876.0</ele>
      </trkpt>
      <trkpt lat="24.642891" lon="121.104887">
        <ele>882.0</ele>
      </trkpt>
      <trkpt lat="24.642865" lon="121.104682">
        <ele>889.0</ele>
      </trkpt>
      <trkpt lat="24.642791" lon="121.10458">
        <ele>898.0</ele>
      </trkpt>
      <trkpt lat="24.642747" lon="121.10443">
        <ele>906.0</ele>
      </trkpt>
      <trkpt lat="24.642707" lon="121.104345">
        <ele>912.0</ele>
      </trkpt>
      <trkpt lat="24.642649" lon="121.104301">
        <ele>918.0</ele>
      </trkpt>
      <trkpt lat="24.642485" lon="121.104299">
        <ele>931.0</ele>
      </trkpt>
      <trkpt lat="24.642438" lon="121.104273">
        <ele>932.0</ele>
      </trkpt>
      <trkpt lat="24.642391" lon="121.104219">
        <ele>933.0</ele>
      </trkpt>
      <trkpt lat="24.642377" lon="121.104132">
        <ele>935.0</ele>
      </trkpt>
      <trkpt lat="24.642384" lon="121.103971">
        <ele>937.0</ele>
      </trkpt>
      <trkpt lat="24.6425" lon="121.103293">
        <ele>945.0</ele>
      </trkpt>
      <trkpt lat="24.642515" lon="121.103132">
        <ele>942.0</ele>
      </trkpt>
      <trkpt lat="24.642496" lon="121.103046">
        <ele>942.0</ele>
      </trkpt>
      <trkpt lat="24.642449" lon="121.102956">
        <ele>941.0</ele>
      </trkpt>
      <trkpt lat="24.642" lon="121.102468">
        <ele>949.0</ele>
      </trkpt>
      <trkpt lat="24.641981" lon="121.102406">
        <ele>949.0</ele>
      </trkpt>
      <trkpt lat="24.642019" lon="121.102216">
        <ele>949.0</ele>
      </trkpt>
      <trkpt lat="24.642012" lon="121.102181">
        <ele>949.0</ele>
      </trkpt>
      <trkpt lat="24.641987" lon="121.102151">
        <ele>950.0</ele>
      </trkpt>
      <trkpt lat="24.641709" lon="121.101976">
        <ele>960.0</ele>
      </trkpt>
      <trkpt lat="24.641709" lon="121.101976">
        <ele>960.0</ele>
      </trkpt>
      <trkpt lat="24.641648" lon="121.101946">
        <ele>961.0</ele>
      </trkpt>
      <trkpt lat="24.641512" lon="121.101765">
        <ele>960.0</ele>
      </trkpt>
      <trkpt lat="24.641339" lon="121.101626">
        <ele>958.0</ele>
      </trkpt>
      <trkpt lat="24.641317" lon="121.101558">
        <ele>959.0</ele>
      </trkpt>
      <trkpt lat="24.641316" lon="121.101487">
        <ele>961.0</ele>
      </trkpt>
      <trkpt lat="24.641331" lon="121.101457">
        <ele>962.0</ele>
      </trkpt>
      <trkpt lat="24.641366" lon="121.101446">
        <ele>963.0</ele>
      </trkpt>
      <trkpt lat="24.641419" lon="121.101365">
        <ele>966.0</ele>
      </trkpt>
      <trkpt lat="24.64144" lon="121.101183">
        <ele>971.0</ele>
      </trkpt>
      <trkpt lat="24.641465" lon="121.101112">
        <ele>974.0</ele>
      </trkpt>
      <trkpt lat="24.641572" lon="121.100995">
        <ele>980.0</ele>
      </trkpt>
      <trkpt lat="24.641627" lon="121.100881">
        <ele>984.0</ele>
      </trkpt>
      <trkpt lat="24.6417" lon="121.100654">
        <ele>989.0</ele>
      </trkpt>
      <trkpt lat="24.641765" lon="121.100565">
        <ele>985.0</ele>
      </trkpt>
      <trkpt lat="24.641887" lon="121.100477">
        <ele>974.0</ele>
      </trkpt>
      <trkpt lat="24.641906" lon="121.100304">
        <ele>974.0</ele>
      </trkpt>
      <trkpt lat="24.64196" lon="121.100137">
        <ele>970.0</ele>
      </trkpt>
      <trkpt lat="24.641955" lon="121.100094">
        <ele>971.0</ele>
      </trkpt>
      <trkpt lat="24.641672" lon="121.099801">
        <ele>1008.0</ele>
      </trkpt>
      <trkpt lat="24.641478" lon="121.099545">
        <ele>1001.0</ele>
      </trkpt>
      <trkpt lat="24.6414" lon="121.099497">
        <ele>999.0</ele>
      </trkpt>
      <trkpt lat="24.641358" lon="121.099423">
        <ele>998.0</ele>
      </trkpt>
      <trkpt lat="24.641317" lon="121.09939">
        <ele>997.0</ele>
      </trkpt>
      <trkpt lat="24.64109" lon="121.099378">
        <ele>993.0</ele>
      </trkpt>
      <trkpt lat="24.641024" lon="121.099297">
        <ele>993.0</ele>
      </trkpt>
      <trkpt lat="24.640898" lon="121.099212">
        <ele>992.0</ele>
      </trkpt>
      <trkpt lat="24.640855" lon="121.099202">
        <ele>992.0</ele>
      </trkpt>
      <trkpt lat="24.640757" lon="121.099216">
        <ele>989.0</ele>
      </trkpt>
      <trkpt lat="24.640549" lon="121.099134">
        <ele>985.0</ele>
      </trkpt>
      <trkpt lat="24.640433" lon="121.099031">
        <ele>983.0</ele>
      </trkpt>
      <trkpt lat="24.640326" lon="121.098906">
        <ele>982.0</ele>
      </trkpt>
      <trkpt lat="24.640375" lon="121.098839">
        <ele>984.0</ele>
      </trkpt>
      <trkpt lat="24.640392" lon="121.098629">
        <ele>986.0</ele>
      </trkpt>
      <trkpt lat="24.640444" lon="121.098463">
        <ele>989.0</ele>
      </trkpt>
      <trkpt lat="24.640572" lon="121.098147">
        <ele>995.0</ele>
      </trkpt>
      <trkpt lat="24.640582" lon="121.098099">
        <ele>996.0</ele>
      </trkpt>
      <trkpt lat="24.640564" lon="121.097982">
        <ele>999.0</ele>
      </trkpt>
      <trkpt lat="24.640569" lon="121.097887">
        <ele>1001.0</ele>
      </trkpt>
      <trkpt lat="24.64059" lon="121.097843">
        <ele>1002.0</ele>
      </trkpt>
      <trkpt lat="24.640702" lon="121.09772">
        <ele>1007.0</ele>
      </trkpt>
      <trkpt lat="24.640815" lon="121.09767">
        <ele>1011.0</ele>
      </trkpt>
      <trkpt lat="24.640879" lon="121.097614">
        <ele>1011.0</ele>
      </trkpt>
      <trkpt lat="24.641062" lon="121.097566">
        <ele>1003.0</ele>
      </trkpt>
      <trkpt lat="24.641136" lon="121.09747">
        <ele>1001.0</ele>
      </trkpt>
      <trkpt lat="24.641163" lon="121.097409">
        <ele>1002.0</ele>
      </trkpt>
      <trkpt lat="24.641242" lon="121.097335">
        <ele>1000.0</ele>
      </trkpt>
      <trkpt lat="24.641499" lon="121.096928">
        <ele>1003.0</ele>
      </trkpt>
      <trkpt lat="24.641511" lon="121.096882">
        <ele>1004.0</ele>
      </trkpt>
      <trkpt lat="24.641503" lon="121.096836">
        <ele>1006.0</ele>
      </trkpt>
      <trkpt lat="24.641372" lon="121.096669">
        <ele>1016.0</ele>
      </trkpt>
      <trkpt lat="24.641362" lon="121.096544">
        <ele>1015.0</ele>
      </trkpt>
      <trkpt lat="24.641376" lon="121.096465">
        <ele>1013.0</ele>
      </trkpt>
      <trkpt lat="24.641358" lon="121.096386">
        <ele>1013.0</ele>
      </trkpt>
      <trkpt lat="24.641308" lon="121.096289">
        <ele>1014.0</ele>
      </trkpt>
      <trkpt lat="24.641306" lon="121.096214">
        <ele>1013.0</ele>
      </trkpt>
      <trkpt lat="24.641183" lon="121.096036">
        <ele>1017.0</ele>
      </trkpt>
      <trkpt lat="24.641078" lon="121.095801">
        <ele>1020.0</ele>
      </trkpt>
      <trkpt lat="24.640997" lon="121.095689">
        <ele>1019.0</ele>
      </trkpt>
      <trkpt lat="24.640937" lon="121.095678">
        <ele>1022.0</ele>
      </trkpt>
      <trkpt lat="24.640958" lon="121.095603">
        <ele>1017.0</ele>
      </trkpt>
      <trkpt lat="24.640957" lon="121.095523">
        <ele>1012.0</ele>
      </trkpt>
      <trkpt lat="24.640928" lon="121.09537">
        <ele>1006.0</ele>
      </trkpt>
      <trkpt lat="24.640894" lon="121.095315">
        <ele>1006.0</ele>
      </trkpt>
      <trkpt lat="24.64083" lon="121.095256">
        <ele>1007.0</ele>
      </trkpt>
      <trkpt lat="24.640744" lon="121.095215">
        <ele>1005.0</ele>
      </trkpt>
      <trkpt lat="24.640676" lon="121.095087">
        <ele>1000.0</ele>
      </trkpt>
      <trkpt lat="24.640628" lon="121.09505">
        <ele>999.0</ele>
      </trkpt>
      <trkpt lat="24.640523" lon="121.094981">
        <ele>999.0</ele>
      </trkpt>
      <trkpt lat="24.640327" lon="121.094932">
        <ele>1001.0</ele>
      </trkpt>
      <trkpt lat="24.640264" lon="121.094876">
        <ele>1001.0</ele>
      </trkpt>
      <trkpt lat="24.640264" lon="121.094795">
        <ele>1000.0</ele>
      </trkpt>
      <trkpt lat="24.640329" lon="121.094588">
        <ele>994.0</ele>
      </trkpt>
      <trkpt lat="24.640289" lon="121.094542">
        <ele>995.0</ele>
      </trkpt>
      <trkpt lat="24.640229" lon="121.09449">
        <ele>996.0</ele>
      </trkpt>
      <trkpt lat="24.640156" lon="121.094484">
        <ele>999.0</ele>
      </trkpt>
      <trkpt lat="24.640049" lon="121.094568">
        <ele>1005.0</ele>
      </trkpt>
      <trkpt lat="24.639918" lon="121.094586">
        <ele>1006.0</ele>
      </trkpt>
      <trkpt lat="24.639804" lon="121.094584">
        <ele>1006.0</ele>
      </trkpt>
      <trkpt lat="24.639683" lon="121.094475">
        <ele>1006.0</ele>
      </trkpt>
      <trkpt lat="24.639681" lon="121.094425">
        <ele>1006.0</ele>
      </trkpt>
      <trkpt lat="24.63974" lon="121.094299">
        <ele>1007.0</ele>
      </trkpt>
      <trkpt lat="24.639518" lon="121.094062">
        <ele>1011.0</ele>
      </trkpt>
      <trkpt lat="24.639474" lon="121.09394">
        <ele>1014.0</ele>
      </trkpt>
      <trkpt lat="24.639267" lon="121.093785">
        <ele>1022.0</ele>
      </trkpt>
      <trkpt lat="24.639247" lon="121.093744">
        <ele>1024.0</ele>
      </trkpt>
      <trkpt lat="24.639277" lon="121.09369">
        <ele>1025.0</ele>
      </trkpt>
      <trkpt lat="24.639265" lon="121.093606">
        <ele>1027.0</ele>
      </trkpt>
      <trkpt lat="24.639345" lon="121.093531">
        <ele>1026.0</ele>
      </trkpt>
      <trkpt lat="24.639421" lon="121.093495">
        <ele>1024.0</ele>
      </trkpt>
      <trkpt lat="24.639447" lon="121.09345">
        <ele>1023.0</ele>
      </trkpt>
      <trkpt lat="24.639402" lon="121.093389">
        <ele>1027.0</ele>
      </trkpt>
      <trkpt lat="24.639369" lon="121.093394">
        <ele>1028.0</ele>
      </trkpt>
      <trkpt lat="24.639355" lon="121.093363">
        <ele>1030.0</ele>
      </trkpt>
      <trkpt lat="24.639355" lon="121.093363">
        <ele>1030.0</ele>
      </trkpt>
      <trkpt lat="24.639373" lon="121.093274">
        <ele>1027.0</ele>
      </trkpt>
      <trkpt lat="24.639375" lon="121.093129">
        <ele>1022.0</ele>
      </trkpt>
      <trkpt lat="24.639209" lon="121.093045">
        <ele>1029.0</ele>
      </trkpt>
      <trkpt lat="24.639116" lon="121.09286">
        <ele>1025.0</ele>
      </trkpt>
      <trkpt lat="24.638967" lon="121.092746">
        <ele>1020.0</ele>
      </trkpt>
      <trkpt lat="24.638945" lon="121.092662">
        <ele>1019.0</ele>
      </trkpt>
      <trkpt lat="24.638834" lon="121.092589">
        <ele>1017.0</ele>
      </trkpt>
      <trkpt lat="24.638756" lon="121.092367">
        <ele>1010.0</ele>
      </trkpt>
      <trkpt lat="24.638633" lon="121.092137">
        <ele>1002.0</ele>
      </trkpt>
      <trkpt lat="24.63849" lon="121.091995">
        <ele>1001.0</ele>
      </trkpt>
      <trkpt lat="24.638334" lon="121.091912">
        <ele>1004.0</ele>
      </trkpt>
      <trkpt lat="24.638227" lon="121.091622">
        <ele>996.0</ele>
      </trkpt>
      <trkpt lat="24.638156" lon="121.09149">
        <ele>991.0</ele>
      </trkpt>
      <trkpt lat="24.63808" lon="121.091436">
        <ele>990.0</ele>
      </trkpt>
      <trkpt lat="24.637944" lon="121.09129">
        <ele>988.0</ele>
      </trkpt>
      <trkpt lat="24.637884" lon="121.091248">
        <ele>988.0</ele>
      </trkpt>
      <trkpt lat="24.637835" lon="121.091167">
        <ele>988.0</ele>
      </trkpt>
      <trkpt lat="24.637776" lon="121.091133">
        <ele>989.0</ele>
      </trkpt>
      <trkpt lat="24.637719" lon="121.091069">
        <ele>991.0</ele>
      </trkpt>
      <trkpt lat="24.63768" lon="121.091016">
        <ele>992.0</ele>
      </trkpt>
      <trkpt lat="24.637631" lon="121.090894">
        <ele>994.0</ele>
      </trkpt>
      <trkpt lat="24.637358" lon="121.090808">
        <ele>999.0</ele>
      </trkpt>
      <trkpt lat="24.637149" lon="121.090923">
        <ele>997.0</ele>
      </trkpt>
      <trkpt lat="24.636852" lon="121.091002">
        <ele>994.0</ele>
      </trkpt>
      <trkpt lat="24.636705" lon="121.090969">
        <ele>994.0</ele>
      </trkpt>
      <trkpt lat="24.636596" lon="121.090995">
        <ele>990.0</ele>
      </trkpt>
      <trkpt lat="24.636539" lon="121.090985">
        <ele>988.0</ele>
      </trkpt>
      <trkpt lat="24.636445" lon="121.090996">
        <ele>984.0</ele>
      </trkpt>
      <trkpt lat="24.636186" lon="121.090965">
        <ele>975.0</ele>
      </trkpt>
      <trkpt lat="24.6360364" lon="121.0908784">
        <ele>972.0</ele>
      </trkpt>
      <trkpt lat="24.636036" lon="121.090878">
        <ele>972.0</ele>
      </trkpt>
      <trkpt lat="24.635601" lon="121.090583">
        <ele>952.0</ele>
      </trkpt>
      <trkpt lat="24.63542" lon="121.090511">
        <ele>946.0</ele>
      </trkpt>
      <trkpt lat="24.635209" lon="121.090336">
        <ele>941.0</ele>
      </trkpt>
      <trkpt lat="24.635156" lon="121.09025">
        <ele>941.0</ele>
      </trkpt>
      <trkpt lat="24.635105" lon="121.090105">
        <ele>941.0</ele>
      </trkpt>
      <trkpt lat="24.635138" lon="121.089889">
        <ele>940.0</ele>
      </trkpt>
      <trkpt lat="24.63517" lon="121.089834">
        <ele>939.0</ele>
      </trkpt>
      <trkpt lat="24.635327" lon="121.089776">
        <ele>939.0</ele>
      </trkpt>
      <trkpt lat="24.635358" lon="121.089677">
        <ele>937.0</ele>
      </trkpt>
      <trkpt lat="24.635436" lon="121.089517">
        <ele>933.0</ele>
      </trkpt>
      <trkpt lat="24.635436" lon="121.089517">
        <ele>933.0</ele>
      </trkpt>
      <trkpt lat="24.635478" lon="121.089404">
        <ele>931.0</ele>
      </trkpt>
      <trkpt lat="24.635529" lon="121.089334">
        <ele>930.0</ele>
      </trkpt>
      <trkpt lat="24.63557" lon="121.089039">
        <ele>922.0</ele>
      </trkpt>
      <trkpt lat="24.635538" lon="121.088646">
        <ele>911.0</ele>
      </trkpt>
      <trkpt lat="24.635587" lon="121.088594">
        <ele>910.0</ele>
      </trkpt>
      <trkpt lat="24.635631" lon="121.088479">
        <ele>907.0</ele>
      </trkpt>
      <trkpt lat="24.635669" lon="121.088448">
        <ele>907.0</ele>
      </trkpt>
      <trkpt lat="24.635805" lon="121.088426">
        <ele>908.0</ele>
      </trkpt>
      <trkpt lat="24.635813" lon="121.08851">
        <ele>910.0</ele>
      </trkpt>
      <trkpt lat="24.63584" lon="121.088549">
        <ele>912.0</ele>
      </trkpt>
      <trkpt lat="24.635928" lon="121.088598">
        <ele>913.0</ele>
      </trkpt>
      <trkpt lat="24.636025" lon="121.088569">
        <ele>912.0</ele>
      </trkpt>
      <trkpt lat="24.636058" lon="121.088346">
        <ele>904.0</ele>
      </trkpt>
      <trkpt lat="24.636127" lon="121.08823">
        <ele>898.0</ele>
      </trkpt>
      <trkpt lat="24.63628" lon="121.088087">
        <ele>890.0</ele>
      </trkpt>
      <trkpt lat="24.636407" lon="121.087995">
        <ele>884.0</ele>
      </trkpt>
      <trkpt lat="24.636757" lon="121.087844">
        <ele>869.0</ele>
      </trkpt>
      <trkpt lat="24.636758" lon="121.087844">
        <ele>869.0</ele>
      </trkpt>
      <trkpt lat="24.636818" lon="121.087792">
        <ele>863.0</ele>
      </trkpt>
      <trkpt lat="24.636996" lon="121.08772">
        <ele>851.0</ele>
      </trkpt>
      <trkpt lat="24.636948" lon="121.087575">
        <ele>846.0</ele>
      </trkpt>
      <trkpt lat="24.636902" lon="121.087532">
        <ele>846.0</ele>
      </trkpt>
      <trkpt lat="24.6369" lon="121.087451">
        <ele>842.0</ele>
      </trkpt>
      <trkpt lat="24.636773" lon="121.087294">
        <ele>841.0</ele>
      </trkpt>
      <trkpt lat="24.636723" lon="121.087264">
        <ele>842.0</ele>
      </trkpt>
      <trkpt lat="24.636635" lon="121.08713">
        <ele>839.0</ele>
      </trkpt>
      <trkpt lat="24.636547" lon="121.087061">
        <ele>838.0</ele>
      </trkpt>
      <trkpt lat="24.636491" lon="121.086995">
        <ele>836.0</ele>
      </trkpt>
      <trkpt lat="24.636449" lon="121.086913">
        <ele>833.0</ele>
      </trkpt>
      <trkpt lat="24.636416" lon="121.086625">
        <ele>820.0</ele>
      </trkpt>
      <trkpt lat="24.636483" lon="121.086594">
        <ele>817.0</ele>
      </trkpt>
      <trkpt lat="24.636584" lon="121.086605">
        <ele>816.0</ele>
      </trkpt>
      <trkpt lat="24.63665" lon="121.086664">
        <ele>818.0</ele>
      </trkpt>
      <trkpt lat="24.636689" lon="121.086738">
        <ele>820.0</ele>
      </trkpt>
      <trkpt lat="24.63672" lon="121.08685">
        <ele>823.0</ele>
      </trkpt>
      <trkpt lat="24.636775" lon="121.086909">
        <ele>823.0</ele>
      </trkpt>
      <trkpt lat="24.63681" lon="121.086994">
        <ele>825.0</ele>
      </trkpt>
      <trkpt lat="24.63687" lon="121.08703">
        <ele>823.0</ele>
      </trkpt>
      <trkpt lat="24.636961" lon="121.087037">
        <ele>819.0</ele>
      </trkpt>
      <trkpt lat="24.637093" lon="121.08708">
        <ele>814.0</ele>
      </trkpt>
      <trkpt lat="24.6371588" lon="121.0870746">
        <ele>810.0</ele>
      </trkpt>
      <trkpt lat="24.637159" lon="121.087075">
        <ele>810.0</ele>
      </trkpt>
      <trkpt lat="24.637313" lon="121.087062">
        <ele>801.0</ele>
      </trkpt>
      <trkpt lat="24.637489" lon="121.087351">
        <ele>808.0</ele>
      </trkpt>
      <trkpt lat="24.637498" lon="121.087456">
        <ele>814.0</ele>
      </trkpt>
      <trkpt lat="24.637483" lon="121.087638">
        <ele>824.0</ele>
      </trkpt>
      <trkpt lat="24.637562" lon="121.087705">
        <ele>824.0</ele>
      </trkpt>
      <trkpt lat="24.637618" lon="121.087724">
        <ele>823.0</ele>
      </trkpt>
      <trkpt lat="24.63786" lon="121.087724">
        <ele>811.0</ele>
      </trkpt>
      <trkpt lat="24.637904" lon="121.087738">
        <ele>809.0</ele>
      </trkpt>
      <trkpt lat="24.637957" lon="121.087802">
        <ele>810.0</ele>
      </trkpt>
      <trkpt lat="24.638062" lon="121.088057">
        <ele>818.0</ele>
      </trkpt>
      <trkpt lat="24.63813" lon="121.088159">
        <ele>819.0</ele>
      </trkpt>
      <trkpt lat="24.638266" lon="121.088303">
        <ele>819.0</ele>
      </trkpt>
      <trkpt lat="24.63835" lon="121.088434">
        <ele>821.0</ele>
      </trkpt>
      <trkpt lat="24.638581" lon="121.088873">
        <ele>829.0</ele>
      </trkpt>
      <trkpt lat="24.638925" lon="121.089359">
        <ele>828.0</ele>
      </trkpt>
      <trkpt lat="24.638972" lon="121.089494">
        <ele>830.0</ele>
      </trkpt>
      <trkpt lat="24.639141" lon="121.089669">
        <ele>823.0</ele>
      </trkpt>
      <trkpt lat="24.639141" lon="121.089669">
        <ele>823.0</ele>
      </trkpt>
      <trkpt lat="24.639206" lon="121.089737">
        <ele>822.0</ele>
      </trkpt>
      <trkpt lat="24.639409" lon="121.089887">
        <ele>816.0</ele>
      </trkpt>
      <trkpt lat="24.639578" lon="121.090137">
        <ele>820.0</ele>
      </trkpt>
      <trkpt lat="24.63976" lon="121.090229">
        <ele>814.0</ele>
      </trkpt>
      <trkpt lat="24.639892" lon="121.090363">
        <ele>814.0</ele>
      </trkpt>
      <trkpt lat="24.640137" lon="121.090541">
        <ele>810.0</ele>
      </trkpt>
      <trkpt lat="24.640454" lon="121.090596">
        <ele>796.0</ele>
      </trkpt>
      <trkpt lat="24.640493" lon="121.090708">
        <ele>799.0</ele>
      </trkpt>
      <trkpt lat="24.640644" lon="121.090807">
        <ele>795.0</ele>
      </trkpt>
      <trkpt lat="24.640773" lon="121.090816">
        <ele>789.0</ele>
      </trkpt>
      <trkpt lat="24.640831" lon="121.090856">
        <ele>787.0</ele>
      </trkpt>
      <trkpt lat="24.640909" lon="121.090881">
        <ele>784.0</ele>
      </trkpt>
      <trkpt lat="24.640933" lon="121.090941">
        <ele>786.0</ele>
      </trkpt>
      <trkpt lat="24.641171" lon="121.091215">
        <ele>784.0</ele>
      </trkpt>
      <trkpt lat="24.641265" lon="121.091263">
        <ele>780.0</ele>
      </trkpt>
      <trkpt lat="24.641325" lon="121.091318">
        <ele>779.0</ele>
      </trkpt>
      <trkpt lat="24.641378" lon="121.091448">
        <ele>781.0</ele>
      </trkpt>
      <trkpt lat="24.641568" lon="121.091642">
        <ele>776.0</ele>
      </trkpt>
      <trkpt lat="24.64167" lon="121.091835">
        <ele>778.0</ele>
      </trkpt>
      <trkpt lat="24.641751" lon="121.09186">
        <ele>774.0</ele>
      </trkpt>
      <trkpt lat="24.641976" lon="121.092094">
        <ele>772.0</ele>
      </trkpt>
      <trkpt lat="24.642117" lon="121.092175">
        <ele>768.0</ele>
      </trkpt>
      <trkpt lat="24.642117" lon="121.092176">
        <ele>768.0</ele>
      </trkpt>
      <trkpt lat="24.64234" lon="121.092332">
        <ele>761.0</ele>
      </trkpt>
      <trkpt lat="24.642479" lon="121.092291">
        <ele>751.0</ele>
      </trkpt>
      <trkpt lat="24.64284" lon="121.09231">
        <ele>736.0</ele>
      </trkpt>
      <trkpt lat="24.642933" lon="121.09235">
        <ele>734.0</ele>
      </trkpt>
      <trkpt lat="24.642925" lon="121.092526">
        <ele>739.0</ele>
      </trkpt>
      <trkpt lat="24.642935" lon="121.092618">
        <ele>739.0</ele>
      </trkpt>
      <trkpt lat="24.642877" lon="121.09275">
        <ele>744.0</ele>
      </trkpt>
      <trkpt lat="24.642856" lon="121.092839">
        <ele>746.0</ele>
      </trkpt>
      <trkpt lat="24.642744" lon="121.092948">
        <ele>753.0</ele>
      </trkpt>
      <trkpt lat="24.642752" lon="121.093013">
        <ele>753.0</ele>
      </trkpt>
      <trkpt lat="24.642622" lon="121.092988">
        <ele>760.0</ele>
      </trkpt>
      <trkpt lat="24.642626" lon="121.093039">
        <ele>760.0</ele>
      </trkpt>
      <trkpt lat="24.642448" lon="121.09329">
        <ele>775.0</ele>
      </trkpt>
      <trkpt lat="24.642415" lon="121.093357">
        <ele>778.0</ele>
      </trkpt>
      <trkpt lat="24.642408" lon="121.093521">
        <ele>784.0</ele>
      </trkpt>
      <trkpt lat="24.642469" lon="121.093737">
        <ele>786.0</ele>
      </trkpt>
      <trkpt lat="24.642601" lon="121.094011">
        <ele>786.0</ele>
      </trkpt>
      <trkpt lat="24.642827" lon="121.094159">
        <ele>779.0</ele>
      </trkpt>
      <trkpt lat="24.643282" lon="121.094612">
        <ele>777.0</ele>
      </trkpt>
      <trkpt lat="24.643282" lon="121.094612">
        <ele>777.0</ele>
      </trkpt>
      <trkpt lat="24.643367" lon="121.094697">
        <ele>776.0</ele>
      </trkpt>
      <trkpt lat="24.643484" lon="121.094733">
        <ele>772.0</ele>
      </trkpt>
      <trkpt lat="24.6436" lon="121.09491">
        <ele>775.0</ele>
      </trkpt>
      <trkpt lat="24.643801" lon="121.094966">
        <ele>769.0</ele>
      </trkpt>
      <trkpt lat="24.643943" lon="121.095167">
        <ele>772.0</ele>
      </trkpt>
      <trkpt lat="24.644104" lon="121.095379">
        <ele>775.0</ele>
      </trkpt>
      <trkpt lat="24.644224" lon="121.095455">
        <ele>774.0</ele>
      </trkpt>
      <trkpt lat="24.644381" lon="121.095395">
        <ele>766.0</ele>
      </trkpt>
      <trkpt lat="24.644479" lon="121.09556">
        <ele>769.0</ele>
      </trkpt>
      <trkpt lat="24.644705" lon="121.09576">
        <ele>770.0</ele>
      </trkpt>
      <trkpt lat="24.645048" lon="121.095603">
        <ele>750.0</ele>
      </trkpt>
      <trkpt lat="24.645048" lon="121.095602">
        <ele>750.0</ele>
      </trkpt>
      <trkpt lat="24.645259" lon="121.095505">
        <ele>739.0</ele>
      </trkpt>
      <trkpt lat="24.645443" lon="121.095394">
        <ele>732.0</ele>
      </trkpt>
      <trkpt lat="24.645764" lon="121.095063">
        <ele>726.0</ele>
      </trkpt>
      <trkpt lat="24.645859" lon="121.094855">
        <ele>720.0</ele>
      </trkpt>
      <trkpt lat="24.645912" lon="121.09479">
        <ele>715.0</ele>
      </trkpt>
      <trkpt lat="24.645963" lon="121.094676">
        <ele>709.0</ele>
      </trkpt>
      <trkpt lat="24.646005" lon="121.094659">
        <ele>706.0</ele>
      </trkpt>
      <trkpt lat="24.646044" lon="121.094692">
        <ele>705.0</ele>
      </trkpt>
      <trkpt lat="24.646052" lon="121.094723">
        <ele>706.0</ele>
      </trkpt>
      <trkpt lat="24.646021" lon="121.094752">
        <ele>708.0</ele>
      </trkpt>
      <trkpt lat="24.645996" lon="121.094817">
        <ele>711.0</ele>
      </trkpt>
      <trkpt lat="24.646008" lon="121.09489">
        <ele>712.0</ele>
      </trkpt>
      <trkpt lat="24.646056" lon="121.095038">
        <ele>711.0</ele>
      </trkpt>
      <trkpt lat="24.646153" lon="121.095178">
        <ele>703.0</ele>
      </trkpt>
      <trkpt lat="24.64614" lon="121.095328">
        <ele>702.0</ele>
      </trkpt>
      <trkpt lat="24.646164" lon="121.095419">
        <ele>699.0</ele>
      </trkpt>
      <trkpt lat="24.646162" lon="121.09561">
        <ele>697.0</ele>
      </trkpt>
      <trkpt lat="24.646198" lon="121.095758">
        <ele>692.0</ele>
      </trkpt>
      <trkpt lat="24.646084" lon="121.095907">
        <ele>697.0</ele>
      </trkpt>
      <trkpt lat="24.646087" lon="121.096042">
        <ele>694.0</ele>
      </trkpt>
      <trkpt lat="24.646042" lon="121.096156">
        <ele>694.0</ele>
      </trkpt>
      <trkpt lat="24.646104" lon="121.096325">
        <ele>686.0</ele>
      </trkpt>
      <trkpt lat="24.64618" lon="121.096341">
        <ele>681.0</ele>
      </trkpt>
      <trkpt lat="24.646226" lon="121.096327">
        <ele>678.0</ele>
      </trkpt>
      <trkpt lat="24.646255" lon="121.096285">
        <ele>677.0</ele>
      </trkpt>
      <trkpt lat="24.646359" lon="121.096304">
        <ele>671.0</ele>
      </trkpt>
      <trkpt lat="24.646444" lon="121.096245">
        <ele>666.0</ele>
      </trkpt>
      <trkpt lat="24.646454" lon="121.096148">
        <ele>667.0</ele>
      </trkpt>
      <trkpt lat="24.646497" lon="121.096064">
        <ele>666.0</ele>
      </trkpt>
      <trkpt lat="24.646565" lon="121.096">
        <ele>663.0</ele>
      </trkpt>
      <trkpt lat="24.646565" lon="121.096">
        <ele>663.0</ele>
      </trkpt>
      <trkpt lat="24.646659" lon="121.095925">
        <ele>657.0</ele>
      </trkpt>
      <trkpt lat="24.646808" lon="121.09602">
        <ele>643.0</ele>
      </trkpt>
      <trkpt lat="24.646847" lon="121.096026">
        <ele>640.0</ele>
      </trkpt>
      <trkpt lat="24.64686" lon="121.096014">
        <ele>639.0</ele>
      </trkpt>
      <trkpt lat="24.646832" lon="121.095909">
        <ele>642.0</ele>
      </trkpt>
      <trkpt lat="24.646828" lon="121.095756">
        <ele>645.0</ele>
      </trkpt>
      <trkpt lat="24.646802" lon="121.095687">
        <ele>648.0</ele>
      </trkpt>
      <trkpt lat="24.646805" lon="121.095662">
        <ele>648.0</ele>
      </trkpt>
      <trkpt lat="24.64703" lon="121.095612">
        <ele>628.0</ele>
      </trkpt>
      <trkpt lat="24.647127" lon="121.095516">
        <ele>621.0</ele>
      </trkpt>
      <trkpt lat="24.647291" lon="121.095422">
        <ele>607.0</ele>
      </trkpt>
      <trkpt lat="24.647494" lon="121.095071">
        <ele>591.0</ele>
      </trkpt>
      <trkpt lat="24.647533" lon="121.094877">
        <ele>590.0</ele>
      </trkpt>
      <trkpt lat="24.647649" lon="121.094555">
        <ele>585.0</ele>
      </trkpt>
      <trkpt lat="24.647706" lon="121.094277">
        <ele>583.0</ele>
      </trkpt>
      <trkpt lat="24.647675" lon="121.093595">
        <ele>589.0</ele>
      </trkpt>
      <trkpt lat="24.647698" lon="121.093564">
        <ele>589.0</ele>
      </trkpt>
      <trkpt lat="24.647736" lon="121.093555">
        <ele>587.0</ele>
      </trkpt>
      <trkpt lat="24.647875" lon="121.093576">
        <ele>581.0</ele>
      </trkpt>
      <trkpt lat="24.647875" lon="121.093576">
        <ele>581.0</ele>
      </trkpt>
      <trkpt lat="24.647917" lon="121.093583">
        <ele>579.0</ele>
      </trkpt>
      <trkpt lat="24.647942" lon="121.093558">
        <ele>579.0</ele>
      </trkpt>
      <trkpt lat="24.647968" lon="121.093441">
        <ele>578.0</ele>
      </trkpt>
      <trkpt lat="24.648004" lon="121.093414">
        <ele>577.0</ele>
      </trkpt>
      <trkpt lat="24.647987" lon="121.093273">
        <ele>578.0</ele>
      </trkpt>
      <trkpt lat="24.648116" lon="121.092463">
        <ele>574.0</ele>
      </trkpt>
      <trkpt lat="24.6481" lon="121.092436">
        <ele>574.0</ele>
      </trkpt>
      <trkpt lat="24.6481" lon="121.092436">
        <ele>574.0</ele>
      </trkpt>
      <trkpt lat="24.648066" lon="121.092375">
        <ele>574.0</ele>
      </trkpt>
      <trkpt lat="24.648072" lon="121.092313">
        <ele>573.0</ele>
      </trkpt>
      <trkpt lat="24.64815" lon="121.09216">
        <ele>567.0</ele>
      </trkpt>
      <trkpt lat="24.648332" lon="121.091932">
        <ele>558.0</ele>
      </trkpt>
      <trkpt lat="24.648332" lon="121.091867">
        <ele>557.0</ele>
      </trkpt>
      <trkpt lat="24.648296" lon="121.091826">
        <ele>558.0</ele>
      </trkpt>
      <trkpt lat="24.647913" lon="121.091885">
        <ele>568.0</ele>
      </trkpt>
      <trkpt lat="24.647636" lon="121.091834">
        <ele>574.0</ele>
      </trkpt>
      <trkpt lat="24.647511" lon="121.091848">
        <ele>577.0</ele>
      </trkpt>
      <trkpt lat="24.647363" lon="121.091892">
        <ele>581.0</ele>
      </trkpt>
      <trkpt lat="24.647213" lon="121.091981">
        <ele>586.0</ele>
      </trkpt>
      <trkpt lat="24.647007" lon="121.092137">
        <ele>596.0</ele>
      </trkpt>
      <trkpt lat="24.646801" lon="121.092241">
        <ele>605.0</ele>
      </trkpt>
      <trkpt lat="24.646653" lon="121.09228">
        <ele>609.0</ele>
      </trkpt>
      <trkpt lat="24.646529" lon="121.092341">
        <ele>612.0</ele>
      </trkpt>
      <trkpt lat="24.646174" lon="121.092632">
        <ele>621.0</ele>
      </trkpt>
      <trkpt lat="24.646037" lon="121.092717">
        <ele>624.0</ele>
      </trkpt>
      <trkpt lat="24.645717" lon="121.092824">
        <ele>629.0</ele>
      </trkpt>
      <trkpt lat="24.645334" lon="121.092842">
        <ele>639.0</ele>
      </trkpt>
      <trkpt lat="24.645334" lon="121.092842">
        <ele>639.0</ele>
      </trkpt>
      <trkpt lat="24.645031" lon="121.092838">
        <ele>645.0</ele>
      </trkpt>
      <trkpt lat="24.644944" lon="121.092803">
        <ele>648.0</ele>
      </trkpt>
      <trkpt lat="24.644847" lon="121.092647">
        <ele>651.0</ele>
      </trkpt>
      <trkpt lat="24.644829" lon="121.092529">
        <ele>650.0</ele>
      </trkpt>
      <trkpt lat="24.644866" lon="121.092317">
        <ele>652.0</ele>
      </trkpt>
      <trkpt lat="24.645038" lon="121.091824">
        <ele>655.0</ele>
      </trkpt>
      <trkpt lat="24.645147" lon="121.091638">
        <ele>650.0</ele>
      </trkpt>
      <trkpt lat="24.645272" lon="121.091478">
        <ele>642.0</ele>
      </trkpt>
      <trkpt lat="24.645315" lon="121.091397">
        <ele>640.0</ele>
      </trkpt>
      <trkpt lat="24.645326" lon="121.091298">
        <ele>640.0</ele>
      </trkpt>
      <trkpt lat="24.645305" lon="121.091212">
        <ele>643.0</ele>
      </trkpt>
      <trkpt lat="24.644971" lon="121.090713">
        <ele>667.0</ele>
      </trkpt>
      <trkpt lat="24.644948" lon="121.090643">
        <ele>667.0</ele>
      </trkpt>
      <trkpt lat="24.644925" lon="121.090204">
        <ele>665.0</ele>
      </trkpt>
      <trkpt lat="24.644896" lon="121.090115">
        <ele>665.0</ele>
      </trkpt>
      <trkpt lat="24.644844" lon="121.090064">
        <ele>665.0</ele>
      </trkpt>
      <trkpt lat="24.644779" lon="121.090021">
        <ele>666.0</ele>
      </trkpt>
      <trkpt lat="24.644649" lon="121.089986">
        <ele>667.0</ele>
      </trkpt>
      <trkpt lat="24.644148" lon="121.090032">
        <ele>674.0</ele>
      </trkpt>
      <trkpt lat="24.643984" lon="121.09008">
        <ele>675.0</ele>
      </trkpt>
      <trkpt lat="24.643906" lon="121.090145">
        <ele>676.0</ele>
      </trkpt>
      <trkpt lat="24.643624" lon="121.090515">
        <ele>680.0</ele>
      </trkpt>
      <trkpt lat="24.643531" lon="121.090521">
        <ele>680.0</ele>
      </trkpt>
      <trkpt lat="24.643087" lon="121.090106">
        <ele>682.0</ele>
      </trkpt>
      <trkpt lat="24.643087" lon="121.090106">
        <ele>682.0</ele>
      </trkpt>
      <trkpt lat="24.643025" lon="121.090045">
        <ele>682.0</ele>
      </trkpt>
      <trkpt lat="24.642868" lon="121.08992">
        <ele>682.0</ele>
      </trkpt>
      <trkpt lat="24.64282" lon="121.089876">
        <ele>682.0</ele>
      </trkpt>
    </trkseg>
  </trk>
</gpx>
