<?xml version="1.0" encoding="UTF-8"?>
<gpx xmlns="http://www.topografix.com/GPX/1/1" xmlns:xsi="http://www.w3.org/2001/XMLSchema-instance" xsi:schemaLocation="http://www.topografix.com/GPX/1/1 http://www.topografix.com/GPX/1/1/gpx.xsd" version="1.1" creator="Martin Schneider">
  <wpt lat="24.234783" lon="120.954426">
    <ele>1789.0</ele>
    <name>Start</name>
  </wpt>
  <wpt lat="24.278908" lon="121.02641">
    <ele>2588.0</ele>
    <name>End</name>
  </wpt>
  <wpt lat="24.2699491" lon="121.0132">
    <name>1</name>
    <desc>Anmanshan</desc>
  </wpt>
  <wpt lat="24.237545" lon="120.971521">
    <ele>2303.0</ele>
    <name>Summit Shaolaishan</name>
  </wpt>
  <trk>
    <name>39_Shaolaishan</name>
    <trkseg>
      <trkpt lat="24.234783" lon="120.954426">
        <ele>1789.0</ele>
      </trkpt>
      <trkpt lat="24.234783" lon="120.954426">
        <ele>1789.0</ele>
      </trkpt>
      <trkpt lat="24.234864" lon="120.954331">
        <ele>1798.0</ele>
      </trkpt>
      <trkpt lat="24.235041" lon="120.954259">
        <ele>1809.0</ele>
      </trkpt>
      <trkpt lat="24.235162" lon="120.954163">
        <ele>1821.0</ele>
      </trkpt>
      <trkpt lat="24.235256" lon="120.954032">
        <ele>1831.0</ele>
      </trkpt>
      <trkpt lat="24.235443" lon="120.953892">
        <ele>1846.0</ele>
      </trkpt>
      <trkpt lat="24.235616" lon="120.953787">
        <ele>1859.0</ele>
      </trkpt>
      <trkpt lat="24.23571" lon="120.953587">
        <ele>1873.0</ele>
      </trkpt>
      <trkpt lat="24.23571" lon="120.953587">
        <ele>1873.0</ele>
      </trkpt>
      <trkpt lat="24.235795" lon="120.953287">
        <ele>1890.0</ele>
      </trkpt>
      <trkpt lat="24.235853" lon="120.953136">
        <ele>1898.0</ele>
      </trkpt>
      <trkpt lat="24.235911" lon="120.952668">
        <ele>1918.0</ele>
      </trkpt>
      <trkpt lat="24.235809" lon="120.952525">
        <ele>1921.0</ele>
      </trkpt>
      <trkpt lat="24.235664" lon="120.952267">
        <ele>1920.0</ele>
      </trkpt>
      <trkpt lat="24.23552" lon="120.952215">
        <ele>1916.0</ele>
      </trkpt>
      <trkpt lat="24.235484" lon="120.952157">
        <ele>1916.0</ele>
      </trkpt>
      <trkpt lat="24.235455" lon="120.951999">
        <ele>1919.0</ele>
      </trkpt>
      <trkpt lat="24.235502" lon="120.951843">
        <ele>1924.0</ele>
      </trkpt>
      <trkpt lat="24.235502" lon="120.951843">
        <ele>1924.0</ele>
      </trkpt>
      <trkpt lat="24.235503" lon="120.951839">
        <ele>1924.0</ele>
      </trkpt>
      <trkpt lat="24.235888" lon="120.951771">
        <ele>1933.0</ele>
      </trkpt>
      <trkpt lat="24.236197" lon="120.951855">
        <ele>1937.0</ele>
      </trkpt>
      <trkpt lat="24.236306" lon="120.951848">
        <ele>1938.0</ele>
      </trkpt>
      <trkpt lat="24.236306" lon="120.951848">
        <ele>1938.0</ele>
      </trkpt>
      <trkpt lat="24.236345" lon="120.95183">
        <ele>1939.0</ele>
      </trkpt>
      <trkpt lat="24.236376" lon="120.951775">
        <ele>1940.0</ele>
      </trkpt>
      <trkpt lat="24.236574" lon="120.951582">
        <ele>1940.0</ele>
      </trkpt>
      <trkpt lat="24.236637" lon="120.951569">
        <ele>1940.0</ele>
      </trkpt>
      <trkpt lat="24.236695" lon="120.951616">
        <ele>1943.0</ele>
      </trkpt>
      <trkpt lat="24.236764" lon="120.95171">
        <ele>1947.0</ele>
      </trkpt>
      <trkpt lat="24.236863" lon="120.95176">
        <ele>1949.0</ele>
      </trkpt>
      <trkpt lat="24.237068" lon="120.951968">
        <ele>1956.0</ele>
      </trkpt>
      <trkpt lat="24.237087" lon="120.952038">
        <ele>1957.0</ele>
      </trkpt>
      <trkpt lat="24.237087" lon="120.952038">
        <ele>1957.0</ele>
      </trkpt>
      <trkpt lat="24.237115" lon="120.952141">
        <ele>1958.0</ele>
      </trkpt>
      <trkpt lat="24.237161" lon="120.95224">
        <ele>1961.0</ele>
      </trkpt>
      <trkpt lat="24.237241" lon="120.952316">
        <ele>1965.0</ele>
      </trkpt>
      <trkpt lat="24.237326" lon="120.952352">
        <ele>1969.0</ele>
      </trkpt>
      <trkpt lat="24.237579" lon="120.95237">
        <ele>1982.0</ele>
      </trkpt>
      <trkpt lat="24.237699" lon="120.952422">
        <ele>1989.0</ele>
      </trkpt>
      <trkpt lat="24.237778" lon="120.952526">
        <ele>1995.0</ele>
      </trkpt>
      <trkpt lat="24.237805" lon="120.952604">
        <ele>1995.0</ele>
      </trkpt>
      <trkpt lat="24.237805" lon="120.952604">
        <ele>1995.0</ele>
      </trkpt>
      <trkpt lat="24.237825" lon="120.952661">
        <ele>1995.0</ele>
      </trkpt>
      <trkpt lat="24.238036" lon="120.952648">
        <ele>2008.0</ele>
      </trkpt>
      <trkpt lat="24.238427" lon="120.952704">
        <ele>2028.0</ele>
      </trkpt>
      <trkpt lat="24.238427" lon="120.952704">
        <ele>2028.0</ele>
      </trkpt>
      <trkpt lat="24.238563" lon="120.952766">
        <ele>2032.0</ele>
      </trkpt>
      <trkpt lat="24.238602" lon="120.952854">
        <ele>2033.0</ele>
      </trkpt>
      <trkpt lat="24.238859" lon="120.953042">
        <ele>2044.0</ele>
      </trkpt>
      <trkpt lat="24.238934" lon="120.953073">
        <ele>2047.0</ele>
      </trkpt>
      <trkpt lat="24.239038" lon="120.953193">
        <ele>2054.0</ele>
      </trkpt>
      <trkpt lat="24.23905" lon="120.953259">
        <ele>2056.0</ele>
      </trkpt>
      <trkpt lat="24.239205" lon="120.953402">
        <ele>2062.0</ele>
      </trkpt>
      <trkpt lat="24.239205" lon="120.953402">
        <ele>2062.0</ele>
      </trkpt>
      <trkpt lat="24.239294" lon="120.953485">
        <ele>2060.0</ele>
      </trkpt>
      <trkpt lat="24.239335" lon="120.953565">
        <ele>2059.0</ele>
      </trkpt>
      <trkpt lat="24.239524" lon="120.953804">
        <ele>2062.0</ele>
      </trkpt>
      <trkpt lat="24.239707" lon="120.953952">
        <ele>2070.0</ele>
      </trkpt>
      <trkpt lat="24.239906" lon="120.954063">
        <ele>2082.0</ele>
      </trkpt>
      <trkpt lat="24.239975" lon="120.95412">
        <ele>2088.0</ele>
      </trkpt>
      <trkpt lat="24.239975" lon="120.95412">
        <ele>2088.0</ele>
      </trkpt>
      <trkpt lat="24.240189" lon="120.954298">
        <ele>2098.0</ele>
      </trkpt>
      <trkpt lat="24.240253" lon="120.954322">
        <ele>2100.0</ele>
      </trkpt>
      <trkpt lat="24.240307" lon="120.95432">
        <ele>2102.0</ele>
      </trkpt>
      <trkpt lat="24.24041" lon="120.954363">
        <ele>2107.0</ele>
      </trkpt>
      <trkpt lat="24.240614" lon="120.954545">
        <ele>2119.0</ele>
      </trkpt>
      <trkpt lat="24.240694" lon="120.954599">
        <ele>2124.0</ele>
      </trkpt>
      <trkpt lat="24.240745" lon="120.954659">
        <ele>2128.0</ele>
      </trkpt>
      <trkpt lat="24.240745" lon="120.954659">
        <ele>2128.0</ele>
      </trkpt>
      <trkpt lat="24.240919" lon="120.954769">
        <ele>2133.0</ele>
      </trkpt>
      <trkpt lat="24.240959" lon="120.954808">
        <ele>2132.0</ele>
      </trkpt>
      <trkpt lat="24.240967" lon="120.954853">
        <ele>2133.0</ele>
      </trkpt>
      <trkpt lat="24.240993" lon="120.954884">
        <ele>2133.0</ele>
      </trkpt>
      <trkpt lat="24.241046" lon="120.954899">
        <ele>2131.0</ele>
      </trkpt>
      <trkpt lat="24.241118" lon="120.95512">
        <ele>2129.0</ele>
      </trkpt>
      <trkpt lat="24.241103" lon="120.955216">
        <ele>2128.0</ele>
      </trkpt>
      <trkpt lat="24.24111" lon="120.955275">
        <ele>2126.0</ele>
      </trkpt>
      <trkpt lat="24.241151" lon="120.955371">
        <ele>2123.0</ele>
      </trkpt>
      <trkpt lat="24.241156" lon="120.955428">
        <ele>2122.0</ele>
      </trkpt>
      <trkpt lat="24.241124" lon="120.955498">
        <ele>2122.0</ele>
      </trkpt>
      <trkpt lat="24.241115" lon="120.955574">
        <ele>2120.0</ele>
      </trkpt>
      <trkpt lat="24.241182" lon="120.955642">
        <ele>2117.0</ele>
      </trkpt>
      <trkpt lat="24.241246" lon="120.955773">
        <ele>2114.0</ele>
      </trkpt>
      <trkpt lat="24.241287" lon="120.955976">
        <ele>2109.0</ele>
      </trkpt>
      <trkpt lat="24.241313" lon="120.956037">
        <ele>2107.0</ele>
      </trkpt>
      <trkpt lat="24.241304" lon="120.956169">
        <ele>2104.0</ele>
      </trkpt>
      <trkpt lat="24.241342" lon="120.9562">
        <ele>2104.0</ele>
      </trkpt>
      <trkpt lat="24.241351" lon="120.956239">
        <ele>2103.0</ele>
      </trkpt>
      <trkpt lat="24.241347" lon="120.956339">
        <ele>2101.0</ele>
      </trkpt>
      <trkpt lat="24.241363" lon="120.95637">
        <ele>2100.0</ele>
      </trkpt>
      <trkpt lat="24.241369" lon="120.956509">
        <ele>2098.0</ele>
      </trkpt>
      <trkpt lat="24.241442" lon="120.956571">
        <ele>2098.0</ele>
      </trkpt>
      <trkpt lat="24.241476" lon="120.956627">
        <ele>2097.0</ele>
      </trkpt>
      <trkpt lat="24.241528" lon="120.956753">
        <ele>2096.0</ele>
      </trkpt>
      <trkpt lat="24.241533" lon="120.956816">
        <ele>2094.0</ele>
      </trkpt>
      <trkpt lat="24.241521" lon="120.95694">
        <ele>2091.0</ele>
      </trkpt>
      <trkpt lat="24.241446" lon="120.957036">
        <ele>2088.0</ele>
      </trkpt>
      <trkpt lat="24.24147" lon="120.957211">
        <ele>2084.0</ele>
      </trkpt>
      <trkpt lat="24.241461" lon="120.957251">
        <ele>2083.0</ele>
      </trkpt>
      <trkpt lat="24.241382" lon="120.957318">
        <ele>2081.0</ele>
      </trkpt>
      <trkpt lat="24.24138" lon="120.957398">
        <ele>2079.0</ele>
      </trkpt>
      <trkpt lat="24.241397" lon="120.95745">
        <ele>2078.0</ele>
      </trkpt>
      <trkpt lat="24.241382" lon="120.957566">
        <ele>2075.0</ele>
      </trkpt>
      <trkpt lat="24.241389" lon="120.957735">
        <ele>2071.0</ele>
      </trkpt>
      <trkpt lat="24.241362" lon="120.957842">
        <ele>2069.0</ele>
      </trkpt>
      <trkpt lat="24.241387" lon="120.958009">
        <ele>2064.0</ele>
      </trkpt>
      <trkpt lat="24.241367" lon="120.95821">
        <ele>2060.0</ele>
      </trkpt>
      <trkpt lat="24.241386" lon="120.958274">
        <ele>2058.0</ele>
      </trkpt>
      <trkpt lat="24.241365" lon="120.958321">
        <ele>2058.0</ele>
      </trkpt>
      <trkpt lat="24.241291" lon="120.958414">
        <ele>2059.0</ele>
      </trkpt>
      <trkpt lat="24.24126" lon="120.958516">
        <ele>2058.0</ele>
      </trkpt>
      <trkpt lat="24.241272" lon="120.958647">
        <ele>2055.0</ele>
      </trkpt>
      <trkpt lat="24.2412" lon="120.958817">
        <ele>2057.0</ele>
      </trkpt>
      <trkpt lat="24.24092" lon="120.958892">
        <ele>2078.0</ele>
      </trkpt>
      <trkpt lat="24.24089" lon="120.958956">
        <ele>2081.0</ele>
      </trkpt>
      <trkpt lat="24.240895" lon="120.959022">
        <ele>2081.0</ele>
      </trkpt>
      <trkpt lat="24.240752" lon="120.959118">
        <ele>2090.0</ele>
      </trkpt>
      <trkpt lat="24.240644" lon="120.95915">
        <ele>2095.0</ele>
      </trkpt>
      <trkpt lat="24.240486" lon="120.959164">
        <ele>2101.0</ele>
      </trkpt>
      <trkpt lat="24.2401" lon="120.959384">
        <ele>2115.0</ele>
      </trkpt>
      <trkpt lat="24.239929" lon="120.959385">
        <ele>2119.0</ele>
      </trkpt>
      <trkpt lat="24.239834" lon="120.959432">
        <ele>2119.0</ele>
      </trkpt>
      <trkpt lat="24.239793" lon="120.959531">
        <ele>2119.0</ele>
      </trkpt>
      <trkpt lat="24.239762" lon="120.959662">
        <ele>2120.0</ele>
      </trkpt>
      <trkpt lat="24.239541" lon="120.959886">
        <ele>2120.0</ele>
      </trkpt>
      <trkpt lat="24.239498" lon="120.959989">
        <ele>2121.0</ele>
      </trkpt>
      <trkpt lat="24.239547" lon="120.960196">
        <ele>2118.0</ele>
      </trkpt>
      <trkpt lat="24.239542" lon="120.960297">
        <ele>2117.0</ele>
      </trkpt>
      <trkpt lat="24.239531" lon="120.960363">
        <ele>2117.0</ele>
      </trkpt>
      <trkpt lat="24.23948" lon="120.960436">
        <ele>2116.0</ele>
      </trkpt>
      <trkpt lat="24.239453" lon="120.960518">
        <ele>2115.0</ele>
      </trkpt>
      <trkpt lat="24.239428" lon="120.960721">
        <ele>2113.0</ele>
      </trkpt>
      <trkpt lat="24.239465" lon="120.960769">
        <ele>2112.0</ele>
      </trkpt>
      <trkpt lat="24.239548" lon="120.96079">
        <ele>2112.0</ele>
      </trkpt>
      <trkpt lat="24.239703" lon="120.96077">
        <ele>2112.0</ele>
      </trkpt>
      <trkpt lat="24.23979" lon="120.96081">
        <ele>2111.0</ele>
      </trkpt>
      <trkpt lat="24.239992" lon="120.960943">
        <ele>2111.0</ele>
      </trkpt>
      <trkpt lat="24.240109" lon="120.961039">
        <ele>2106.0</ele>
      </trkpt>
      <trkpt lat="24.240242" lon="120.961193">
        <ele>2101.0</ele>
      </trkpt>
      <trkpt lat="24.240297" lon="120.961285">
        <ele>2100.0</ele>
      </trkpt>
      <trkpt lat="24.240313" lon="120.961359">
        <ele>2100.0</ele>
      </trkpt>
      <trkpt lat="24.240272" lon="120.961551">
        <ele>2102.0</ele>
      </trkpt>
      <trkpt lat="24.240301" lon="120.961705">
        <ele>2102.0</ele>
      </trkpt>
      <trkpt lat="24.240374" lon="120.961877">
        <ele>2102.0</ele>
      </trkpt>
      <trkpt lat="24.240422" lon="120.961956">
        <ele>2101.0</ele>
      </trkpt>
      <trkpt lat="24.240411" lon="120.962093">
        <ele>2102.0</ele>
      </trkpt>
      <trkpt lat="24.240496" lon="120.962251">
        <ele>2103.0</ele>
      </trkpt>
      <trkpt lat="24.240481" lon="120.962486">
        <ele>2104.0</ele>
      </trkpt>
      <trkpt lat="24.24039" lon="120.962905">
        <ele>2120.0</ele>
      </trkpt>
      <trkpt lat="24.240462" lon="120.963127">
        <ele>2129.0</ele>
      </trkpt>
      <trkpt lat="24.240484" lon="120.963288">
        <ele>2135.0</ele>
      </trkpt>
      <trkpt lat="24.240447" lon="120.963952">
        <ele>2156.0</ele>
      </trkpt>
      <trkpt lat="24.240425" lon="120.96406">
        <ele>2160.0</ele>
      </trkpt>
      <trkpt lat="24.240461" lon="120.964522">
        <ele>2166.0</ele>
      </trkpt>
      <trkpt lat="24.240366" lon="120.964726">
        <ele>2172.0</ele>
      </trkpt>
      <trkpt lat="24.240268" lon="120.964863">
        <ele>2179.0</ele>
      </trkpt>
      <trkpt lat="24.240254" lon="120.96493">
        <ele>2181.0</ele>
      </trkpt>
      <trkpt lat="24.240165" lon="120.965105">
        <ele>2188.0</ele>
      </trkpt>
      <trkpt lat="24.240024" lon="120.965573">
        <ele>2200.0</ele>
      </trkpt>
      <trkpt lat="24.239986" lon="120.965821">
        <ele>2203.0</ele>
      </trkpt>
      <trkpt lat="24.240008" lon="120.966377">
        <ele>2203.0</ele>
      </trkpt>
      <trkpt lat="24.240001" lon="120.966588">
        <ele>2204.0</ele>
      </trkpt>
      <trkpt lat="24.239957" lon="120.966792">
        <ele>2204.0</ele>
      </trkpt>
      <trkpt lat="24.239892" lon="120.966932">
        <ele>2204.0</ele>
      </trkpt>
      <trkpt lat="24.239724" lon="120.967084">
        <ele>2204.0</ele>
      </trkpt>
      <trkpt lat="24.239552" lon="120.967315">
        <ele>2208.0</ele>
      </trkpt>
      <trkpt lat="24.23952" lon="120.967385">
        <ele>2209.0</ele>
      </trkpt>
      <trkpt lat="24.23952" lon="120.967385">
        <ele>2209.0</ele>
      </trkpt>
      <trkpt lat="24.239484" lon="120.967465">
        <ele>2211.0</ele>
      </trkpt>
      <trkpt lat="24.239406" lon="120.967561">
        <ele>2214.0</ele>
      </trkpt>
      <trkpt lat="24.239097" lon="120.967856">
        <ele>2224.0</ele>
      </trkpt>
      <trkpt lat="24.239016" lon="120.968076">
        <ele>2229.0</ele>
      </trkpt>
      <trkpt lat="24.238852" lon="120.968305">
        <ele>2232.0</ele>
      </trkpt>
      <trkpt lat="24.238803" lon="120.968462">
        <ele>2232.0</ele>
      </trkpt>
      <trkpt lat="24.238829" lon="120.968571">
        <ele>2234.0</ele>
      </trkpt>
      <trkpt lat="24.238892" lon="120.968641">
        <ele>2236.0</ele>
      </trkpt>
      <trkpt lat="24.238892" lon="120.968755">
        <ele>2237.0</ele>
      </trkpt>
      <trkpt lat="24.238805" lon="120.968992">
        <ele>2236.0</ele>
      </trkpt>
      <trkpt lat="24.238799" lon="120.969271">
        <ele>2238.0</ele>
      </trkpt>
      <trkpt lat="24.23868" lon="120.96943">
        <ele>2237.0</ele>
      </trkpt>
      <trkpt lat="24.238598" lon="120.969606">
        <ele>2237.0</ele>
      </trkpt>
      <trkpt lat="24.238619" lon="120.969761">
        <ele>2240.0</ele>
      </trkpt>
      <trkpt lat="24.238615" lon="120.969896">
        <ele>2242.0</ele>
      </trkpt>
      <trkpt lat="24.238555" lon="120.970054">
        <ele>2245.0</ele>
      </trkpt>
      <trkpt lat="24.238564" lon="120.970155">
        <ele>2249.0</ele>
      </trkpt>
      <trkpt lat="24.238615" lon="120.970217">
        <ele>2251.0</ele>
      </trkpt>
      <trkpt lat="24.238617" lon="120.970247">
        <ele>2252.0</ele>
      </trkpt>
      <trkpt lat="24.238473" lon="120.970456">
        <ele>2261.0</ele>
      </trkpt>
      <trkpt lat="24.238481" lon="120.970533">
        <ele>2264.0</ele>
      </trkpt>
      <trkpt lat="24.238582" lon="120.970739">
        <ele>2270.0</ele>
      </trkpt>
      <trkpt lat="24.238649" lon="120.97079">
        <ele>2270.0</ele>
      </trkpt>
      <trkpt lat="24.238697" lon="120.97086">
        <ele>2271.0</ele>
      </trkpt>
      <trkpt lat="24.23871" lon="120.97098">
        <ele>2273.0</ele>
      </trkpt>
      <trkpt lat="24.23846" lon="120.97121">
        <ele>2286.0</ele>
      </trkpt>
      <trkpt lat="24.238336" lon="120.971396">
        <ele>2294.0</ele>
      </trkpt>
      <trkpt lat="24.238188" lon="120.971479">
        <ele>2297.0</ele>
      </trkpt>
      <trkpt lat="24.238042" lon="120.971513">
        <ele>2299.0</ele>
      </trkpt>
      <trkpt lat="24.237917" lon="120.971516">
        <ele>2300.0</ele>
      </trkpt>
      <trkpt lat="24.237839" lon="120.971488">
        <ele>2299.0</ele>
      </trkpt>
      <trkpt lat="24.237667" lon="120.971474">
        <ele>2300.0</ele>
      </trkpt>
      <trkpt lat="24.237612" lon="120.971448">
        <ele>2299.0</ele>
      </trkpt>
      <trkpt lat="24.237556" lon="120.971485">
        <ele>2301.0</ele>
      </trkpt>
      <trkpt lat="24.237545" lon="120.971521">
        <ele>2303.0</ele>
      </trkpt>
      <trkpt lat="24.237545" lon="120.971521">
        <ele>2303.0</ele>
      </trkpt>
      <trkpt lat="24.237505" lon="120.971617">
        <ele>2308.0</ele>
      </trkpt>
      <trkpt lat="24.237436" lon="120.971691">
        <ele>2309.0</ele>
      </trkpt>
      <trkpt lat="24.237224" lon="120.971757">
        <ele>2305.0</ele>
      </trkpt>
      <trkpt lat="24.23714" lon="120.9718">
        <ele>2304.0</ele>
      </trkpt>
      <trkpt lat="24.236941" lon="120.971951">
        <ele>2300.0</ele>
      </trkpt>
      <trkpt lat="24.236861" lon="120.972057">
        <ele>2298.0</ele>
      </trkpt>
      <trkpt lat="24.236703" lon="120.972133">
        <ele>2297.0</ele>
      </trkpt>
      <trkpt lat="24.236568" lon="120.972168">
        <ele>2295.0</ele>
      </trkpt>
      <trkpt lat="24.236563" lon="120.972188">
        <ele>2295.0</ele>
      </trkpt>
      <trkpt lat="24.236618" lon="120.972244">
        <ele>2296.0</ele>
      </trkpt>
      <trkpt lat="24.236856" lon="120.972297">
        <ele>2296.0</ele>
      </trkpt>
      <trkpt lat="24.236879" lon="120.972331">
        <ele>2296.0</ele>
      </trkpt>
      <trkpt lat="24.236872" lon="120.972349">
        <ele>2296.0</ele>
      </trkpt>
      <trkpt lat="24.236586" lon="120.972391">
        <ele>2296.0</ele>
      </trkpt>
      <trkpt lat="24.236514" lon="120.972493">
        <ele>2297.0</ele>
      </trkpt>
      <trkpt lat="24.236497" lon="120.972532">
        <ele>2296.0</ele>
      </trkpt>
      <trkpt lat="24.236507" lon="120.972564">
        <ele>2295.0</ele>
      </trkpt>
      <trkpt lat="24.236641" lon="120.972473">
        <ele>2295.0</ele>
      </trkpt>
      <trkpt lat="24.236713" lon="120.972456">
        <ele>2295.0</ele>
      </trkpt>
      <trkpt lat="24.23689" lon="120.972504">
        <ele>2295.0</ele>
      </trkpt>
      <trkpt lat="24.237049" lon="120.972591">
        <ele>2291.0</ele>
      </trkpt>
      <trkpt lat="24.237225" lon="120.972818">
        <ele>2280.0</ele>
      </trkpt>
      <trkpt lat="24.237336" lon="120.972858">
        <ele>2278.0</ele>
      </trkpt>
      <trkpt lat="24.237539" lon="120.972837">
        <ele>2278.0</ele>
      </trkpt>
      <trkpt lat="24.237528" lon="120.972703">
        <ele>2284.0</ele>
      </trkpt>
      <trkpt lat="24.237625" lon="120.972605">
        <ele>2287.0</ele>
      </trkpt>
      <trkpt lat="24.237688" lon="120.972571">
        <ele>2287.0</ele>
      </trkpt>
      <trkpt lat="24.237864" lon="120.972563">
        <ele>2284.0</ele>
      </trkpt>
      <trkpt lat="24.237968" lon="120.97253">
        <ele>2284.0</ele>
      </trkpt>
      <trkpt lat="24.238165" lon="120.9724">
        <ele>2284.0</ele>
      </trkpt>
      <trkpt lat="24.238217" lon="120.972411">
        <ele>2282.0</ele>
      </trkpt>
      <trkpt lat="24.238272" lon="120.972566">
        <ele>2276.0</ele>
      </trkpt>
      <trkpt lat="24.238386" lon="120.972765">
        <ele>2266.0</ele>
      </trkpt>
      <trkpt lat="24.238483" lon="120.972859">
        <ele>2261.0</ele>
      </trkpt>
      <trkpt lat="24.238564" lon="120.972894">
        <ele>2260.0</ele>
      </trkpt>
      <trkpt lat="24.238568" lon="120.972914">
        <ele>2259.0</ele>
      </trkpt>
      <trkpt lat="24.23855" lon="120.972925">
        <ele>2259.0</ele>
      </trkpt>
      <trkpt lat="24.238529" lon="120.972911">
        <ele>2259.0</ele>
      </trkpt>
      <trkpt lat="24.238391" lon="120.972895">
        <ele>2260.0</ele>
      </trkpt>
      <trkpt lat="24.238265" lon="120.972851">
        <ele>2264.0</ele>
      </trkpt>
      <trkpt lat="24.238171" lon="120.972751">
        <ele>2270.0</ele>
      </trkpt>
      <trkpt lat="24.238133" lon="120.972729">
        <ele>2272.0</ele>
      </trkpt>
      <trkpt lat="24.238108" lon="120.972763">
        <ele>2271.0</ele>
      </trkpt>
      <trkpt lat="24.238135" lon="120.972852">
        <ele>2266.0</ele>
      </trkpt>
      <trkpt lat="24.238272" lon="120.972963">
        <ele>2259.0</ele>
      </trkpt>
      <trkpt lat="24.238338" lon="120.973051">
        <ele>2254.0</ele>
      </trkpt>
      <trkpt lat="24.238679" lon="120.973239">
        <ele>2248.0</ele>
      </trkpt>
      <trkpt lat="24.238838" lon="120.97343">
        <ele>2243.0</ele>
      </trkpt>
      <trkpt lat="24.238988" lon="120.9737">
        <ele>2237.0</ele>
      </trkpt>
      <trkpt lat="24.239012" lon="120.973803">
        <ele>2234.0</ele>
      </trkpt>
      <trkpt lat="24.238932" lon="120.973904">
        <ele>2230.0</ele>
      </trkpt>
      <trkpt lat="24.238984" lon="120.974123">
        <ele>2224.0</ele>
      </trkpt>
      <trkpt lat="24.239019" lon="120.974189">
        <ele>2223.0</ele>
      </trkpt>
      <trkpt lat="24.239062" lon="120.974227">
        <ele>2223.0</ele>
      </trkpt>
      <trkpt lat="24.239283" lon="120.974328">
        <ele>2219.0</ele>
      </trkpt>
      <trkpt lat="24.239424" lon="120.974415">
        <ele>2213.0</ele>
      </trkpt>
      <trkpt lat="24.239549" lon="120.974576">
        <ele>2208.0</ele>
      </trkpt>
      <trkpt lat="24.239678" lon="120.974663">
        <ele>2206.0</ele>
      </trkpt>
      <trkpt lat="24.239722" lon="120.974676">
        <ele>2205.0</ele>
      </trkpt>
      <trkpt lat="24.239755" lon="120.97464">
        <ele>2205.0</ele>
      </trkpt>
      <trkpt lat="24.239815" lon="120.974453">
        <ele>2205.0</ele>
      </trkpt>
      <trkpt lat="24.239894" lon="120.974267">
        <ele>2202.0</ele>
      </trkpt>
      <trkpt lat="24.239928" lon="120.974222">
        <ele>2201.0</ele>
      </trkpt>
      <trkpt lat="24.240099" lon="120.97417">
        <ele>2192.0</ele>
      </trkpt>
      <trkpt lat="24.240131" lon="120.974173">
        <ele>2190.0</ele>
      </trkpt>
      <trkpt lat="24.240137" lon="120.974191">
        <ele>2190.0</ele>
      </trkpt>
      <trkpt lat="24.2401" lon="120.974214">
        <ele>2193.0</ele>
      </trkpt>
      <trkpt lat="24.240037" lon="120.974307">
        <ele>2197.0</ele>
      </trkpt>
      <trkpt lat="24.240029" lon="120.974633">
        <ele>2201.0</ele>
      </trkpt>
      <trkpt lat="24.240046" lon="120.97471">
        <ele>2201.0</ele>
      </trkpt>
      <trkpt lat="24.240239" lon="120.974916">
        <ele>2197.0</ele>
      </trkpt>
      <trkpt lat="24.240239" lon="120.974916">
        <ele>2197.0</ele>
      </trkpt>
      <trkpt lat="24.240325" lon="120.975035">
        <ele>2195.0</ele>
      </trkpt>
      <trkpt lat="24.240393" lon="120.975088">
        <ele>2194.0</ele>
      </trkpt>
      <trkpt lat="24.240468" lon="120.975118">
        <ele>2192.0</ele>
      </trkpt>
      <trkpt lat="24.240528" lon="120.975119">
        <ele>2190.0</ele>
      </trkpt>
      <trkpt lat="24.240531" lon="120.975092">
        <ele>2190.0</ele>
      </trkpt>
      <trkpt lat="24.240426" lon="120.974917">
        <ele>2190.0</ele>
      </trkpt>
      <trkpt lat="24.240412" lon="120.974662">
        <ele>2185.0</ele>
      </trkpt>
      <trkpt lat="24.240428" lon="120.97462">
        <ele>2183.0</ele>
      </trkpt>
      <trkpt lat="24.240442" lon="120.974625">
        <ele>2183.0</ele>
      </trkpt>
      <trkpt lat="24.240469" lon="120.974732">
        <ele>2184.0</ele>
      </trkpt>
      <trkpt lat="24.240524" lon="120.974844">
        <ele>2184.0</ele>
      </trkpt>
      <trkpt lat="24.240622" lon="120.974938">
        <ele>2183.0</ele>
      </trkpt>
      <trkpt lat="24.240726" lon="120.975001">
        <ele>2182.0</ele>
      </trkpt>
      <trkpt lat="24.240758" lon="120.974971">
        <ele>2180.0</ele>
      </trkpt>
      <trkpt lat="24.240724" lon="120.974885">
        <ele>2178.0</ele>
      </trkpt>
      <trkpt lat="24.240703" lon="120.974607">
        <ele>2170.0</ele>
      </trkpt>
      <trkpt lat="24.240743" lon="120.974529">
        <ele>2166.0</ele>
      </trkpt>
      <trkpt lat="24.240786" lon="120.974532">
        <ele>2164.0</ele>
      </trkpt>
      <trkpt lat="24.240885" lon="120.97463">
        <ele>2163.0</ele>
      </trkpt>
      <trkpt lat="24.241118" lon="120.974957">
        <ele>2164.0</ele>
      </trkpt>
      <trkpt lat="24.241278" lon="120.975122">
        <ele>2161.0</ele>
      </trkpt>
      <trkpt lat="24.241308" lon="120.975124">
        <ele>2160.0</ele>
      </trkpt>
      <trkpt lat="24.2414" lon="120.975038">
        <ele>2154.0</ele>
      </trkpt>
      <trkpt lat="24.241535" lon="120.974987">
        <ele>2147.0</ele>
      </trkpt>
      <trkpt lat="24.241584" lon="120.974929">
        <ele>2143.0</ele>
      </trkpt>
      <trkpt lat="24.241616" lon="120.974851">
        <ele>2139.0</ele>
      </trkpt>
      <trkpt lat="24.241597" lon="120.974791">
        <ele>2138.0</ele>
      </trkpt>
      <trkpt lat="24.241488" lon="120.974696">
        <ele>2139.0</ele>
      </trkpt>
      <trkpt lat="24.241445" lon="120.974635">
        <ele>2139.0</ele>
      </trkpt>
      <trkpt lat="24.241456" lon="120.974597">
        <ele>2137.0</ele>
      </trkpt>
      <trkpt lat="24.241491" lon="120.97458">
        <ele>2135.0</ele>
      </trkpt>
      <trkpt lat="24.241682" lon="120.974726">
        <ele>2132.0</ele>
      </trkpt>
      <trkpt lat="24.2417" lon="120.974725">
        <ele>2131.0</ele>
      </trkpt>
      <trkpt lat="24.241707" lon="120.974709">
        <ele>2130.0</ele>
      </trkpt>
      <trkpt lat="24.241697" lon="120.974622">
        <ele>2127.0</ele>
      </trkpt>
      <trkpt lat="24.241583" lon="120.974333">
        <ele>2122.0</ele>
      </trkpt>
      <trkpt lat="24.241619" lon="120.974334">
        <ele>2121.0</ele>
      </trkpt>
      <trkpt lat="24.241734" lon="120.974535">
        <ele>2123.0</ele>
      </trkpt>
      <trkpt lat="24.241821" lon="120.974637">
        <ele>2122.0</ele>
      </trkpt>
      <trkpt lat="24.241853" lon="120.974662">
        <ele>2122.0</ele>
      </trkpt>
      <trkpt lat="24.24188" lon="120.974643">
        <ele>2120.0</ele>
      </trkpt>
      <trkpt lat="24.241885" lon="120.974609">
        <ele>2118.0</ele>
      </trkpt>
      <trkpt lat="24.241863" lon="120.974538">
        <ele>2117.0</ele>
      </trkpt>
      <trkpt lat="24.241901" lon="120.974373">
        <ele>2110.0</ele>
      </trkpt>
      <trkpt lat="24.241854" lon="120.974173">
        <ele>2106.0</ele>
      </trkpt>
      <trkpt lat="24.241759" lon="120.973971">
        <ele>2099.0</ele>
      </trkpt>
      <trkpt lat="24.241635" lon="120.973814">
        <ele>2096.0</ele>
      </trkpt>
      <trkpt lat="24.241627" lon="120.973779">
        <ele>2094.0</ele>
      </trkpt>
      <trkpt lat="24.241639" lon="120.973763">
        <ele>2093.0</ele>
      </trkpt>
      <trkpt lat="24.24174" lon="120.973767">
        <ele>2089.0</ele>
      </trkpt>
      <trkpt lat="24.241978" lon="120.973886">
        <ele>2087.0</ele>
      </trkpt>
      <trkpt lat="24.242126" lon="120.974107">
        <ele>2091.0</ele>
      </trkpt>
      <trkpt lat="24.242287" lon="120.974284">
        <ele>2091.0</ele>
      </trkpt>
      <trkpt lat="24.242366" lon="120.974342">
        <ele>2089.0</ele>
      </trkpt>
      <trkpt lat="24.242522" lon="120.974408">
        <ele>2084.0</ele>
      </trkpt>
      <trkpt lat="24.242553" lon="120.974536">
        <ele>2086.0</ele>
      </trkpt>
      <trkpt lat="24.242742" lon="120.974722">
        <ele>2085.0</ele>
      </trkpt>
      <trkpt lat="24.242795" lon="120.974699">
        <ele>2082.0</ele>
      </trkpt>
      <trkpt lat="24.242873" lon="120.974709">
        <ele>2080.0</ele>
      </trkpt>
      <trkpt lat="24.242921" lon="120.974663">
        <ele>2077.0</ele>
      </trkpt>
      <trkpt lat="24.2429" lon="120.974236">
        <ele>2067.0</ele>
      </trkpt>
      <trkpt lat="24.242848" lon="120.974116">
        <ele>2065.0</ele>
      </trkpt>
      <trkpt lat="24.242858" lon="120.974077">
        <ele>2062.0</ele>
      </trkpt>
      <trkpt lat="24.242918" lon="120.974081">
        <ele>2060.0</ele>
      </trkpt>
      <trkpt lat="24.243059" lon="120.974213">
        <ele>2061.0</ele>
      </trkpt>
      <trkpt lat="24.243167" lon="120.974259">
        <ele>2058.0</ele>
      </trkpt>
      <trkpt lat="24.243262" lon="120.97433">
        <ele>2057.0</ele>
      </trkpt>
      <trkpt lat="24.243351" lon="120.974309">
        <ele>2053.0</ele>
      </trkpt>
      <trkpt lat="24.243581" lon="120.974208">
        <ele>2046.0</ele>
      </trkpt>
      <trkpt lat="24.243769" lon="120.974156">
        <ele>2041.0</ele>
      </trkpt>
      <trkpt lat="24.243944" lon="120.974197">
        <ele>2038.0</ele>
      </trkpt>
      <trkpt lat="24.244121" lon="120.974168">
        <ele>2035.0</ele>
      </trkpt>
      <trkpt lat="24.244155" lon="120.974225">
        <ele>2034.0</ele>
      </trkpt>
      <trkpt lat="24.24422" lon="120.97426">
        <ele>2032.0</ele>
      </trkpt>
      <trkpt lat="24.244282" lon="120.974265">
        <ele>2031.0</ele>
      </trkpt>
      <trkpt lat="24.244297" lon="120.974246">
        <ele>2030.0</ele>
      </trkpt>
      <trkpt lat="24.244297" lon="120.974246">
        <ele>2030.0</ele>
      </trkpt>
      <trkpt lat="24.244312" lon="120.974228">
        <ele>2030.0</ele>
      </trkpt>
      <trkpt lat="24.244289" lon="120.974086">
        <ele>2028.0</ele>
      </trkpt>
      <trkpt lat="24.244416" lon="120.974175">
        <ele>2027.0</ele>
      </trkpt>
      <trkpt lat="24.24442" lon="120.974275">
        <ele>2027.0</ele>
      </trkpt>
      <trkpt lat="24.244569" lon="120.974436">
        <ele>2023.0</ele>
      </trkpt>
      <trkpt lat="24.244644" lon="120.974618">
        <ele>2021.0</ele>
      </trkpt>
      <trkpt lat="24.244757" lon="120.974742">
        <ele>2019.0</ele>
      </trkpt>
      <trkpt lat="24.244829" lon="120.974889">
        <ele>2017.0</ele>
      </trkpt>
      <trkpt lat="24.245154" lon="120.974653">
        <ele>2011.0</ele>
      </trkpt>
      <trkpt lat="24.245289" lon="120.974732">
        <ele>2009.0</ele>
      </trkpt>
      <trkpt lat="24.245372" lon="120.974822">
        <ele>2009.0</ele>
      </trkpt>
      <trkpt lat="24.245323" lon="120.975034">
        <ele>2013.0</ele>
      </trkpt>
      <trkpt lat="24.245118" lon="120.975538">
        <ele>2019.0</ele>
      </trkpt>
      <trkpt lat="24.245097" lon="120.975645">
        <ele>2020.0</ele>
      </trkpt>
      <trkpt lat="24.24509" lon="120.97666">
        <ele>2023.0</ele>
      </trkpt>
      <trkpt lat="24.245138" lon="120.976817">
        <ele>2023.0</ele>
      </trkpt>
      <trkpt lat="24.24521" lon="120.976915">
        <ele>2025.0</ele>
      </trkpt>
      <trkpt lat="24.245477" lon="120.976999">
        <ele>2036.0</ele>
      </trkpt>
      <trkpt lat="24.245547" lon="120.97696">
        <ele>2040.0</ele>
      </trkpt>
      <trkpt lat="24.245562" lon="120.97689">
        <ele>2041.0</ele>
      </trkpt>
      <trkpt lat="24.245532" lon="120.976807">
        <ele>2041.0</ele>
      </trkpt>
      <trkpt lat="24.245462" lon="120.976697">
        <ele>2039.0</ele>
      </trkpt>
      <trkpt lat="24.245474" lon="120.976608">
        <ele>2040.0</ele>
      </trkpt>
      <trkpt lat="24.245642" lon="120.976504">
        <ele>2046.0</ele>
      </trkpt>
      <trkpt lat="24.24599" lon="120.976541">
        <ele>2055.0</ele>
      </trkpt>
      <trkpt lat="24.246174" lon="120.976522">
        <ele>2055.0</ele>
      </trkpt>
      <trkpt lat="24.246217" lon="120.976328">
        <ele>2052.0</ele>
      </trkpt>
      <trkpt lat="24.246267" lon="120.976255">
        <ele>2051.0</ele>
      </trkpt>
      <trkpt lat="24.246333" lon="120.976331">
        <ele>2052.0</ele>
      </trkpt>
      <trkpt lat="24.246563" lon="120.97643">
        <ele>2054.0</ele>
      </trkpt>
      <trkpt lat="24.246664" lon="120.976553">
        <ele>2057.0</ele>
      </trkpt>
      <trkpt lat="24.24682" lon="120.976831">
        <ele>2052.0</ele>
      </trkpt>
      <trkpt lat="24.24682" lon="120.976831">
        <ele>2052.0</ele>
      </trkpt>
      <trkpt lat="24.246872" lon="120.976923">
        <ele>2050.0</ele>
      </trkpt>
      <trkpt lat="24.246797" lon="120.977077">
        <ele>2056.0</ele>
      </trkpt>
      <trkpt lat="24.246843" lon="120.977259">
        <ele>2056.0</ele>
      </trkpt>
      <trkpt lat="24.246963" lon="120.977408">
        <ele>2052.0</ele>
      </trkpt>
      <trkpt lat="24.247109" lon="120.977679">
        <ele>2052.0</ele>
      </trkpt>
      <trkpt lat="24.247345" lon="120.977951">
        <ele>2052.0</ele>
      </trkpt>
      <trkpt lat="24.247429" lon="120.977988">
        <ele>2052.0</ele>
      </trkpt>
      <trkpt lat="24.247469" lon="120.978111">
        <ele>2055.0</ele>
      </trkpt>
      <trkpt lat="24.247413" lon="120.978271">
        <ele>2062.0</ele>
      </trkpt>
      <trkpt lat="24.247345" lon="120.978407">
        <ele>2068.0</ele>
      </trkpt>
      <trkpt lat="24.247255" lon="120.978542">
        <ele>2074.0</ele>
      </trkpt>
      <trkpt lat="24.247205" lon="120.97869">
        <ele>2080.0</ele>
      </trkpt>
      <trkpt lat="24.247244" lon="120.978838">
        <ele>2085.0</ele>
      </trkpt>
      <trkpt lat="24.247345" lon="120.9789">
        <ele>2088.0</ele>
      </trkpt>
      <trkpt lat="24.24748" lon="120.978838">
        <ele>2086.0</ele>
      </trkpt>
      <trkpt lat="24.247615" lon="120.97885">
        <ele>2083.0</ele>
      </trkpt>
      <trkpt lat="24.24771" lon="120.978937">
        <ele>2084.0</ele>
      </trkpt>
      <trkpt lat="24.247637" lon="120.979023">
        <ele>2090.0</ele>
      </trkpt>
      <trkpt lat="24.247542" lon="120.979072">
        <ele>2096.0</ele>
      </trkpt>
      <trkpt lat="24.2473" lon="120.979319">
        <ele>2103.0</ele>
      </trkpt>
      <trkpt lat="24.247278" lon="120.979449">
        <ele>2107.0</ele>
      </trkpt>
      <trkpt lat="24.247485" lon="120.979434">
        <ele>2110.0</ele>
      </trkpt>
      <trkpt lat="24.247679" lon="120.979388">
        <ele>2106.0</ele>
      </trkpt>
      <trkpt lat="24.248006" lon="120.979578">
        <ele>2110.0</ele>
      </trkpt>
      <trkpt lat="24.248227" lon="120.979897">
        <ele>2127.0</ele>
      </trkpt>
      <trkpt lat="24.248539" lon="120.980094">
        <ele>2134.0</ele>
      </trkpt>
      <trkpt lat="24.248649" lon="120.980231">
        <ele>2136.0</ele>
      </trkpt>
      <trkpt lat="24.248649" lon="120.980428">
        <ele>2140.0</ele>
      </trkpt>
      <trkpt lat="24.248725" lon="120.98061">
        <ele>2144.0</ele>
      </trkpt>
      <trkpt lat="24.248686" lon="120.98077">
        <ele>2148.0</ele>
      </trkpt>
      <trkpt lat="24.248698" lon="120.980974">
        <ele>2150.0</ele>
      </trkpt>
      <trkpt lat="24.248802" lon="120.981126">
        <ele>2150.0</ele>
      </trkpt>
      <trkpt lat="24.248968" lon="120.981217">
        <ele>2148.0</ele>
      </trkpt>
      <trkpt lat="24.249168" lon="120.981156">
        <ele>2145.0</ele>
      </trkpt>
      <trkpt lat="24.249404" lon="120.980944">
        <ele>2142.0</ele>
      </trkpt>
      <trkpt lat="24.249505" lon="120.980902">
        <ele>2141.0</ele>
      </trkpt>
      <trkpt lat="24.249505" lon="120.980902">
        <ele>2141.0</ele>
      </trkpt>
      <trkpt lat="24.249549" lon="120.980883">
        <ele>2140.0</ele>
      </trkpt>
      <trkpt lat="24.249701" lon="120.980762">
        <ele>2137.0</ele>
      </trkpt>
      <trkpt lat="24.24984" lon="120.980777">
        <ele>2135.0</ele>
      </trkpt>
      <trkpt lat="24.249964" lon="120.980853">
        <ele>2135.0</ele>
      </trkpt>
      <trkpt lat="24.250033" lon="120.981005">
        <ele>2134.0</ele>
      </trkpt>
      <trkpt lat="24.250123" lon="120.981065">
        <ele>2134.0</ele>
      </trkpt>
      <trkpt lat="24.250234" lon="120.980929">
        <ele>2134.0</ele>
      </trkpt>
      <trkpt lat="24.250338" lon="120.980762">
        <ele>2132.0</ele>
      </trkpt>
      <trkpt lat="24.250559" lon="120.98055">
        <ele>2129.0</ele>
      </trkpt>
      <trkpt lat="24.25069" lon="120.980519">
        <ele>2128.0</ele>
      </trkpt>
      <trkpt lat="24.250863" lon="120.980534">
        <ele>2129.0</ele>
      </trkpt>
      <trkpt lat="24.251071" lon="120.980688">
        <ele>2131.0</ele>
      </trkpt>
      <trkpt lat="24.251166" lon="120.980838">
        <ele>2134.0</ele>
      </trkpt>
      <trkpt lat="24.251276" lon="120.980807">
        <ele>2134.0</ele>
      </trkpt>
      <trkpt lat="24.251712" lon="120.980944">
        <ele>2138.0</ele>
      </trkpt>
      <trkpt lat="24.252024" lon="120.981187">
        <ele>2145.0</ele>
      </trkpt>
      <trkpt lat="24.252439" lon="120.981172">
        <ele>2148.0</ele>
      </trkpt>
      <trkpt lat="24.252644" lon="120.981279">
        <ele>2151.0</ele>
      </trkpt>
      <trkpt lat="24.252969" lon="120.981401">
        <ele>2155.0</ele>
      </trkpt>
      <trkpt lat="24.253184" lon="120.981613">
        <ele>2160.0</ele>
      </trkpt>
      <trkpt lat="24.253357" lon="120.981719">
        <ele>2164.0</ele>
      </trkpt>
      <trkpt lat="24.253488" lon="120.981765">
        <ele>2167.0</ele>
      </trkpt>
      <trkpt lat="24.253657" lon="120.981956">
        <ele>2174.0</ele>
      </trkpt>
      <trkpt lat="24.253705" lon="120.982108">
        <ele>2179.0</ele>
      </trkpt>
      <trkpt lat="24.253677" lon="120.982244">
        <ele>2181.0</ele>
      </trkpt>
      <trkpt lat="24.253726" lon="120.982351">
        <ele>2185.0</ele>
      </trkpt>
      <trkpt lat="24.253843" lon="120.982396">
        <ele>2188.0</ele>
      </trkpt>
      <trkpt lat="24.253982" lon="120.982366">
        <ele>2190.0</ele>
      </trkpt>
      <trkpt lat="24.254245" lon="120.982366">
        <ele>2194.0</ele>
      </trkpt>
      <trkpt lat="24.254348" lon="120.982411">
        <ele>2195.0</ele>
      </trkpt>
      <trkpt lat="24.254487" lon="120.982502">
        <ele>2199.0</ele>
      </trkpt>
      <trkpt lat="24.254677" lon="120.982703">
        <ele>2202.0</ele>
      </trkpt>
      <trkpt lat="24.25496" lon="120.982897">
        <ele>2208.0</ele>
      </trkpt>
      <trkpt lat="24.255134" lon="120.983096">
        <ele>2212.0</ele>
      </trkpt>
      <trkpt lat="24.255287" lon="120.983173">
        <ele>2213.0</ele>
      </trkpt>
      <trkpt lat="24.255398" lon="120.983264">
        <ele>2216.0</ele>
      </trkpt>
      <trkpt lat="24.255592" lon="120.983477">
        <ele>2221.0</ele>
      </trkpt>
      <trkpt lat="24.255675" lon="120.983598">
        <ele>2224.0</ele>
      </trkpt>
      <trkpt lat="24.255806" lon="120.983644">
        <ele>2226.0</ele>
      </trkpt>
      <trkpt lat="24.255882" lon="120.983689">
        <ele>2227.0</ele>
      </trkpt>
      <trkpt lat="24.256332" lon="120.984023">
        <ele>2237.0</ele>
      </trkpt>
      <trkpt lat="24.256409" lon="120.984154">
        <ele>2242.0</ele>
      </trkpt>
      <trkpt lat="24.256409" lon="120.984154">
        <ele>2242.0</ele>
      </trkpt>
      <trkpt lat="24.256484" lon="120.984281">
        <ele>2246.0</ele>
      </trkpt>
      <trkpt lat="24.256609" lon="120.984311">
        <ele>2248.0</ele>
      </trkpt>
      <trkpt lat="24.256678" lon="120.984281">
        <ele>2248.0</ele>
      </trkpt>
      <trkpt lat="24.256768" lon="120.984326">
        <ele>2249.0</ele>
      </trkpt>
      <trkpt lat="24.256731" lon="120.984482">
        <ele>2254.0</ele>
      </trkpt>
      <trkpt lat="24.256676" lon="120.98461">
        <ele>2258.0</ele>
      </trkpt>
      <trkpt lat="24.256669" lon="120.984788">
        <ele>2264.0</ele>
      </trkpt>
      <trkpt lat="24.256711" lon="120.985073">
        <ele>2271.0</ele>
      </trkpt>
      <trkpt lat="24.256767" lon="120.985117">
        <ele>2270.0</ele>
      </trkpt>
      <trkpt lat="24.256748" lon="120.985134">
        <ele>2270.0</ele>
      </trkpt>
      <trkpt lat="24.257055" lon="120.985518">
        <ele>2267.0</ele>
      </trkpt>
      <trkpt lat="24.257146" lon="120.985904">
        <ele>2265.0</ele>
      </trkpt>
      <trkpt lat="24.257263" lon="120.986061">
        <ele>2261.0</ele>
      </trkpt>
      <trkpt lat="24.257642" lon="120.986161">
        <ele>2254.0</ele>
      </trkpt>
      <trkpt lat="24.258019" lon="120.986233">
        <ele>2245.0</ele>
      </trkpt>
      <trkpt lat="24.258332" lon="120.986219">
        <ele>2238.0</ele>
      </trkpt>
      <trkpt lat="24.258698" lon="120.986147">
        <ele>2237.0</ele>
      </trkpt>
      <trkpt lat="24.25895" lon="120.986236">
        <ele>2235.0</ele>
      </trkpt>
      <trkpt lat="24.259154" lon="120.986348">
        <ele>2233.0</ele>
      </trkpt>
      <trkpt lat="24.259259" lon="120.986204">
        <ele>2234.0</ele>
      </trkpt>
      <trkpt lat="24.259493" lon="120.98629">
        <ele>2234.0</ele>
      </trkpt>
      <trkpt lat="24.259584" lon="120.986391">
        <ele>2233.0</ele>
      </trkpt>
      <trkpt lat="24.25985" lon="120.986422">
        <ele>2234.0</ele>
      </trkpt>
      <trkpt lat="24.260065" lon="120.986391">
        <ele>2235.0</ele>
      </trkpt>
      <trkpt lat="24.260373" lon="120.986387">
        <ele>2237.0</ele>
      </trkpt>
      <trkpt lat="24.260667" lon="120.987134">
        <ele>2234.0</ele>
      </trkpt>
      <trkpt lat="24.260766" lon="120.987213">
        <ele>2235.0</ele>
      </trkpt>
      <trkpt lat="24.260766" lon="120.987213">
        <ele>2235.0</ele>
      </trkpt>
      <trkpt lat="24.260902" lon="120.98732">
        <ele>2237.0</ele>
      </trkpt>
      <trkpt lat="24.261193" lon="120.987395">
        <ele>2245.0</ele>
      </trkpt>
      <trkpt lat="24.261267" lon="120.987535">
        <ele>2246.0</ele>
      </trkpt>
      <trkpt lat="24.261535" lon="120.987767">
        <ele>2253.0</ele>
      </trkpt>
      <trkpt lat="24.261528" lon="120.988551">
        <ele>2248.0</ele>
      </trkpt>
      <trkpt lat="24.261658" lon="120.988908">
        <ele>2255.0</ele>
      </trkpt>
      <trkpt lat="24.261946" lon="120.988865">
        <ele>2264.0</ele>
      </trkpt>
      <trkpt lat="24.262226" lon="120.988901">
        <ele>2273.0</ele>
      </trkpt>
      <trkpt lat="24.262191" lon="120.989364">
        <ele>2264.0</ele>
      </trkpt>
      <trkpt lat="24.262298" lon="120.989495">
        <ele>2263.0</ele>
      </trkpt>
      <trkpt lat="24.262532" lon="120.989524">
        <ele>2267.0</ele>
      </trkpt>
      <trkpt lat="24.262767" lon="120.989495">
        <ele>2274.0</ele>
      </trkpt>
      <trkpt lat="24.263276" lon="120.989466">
        <ele>2287.0</ele>
      </trkpt>
      <trkpt lat="24.263432" lon="120.989524">
        <ele>2291.0</ele>
      </trkpt>
      <trkpt lat="24.263615" lon="120.989652">
        <ele>2296.0</ele>
      </trkpt>
      <trkpt lat="24.263615" lon="120.989981">
        <ele>2293.0</ele>
      </trkpt>
      <trkpt lat="24.263562" lon="120.990353">
        <ele>2287.0</ele>
      </trkpt>
      <trkpt lat="24.263576" lon="120.990611">
        <ele>2286.0</ele>
      </trkpt>
      <trkpt lat="24.26385" lon="120.99104">
        <ele>2299.0</ele>
      </trkpt>
      <trkpt lat="24.263994" lon="120.991167">
        <ele>2307.0</ele>
      </trkpt>
      <trkpt lat="24.264033" lon="120.991453">
        <ele>2306.0</ele>
      </trkpt>
      <trkpt lat="24.264046" lon="120.991796">
        <ele>2302.0</ele>
      </trkpt>
      <trkpt lat="24.263981" lon="120.992283">
        <ele>2290.0</ele>
      </trkpt>
      <trkpt lat="24.264294" lon="120.993013">
        <ele>2284.0</ele>
      </trkpt>
      <trkpt lat="24.26449" lon="120.993227">
        <ele>2284.0</ele>
      </trkpt>
      <trkpt lat="24.264698" lon="120.993299">
        <ele>2287.0</ele>
      </trkpt>
      <trkpt lat="24.264828" lon="120.993428">
        <ele>2286.0</ele>
      </trkpt>
      <trkpt lat="24.265049" lon="120.993586">
        <ele>2286.0</ele>
      </trkpt>
      <trkpt lat="24.265115" lon="120.993886">
        <ele>2279.0</ele>
      </trkpt>
      <trkpt lat="24.26544" lon="120.99473">
        <ele>2256.0</ele>
      </trkpt>
      <trkpt lat="24.266367" lon="120.994315">
        <ele>2281.0</ele>
      </trkpt>
      <trkpt lat="24.266614" lon="120.994315">
        <ele>2283.0</ele>
      </trkpt>
      <trkpt lat="24.266849" lon="120.994459">
        <ele>2283.0</ele>
      </trkpt>
      <trkpt lat="24.267019" lon="120.994631">
        <ele>2281.0</ele>
      </trkpt>
      <trkpt lat="24.267475" lon="120.994902">
        <ele>2291.0</ele>
      </trkpt>
      <trkpt lat="24.267607" lon="120.995095">
        <ele>2289.0</ele>
      </trkpt>
      <trkpt lat="24.267607" lon="120.995095">
        <ele>2289.0</ele>
      </trkpt>
      <trkpt lat="24.26767" lon="120.995189">
        <ele>2288.0</ele>
      </trkpt>
      <trkpt lat="24.267801" lon="120.995532">
        <ele>2283.0</ele>
      </trkpt>
      <trkpt lat="24.26788" lon="120.995803">
        <ele>2280.0</ele>
      </trkpt>
      <trkpt lat="24.268075" lon="120.995961">
        <ele>2285.0</ele>
      </trkpt>
      <trkpt lat="24.268455" lon="120.995948">
        <ele>2292.0</ele>
      </trkpt>
      <trkpt lat="24.268542" lon="120.996086">
        <ele>2290.0</ele>
      </trkpt>
      <trkpt lat="24.26875" lon="120.996586">
        <ele>2294.0</ele>
      </trkpt>
      <trkpt lat="24.268961" lon="120.99668">
        <ele>2297.0</ele>
      </trkpt>
      <trkpt lat="24.269194" lon="120.996844">
        <ele>2302.0</ele>
      </trkpt>
      <trkpt lat="24.269217" lon="120.996918">
        <ele>2304.0</ele>
      </trkpt>
      <trkpt lat="24.269311" lon="120.997223">
        <ele>2312.0</ele>
      </trkpt>
      <trkpt lat="24.269207" lon="120.997481">
        <ele>2321.0</ele>
      </trkpt>
      <trkpt lat="24.269109" lon="120.997773">
        <ele>2323.0</ele>
      </trkpt>
      <trkpt lat="24.269129" lon="120.998174">
        <ele>2329.0</ele>
      </trkpt>
      <trkpt lat="24.269174" lon="120.998439">
        <ele>2332.0</ele>
      </trkpt>
      <trkpt lat="24.269398" lon="120.998511">
        <ele>2335.0</ele>
      </trkpt>
      <trkpt lat="24.269833" lon="120.998524">
        <ele>2343.0</ele>
      </trkpt>
      <trkpt lat="24.270498" lon="120.998711">
        <ele>2351.0</ele>
      </trkpt>
      <trkpt lat="24.270904" lon="120.999148">
        <ele>2362.0</ele>
      </trkpt>
      <trkpt lat="24.271234" lon="120.99939">
        <ele>2363.0</ele>
      </trkpt>
      <trkpt lat="24.271339" lon="120.999648">
        <ele>2371.0</ele>
      </trkpt>
      <trkpt lat="24.27145" lon="121.000191">
        <ele>2388.0</ele>
      </trkpt>
      <trkpt lat="24.27177" lon="121.00032">
        <ele>2393.0</ele>
      </trkpt>
      <trkpt lat="24.271978" lon="121.00047">
        <ele>2394.0</ele>
      </trkpt>
      <trkpt lat="24.272298" lon="121.000921">
        <ele>2396.0</ele>
      </trkpt>
      <trkpt lat="24.272317" lon="121.001049">
        <ele>2392.0</ele>
      </trkpt>
      <trkpt lat="24.272115" lon="121.0012">
        <ele>2393.0</ele>
      </trkpt>
      <trkpt lat="24.271874" lon="121.001228">
        <ele>2399.0</ele>
      </trkpt>
      <trkpt lat="24.271619" lon="121.001221">
        <ele>2403.0</ele>
      </trkpt>
      <trkpt lat="24.271359" lon="121.001235">
        <ele>2399.0</ele>
      </trkpt>
      <trkpt lat="24.271137" lon="121.001321">
        <ele>2396.0</ele>
      </trkpt>
      <trkpt lat="24.270948" lon="121.001486">
        <ele>2397.0</ele>
      </trkpt>
      <trkpt lat="24.270713" lon="121.001614">
        <ele>2395.0</ele>
      </trkpt>
      <trkpt lat="24.270257" lon="121.001922">
        <ele>2388.0</ele>
      </trkpt>
      <trkpt lat="24.269978" lon="121.002059">
        <ele>2388.0</ele>
      </trkpt>
      <trkpt lat="24.26982" lon="121.002287">
        <ele>2388.0</ele>
      </trkpt>
      <trkpt lat="24.269859" lon="121.002458">
        <ele>2395.0</ele>
      </trkpt>
      <trkpt lat="24.269839" lon="121.002644">
        <ele>2397.0</ele>
      </trkpt>
      <trkpt lat="24.269657" lon="121.003045">
        <ele>2397.0</ele>
      </trkpt>
      <trkpt lat="24.269918" lon="121.003209">
        <ele>2406.0</ele>
      </trkpt>
      <trkpt lat="24.27005" lon="121.003418">
        <ele>2409.0</ele>
      </trkpt>
      <trkpt lat="24.270115" lon="121.003697">
        <ele>2409.0</ele>
      </trkpt>
      <trkpt lat="24.2701" lon="121.003917">
        <ele>2412.0</ele>
      </trkpt>
      <trkpt lat="24.270056" lon="121.00401">
        <ele>2416.0</ele>
      </trkpt>
      <trkpt lat="24.269996" lon="121.004354">
        <ele>2430.0</ele>
      </trkpt>
      <trkpt lat="24.269918" lon="121.004526">
        <ele>2435.0</ele>
      </trkpt>
      <trkpt lat="24.269689" lon="121.00469">
        <ele>2434.0</ele>
      </trkpt>
      <trkpt lat="24.269826" lon="121.004819">
        <ele>2446.0</ele>
      </trkpt>
      <trkpt lat="24.270022" lon="121.004726">
        <ele>2446.0</ele>
      </trkpt>
      <trkpt lat="24.2703" lon="121.004563">
        <ele>2421.0</ele>
      </trkpt>
      <trkpt lat="24.270394" lon="121.004755">
        <ele>2422.0</ele>
      </trkpt>
      <trkpt lat="24.270379" lon="121.004885">
        <ele>2429.0</ele>
      </trkpt>
      <trkpt lat="24.270317" lon="121.004938">
        <ele>2435.0</ele>
      </trkpt>
      <trkpt lat="24.270221" lon="121.005065">
        <ele>2448.0</ele>
      </trkpt>
      <trkpt lat="24.269967" lon="121.005163">
        <ele>2468.0</ele>
      </trkpt>
      <trkpt lat="24.269923" lon="121.005406">
        <ele>2478.0</ele>
      </trkpt>
      <trkpt lat="24.269749" lon="121.005667">
        <ele>2486.0</ele>
      </trkpt>
      <trkpt lat="24.269752" lon="121.005853">
        <ele>2495.0</ele>
      </trkpt>
      <trkpt lat="24.270104" lon="121.00575">
        <ele>2489.0</ele>
      </trkpt>
      <trkpt lat="24.270187" lon="121.005814">
        <ele>2484.0</ele>
      </trkpt>
      <trkpt lat="24.27021" lon="121.005891">
        <ele>2483.0</ele>
      </trkpt>
      <trkpt lat="24.269931" lon="121.006057">
        <ele>2502.0</ele>
      </trkpt>
      <trkpt lat="24.269789" lon="121.006257">
        <ele>2501.0</ele>
      </trkpt>
      <trkpt lat="24.269645" lon="121.006501">
        <ele>2502.0</ele>
      </trkpt>
      <trkpt lat="24.269683" lon="121.007208">
        <ele>2499.0</ele>
      </trkpt>
      <trkpt lat="24.269807" lon="121.007551">
        <ele>2498.0</ele>
      </trkpt>
      <trkpt lat="24.269853" lon="121.007802">
        <ele>2499.0</ele>
      </trkpt>
      <trkpt lat="24.2698" lon="121.008088">
        <ele>2499.0</ele>
      </trkpt>
      <trkpt lat="24.269807" lon="121.008374">
        <ele>2501.0</ele>
      </trkpt>
      <trkpt lat="24.269783" lon="121.008814">
        <ele>2512.0</ele>
      </trkpt>
      <trkpt lat="24.269666" lon="121.009057">
        <ele>2515.0</ele>
      </trkpt>
      <trkpt lat="24.269601" lon="121.009322">
        <ele>2521.0</ele>
      </trkpt>
      <trkpt lat="24.269542" lon="121.009465">
        <ele>2524.0</ele>
      </trkpt>
      <trkpt lat="24.26949" lon="121.009787">
        <ele>2533.0</ele>
      </trkpt>
      <trkpt lat="24.269425" lon="121.010044">
        <ele>2541.0</ele>
      </trkpt>
      <trkpt lat="24.269405" lon="121.010244">
        <ele>2551.0</ele>
      </trkpt>
      <trkpt lat="24.269288" lon="121.010437">
        <ele>2560.0</ele>
      </trkpt>
      <trkpt lat="24.269138" lon="121.010538">
        <ele>2565.0</ele>
      </trkpt>
      <trkpt lat="24.269007" lon="121.010666">
        <ele>2570.0</ele>
      </trkpt>
      <trkpt lat="24.269014" lon="121.010795">
        <ele>2577.0</ele>
      </trkpt>
      <trkpt lat="24.269105" lon="121.010845">
        <ele>2582.0</ele>
      </trkpt>
      <trkpt lat="24.269242" lon="121.010788">
        <ele>2580.0</ele>
      </trkpt>
      <trkpt lat="24.269483" lon="121.010802">
        <ele>2577.0</ele>
      </trkpt>
      <trkpt lat="24.269609" lon="121.010756">
        <ele>2574.0</ele>
      </trkpt>
      <trkpt lat="24.269764" lon="121.010763">
        <ele>2573.0</ele>
      </trkpt>
      <trkpt lat="24.269746" lon="121.011044">
        <ele>2587.0</ele>
      </trkpt>
      <trkpt lat="24.26962" lon="121.011221">
        <ele>2598.0</ele>
      </trkpt>
      <trkpt lat="24.26962" lon="121.011221">
        <ele>2598.0</ele>
      </trkpt>
      <trkpt lat="24.269548" lon="121.011321">
        <ele>2604.0</ele>
      </trkpt>
      <trkpt lat="24.26946" lon="121.011492">
        <ele>2614.0</ele>
      </trkpt>
      <trkpt lat="24.269467" lon="121.011717">
        <ele>2624.0</ele>
      </trkpt>
      <trkpt lat="24.269568" lon="121.011862">
        <ele>2629.0</ele>
      </trkpt>
      <trkpt lat="24.269601" lon="121.01202">
        <ele>2634.0</ele>
      </trkpt>
      <trkpt lat="24.269496" lon="121.012147">
        <ele>2637.0</ele>
      </trkpt>
      <trkpt lat="24.269418" lon="121.01219">
        <ele>2638.0</ele>
      </trkpt>
      <trkpt lat="24.269307" lon="121.01229">
        <ele>2640.0</ele>
      </trkpt>
      <trkpt lat="24.269254" lon="121.012312">
        <ele>2641.0</ele>
      </trkpt>
      <trkpt lat="24.269037" lon="121.012544">
        <ele>2645.0</ele>
      </trkpt>
      <trkpt lat="24.268953" lon="121.012668">
        <ele>2645.0</ele>
      </trkpt>
      <trkpt lat="24.268983" lon="121.012828">
        <ele>2646.0</ele>
      </trkpt>
      <trkpt lat="24.268971" lon="121.012972">
        <ele>2646.0</ele>
      </trkpt>
      <trkpt lat="24.268992" lon="121.013037">
        <ele>2647.0</ele>
      </trkpt>
      <trkpt lat="24.269162" lon="121.013166">
        <ele>2651.0</ele>
      </trkpt>
      <trkpt lat="24.269358" lon="121.013353">
        <ele>2655.0</ele>
      </trkpt>
      <trkpt lat="24.269526" lon="121.013383">
        <ele>2657.0</ele>
      </trkpt>
      <trkpt lat="24.269586" lon="121.013441">
        <ele>2657.0</ele>
      </trkpt>
      <trkpt lat="24.269771" lon="121.013711">
        <ele>2656.0</ele>
      </trkpt>
      <trkpt lat="24.269848" lon="121.013792">
        <ele>2656.0</ele>
      </trkpt>
      <trkpt lat="24.269916" lon="121.013846">
        <ele>2657.0</ele>
      </trkpt>
      <trkpt lat="24.270054" lon="121.013883">
        <ele>2657.0</ele>
      </trkpt>
      <trkpt lat="24.27021" lon="121.013948">
        <ele>2655.0</ele>
      </trkpt>
      <trkpt lat="24.270319" lon="121.014067">
        <ele>2653.0</ele>
      </trkpt>
      <trkpt lat="24.2704" lon="121.014291">
        <ele>2651.0</ele>
      </trkpt>
      <trkpt lat="24.270477" lon="121.014455">
        <ele>2649.0</ele>
      </trkpt>
      <trkpt lat="24.270473" lon="121.014559">
        <ele>2648.0</ele>
      </trkpt>
      <trkpt lat="24.270355" lon="121.014711">
        <ele>2649.0</ele>
      </trkpt>
      <trkpt lat="24.270274" lon="121.014774">
        <ele>2650.0</ele>
      </trkpt>
      <trkpt lat="24.270177" lon="121.014963">
        <ele>2651.0</ele>
      </trkpt>
      <trkpt lat="24.2701" lon="121.015219">
        <ele>2650.0</ele>
      </trkpt>
      <trkpt lat="24.270086" lon="121.015307">
        <ele>2650.0</ele>
      </trkpt>
      <trkpt lat="24.270112" lon="121.015522">
        <ele>2646.0</ele>
      </trkpt>
      <trkpt lat="24.270218" lon="121.015807">
        <ele>2638.0</ele>
      </trkpt>
      <trkpt lat="24.270295" lon="121.016233">
        <ele>2632.0</ele>
      </trkpt>
      <trkpt lat="24.27034" lon="121.016339">
        <ele>2630.0</ele>
      </trkpt>
      <trkpt lat="24.270482" lon="121.016514">
        <ele>2624.0</ele>
      </trkpt>
      <trkpt lat="24.270579" lon="121.01672">
        <ele>2620.0</ele>
      </trkpt>
      <trkpt lat="24.27063" lon="121.016981">
        <ele>2621.0</ele>
      </trkpt>
      <trkpt lat="24.270734" lon="121.017293">
        <ele>2625.0</ele>
      </trkpt>
      <trkpt lat="24.270771" lon="121.017358">
        <ele>2626.0</ele>
      </trkpt>
      <trkpt lat="24.270827" lon="121.017374">
        <ele>2627.0</ele>
      </trkpt>
      <trkpt lat="24.270957" lon="121.017371">
        <ele>2619.0</ele>
      </trkpt>
      <trkpt lat="24.270992" lon="121.017407">
        <ele>2618.0</ele>
      </trkpt>
      <trkpt lat="24.271034" lon="121.017664">
        <ele>2619.0</ele>
      </trkpt>
      <trkpt lat="24.271087" lon="121.017784">
        <ele>2617.0</ele>
      </trkpt>
      <trkpt lat="24.271202" lon="121.017937">
        <ele>2613.0</ele>
      </trkpt>
      <trkpt lat="24.271216" lon="121.017978">
        <ele>2613.0</ele>
      </trkpt>
      <trkpt lat="24.271211" lon="121.018066">
        <ele>2614.0</ele>
      </trkpt>
      <trkpt lat="24.271168" lon="121.018531">
        <ele>2621.0</ele>
      </trkpt>
      <trkpt lat="24.271179" lon="121.018578">
        <ele>2621.0</ele>
      </trkpt>
      <trkpt lat="24.27143" lon="121.018743">
        <ele>2616.0</ele>
      </trkpt>
      <trkpt lat="24.271489" lon="121.018837">
        <ele>2616.0</ele>
      </trkpt>
      <trkpt lat="24.271504" lon="121.018903">
        <ele>2617.0</ele>
      </trkpt>
      <trkpt lat="24.27148" lon="121.019273">
        <ele>2627.0</ele>
      </trkpt>
      <trkpt lat="24.271499" lon="121.019341">
        <ele>2629.0</ele>
      </trkpt>
      <trkpt lat="24.271725" lon="121.019579">
        <ele>2632.0</ele>
      </trkpt>
      <trkpt lat="24.271876" lon="121.019691">
        <ele>2625.0</ele>
      </trkpt>
      <trkpt lat="24.272277" lon="121.019878">
        <ele>2604.0</ele>
      </trkpt>
      <trkpt lat="24.272466" lon="121.020101">
        <ele>2602.0</ele>
      </trkpt>
      <trkpt lat="24.272506" lon="121.02018">
        <ele>2604.0</ele>
      </trkpt>
      <trkpt lat="24.272498" lon="121.020409">
        <ele>2618.0</ele>
      </trkpt>
      <trkpt lat="24.272519" lon="121.020488">
        <ele>2621.0</ele>
      </trkpt>
      <trkpt lat="24.272582" lon="121.020573">
        <ele>2623.0</ele>
      </trkpt>
      <trkpt lat="24.272686" lon="121.020631">
        <ele>2621.0</ele>
      </trkpt>
      <trkpt lat="24.273445" lon="121.020865">
        <ele>2601.0</ele>
      </trkpt>
      <trkpt lat="24.273522" lon="121.020837">
        <ele>2598.0</ele>
      </trkpt>
      <trkpt lat="24.273947" lon="121.020535">
        <ele>2572.0</ele>
      </trkpt>
      <trkpt lat="24.274008" lon="121.020509">
        <ele>2569.0</ele>
      </trkpt>
      <trkpt lat="24.274058" lon="121.020509">
        <ele>2568.0</ele>
      </trkpt>
      <trkpt lat="24.274104" lon="121.020529">
        <ele>2569.0</ele>
      </trkpt>
      <trkpt lat="24.274141" lon="121.020568">
        <ele>2570.0</ele>
      </trkpt>
      <trkpt lat="24.274247" lon="121.020823">
        <ele>2582.0</ele>
      </trkpt>
      <trkpt lat="24.274363" lon="121.020908">
        <ele>2584.0</ele>
      </trkpt>
      <trkpt lat="24.274669" lon="121.021057">
        <ele>2584.0</ele>
      </trkpt>
      <trkpt lat="24.275036" lon="121.021262">
        <ele>2585.0</ele>
      </trkpt>
      <trkpt lat="24.27517" lon="121.021311">
        <ele>2582.0</ele>
      </trkpt>
      <trkpt lat="24.275457" lon="121.021348">
        <ele>2573.0</ele>
      </trkpt>
      <trkpt lat="24.275885" lon="121.021433">
        <ele>2560.0</ele>
      </trkpt>
      <trkpt lat="24.276011" lon="121.021539">
        <ele>2558.0</ele>
      </trkpt>
      <trkpt lat="24.276122" lon="121.021693">
        <ele>2560.0</ele>
      </trkpt>
      <trkpt lat="24.276165" lon="121.022096">
        <ele>2578.0</ele>
      </trkpt>
      <trkpt lat="24.276193" lon="121.022245">
        <ele>2584.0</ele>
      </trkpt>
      <trkpt lat="24.276224" lon="121.022343">
        <ele>2587.0</ele>
      </trkpt>
      <trkpt lat="24.276266" lon="121.022395">
        <ele>2587.0</ele>
      </trkpt>
      <trkpt lat="24.276464" lon="121.022506">
        <ele>2582.0</ele>
      </trkpt>
      <trkpt lat="24.27664" lon="121.022571">
        <ele>2576.0</ele>
      </trkpt>
      <trkpt lat="24.276961" lon="121.022659">
        <ele>2567.0</ele>
      </trkpt>
      <trkpt lat="24.27715" lon="121.022793">
        <ele>2565.0</ele>
      </trkpt>
      <trkpt lat="24.277192" lon="121.022898">
        <ele>2568.0</ele>
      </trkpt>
      <trkpt lat="24.277199" lon="121.022995">
        <ele>2572.0</ele>
      </trkpt>
      <trkpt lat="24.277042" lon="121.023438">
        <ele>2598.0</ele>
      </trkpt>
      <trkpt lat="24.27704" lon="121.023598">
        <ele>2605.0</ele>
      </trkpt>
      <trkpt lat="24.277062" lon="121.023674">
        <ele>2608.0</ele>
      </trkpt>
      <trkpt lat="24.277117" lon="121.023761">
        <ele>2610.0</ele>
      </trkpt>
      <trkpt lat="24.27721" lon="121.02382">
        <ele>2609.0</ele>
      </trkpt>
      <trkpt lat="24.277528" lon="121.023898">
        <ele>2602.0</ele>
      </trkpt>
      <trkpt lat="24.277787" lon="121.024218">
        <ele>2605.0</ele>
      </trkpt>
      <trkpt lat="24.277868" lon="121.024265">
        <ele>2603.0</ele>
      </trkpt>
      <trkpt lat="24.278112" lon="121.024318">
        <ele>2593.0</ele>
      </trkpt>
      <trkpt lat="24.27821" lon="121.024389">
        <ele>2590.0</ele>
      </trkpt>
      <trkpt lat="24.278565" lon="121.024961">
        <ele>2591.0</ele>
      </trkpt>
      <trkpt lat="24.278731" lon="121.025191">
        <ele>2588.0</ele>
      </trkpt>
      <trkpt lat="24.278766" lon="121.025271">
        <ele>2587.0</ele>
      </trkpt>
      <trkpt lat="24.278772" lon="121.025351">
        <ele>2588.0</ele>
      </trkpt>
      <trkpt lat="24.278772" lon="121.025351">
        <ele>2588.0</ele>
      </trkpt>
      <trkpt lat="24.278754" lon="121.025598">
        <ele>2591.0</ele>
      </trkpt>
      <trkpt lat="24.278763" lon="121.025933">
        <ele>2593.0</ele>
      </trkpt>
      <trkpt lat="24.278817" lon="121.026027">
        <ele>2591.0</ele>
      </trkpt>
      <trkpt lat="24.27889" lon="121.026214">
        <ele>2588.0</ele>
      </trkpt>
      <trkpt lat="24.278908" lon="121.02641">
        <ele>2588.0</ele>
      </trkpt>
    </trkseg>
  </trk>
</gpx>
