<?xml version="1.0" encoding="UTF-8"?>
<gpx xmlns="http://www.topografix.com/GPX/1/1" xmlns:xsi="http://www.w3.org/2001/XMLSchema-instance" xsi:schemaLocation="http://www.topografix.com/GPX/1/1 http://www.topografix.com/GPX/1/1/gpx.xsd" version="1.1" creator="Martin Schneider">
  <wpt lat="24.117513" lon="120.796565">
    <ele>276.0</ele>
    <name>Start</name>
  </wpt>
  <wpt lat="24.11756" lon="120.796347">
    <ele>277.0</ele>
    <name>End</name>
  </wpt>
  <wpt lat="24.138236" lon="120.814403">
    <name>1</name>
    <desc>Trailhead</desc>
  </wpt>
  <wpt lat="24.127001" lon="120.812134">
    <name>2</name>
    <desc>Trailhead</desc>
  </wpt>
  <wpt lat="24.13799" lon="120.817804">
    <ele>948.0</ele>
    <name>Summit Anyingshan</name>
  </wpt>
  <trk>
    <name>44_Anyingshan</name>
    <trkseg>
      <trkpt lat="24.117513" lon="120.796565">
        <ele>276.0</ele>
      </trkpt>
      <trkpt lat="24.117513" lon="120.796565">
        <ele>276.0</ele>
      </trkpt>
      <trkpt lat="24.1175" lon="120.796754">
        <ele>276.0</ele>
      </trkpt>
      <trkpt lat="24.11759" lon="120.796979">
        <ele>276.0</ele>
      </trkpt>
      <trkpt lat="24.117689" lon="120.797086">
        <ele>276.0</ele>
      </trkpt>
      <trkpt lat="24.117801" lon="120.797124">
        <ele>277.0</ele>
      </trkpt>
      <trkpt lat="24.118037" lon="120.797145">
        <ele>278.0</ele>
      </trkpt>
      <trkpt lat="24.118359" lon="120.797274">
        <ele>277.0</ele>
      </trkpt>
      <trkpt lat="24.118702" lon="120.797253">
        <ele>274.0</ele>
      </trkpt>
      <trkpt lat="24.119089" lon="120.797446">
        <ele>264.0</ele>
      </trkpt>
      <trkpt lat="24.119175" lon="120.79751">
        <ele>261.0</ele>
      </trkpt>
      <trkpt lat="24.119475" lon="120.797896">
        <ele>258.0</ele>
      </trkpt>
      <trkpt lat="24.119647" lon="120.798047">
        <ele>257.0</ele>
      </trkpt>
      <trkpt lat="24.120018" lon="120.798225">
        <ele>255.0</ele>
      </trkpt>
      <trkpt lat="24.120018" lon="120.798225">
        <ele>255.0</ele>
      </trkpt>
      <trkpt lat="24.120183" lon="120.798304">
        <ele>258.0</ele>
      </trkpt>
      <trkpt lat="24.120376" lon="120.798304">
        <ele>261.0</ele>
      </trkpt>
      <trkpt lat="24.120719" lon="120.798068">
        <ele>266.0</ele>
      </trkpt>
      <trkpt lat="24.120827" lon="120.798047">
        <ele>268.0</ele>
      </trkpt>
      <trkpt lat="24.120956" lon="120.798132">
        <ele>272.0</ele>
      </trkpt>
      <trkpt lat="24.121041" lon="120.798261">
        <ele>275.0</ele>
      </trkpt>
      <trkpt lat="24.121063" lon="120.798347">
        <ele>276.0</ele>
      </trkpt>
      <trkpt lat="24.121063" lon="120.798433">
        <ele>279.0</ele>
      </trkpt>
      <trkpt lat="24.121041" lon="120.798497">
        <ele>280.0</ele>
      </trkpt>
      <trkpt lat="24.120676" lon="120.799034">
        <ele>284.0</ele>
      </trkpt>
      <trkpt lat="24.120419" lon="120.799184">
        <ele>277.0</ele>
      </trkpt>
      <trkpt lat="24.120333" lon="120.799291">
        <ele>275.0</ele>
      </trkpt>
      <trkpt lat="24.120312" lon="120.799377">
        <ele>276.0</ele>
      </trkpt>
      <trkpt lat="24.120312" lon="120.79957">
        <ele>278.0</ele>
      </trkpt>
      <trkpt lat="24.120376" lon="120.799785">
        <ele>284.0</ele>
      </trkpt>
      <trkpt lat="24.120612" lon="120.8003">
        <ele>294.0</ele>
      </trkpt>
      <trkpt lat="24.120741" lon="120.800493">
        <ele>295.0</ele>
      </trkpt>
      <trkpt lat="24.12087" lon="120.800622">
        <ele>297.0</ele>
      </trkpt>
      <trkpt lat="24.121277" lon="120.800943">
        <ele>310.0</ele>
      </trkpt>
      <trkpt lat="24.121342" lon="120.801008">
        <ele>312.0</ele>
      </trkpt>
      <trkpt lat="24.121363" lon="120.801072">
        <ele>312.0</ele>
      </trkpt>
      <trkpt lat="24.121385" lon="120.801158">
        <ele>313.0</ele>
      </trkpt>
      <trkpt lat="24.121428" lon="120.801544">
        <ele>312.0</ele>
      </trkpt>
      <trkpt lat="24.121342" lon="120.802038">
        <ele>311.0</ele>
      </trkpt>
      <trkpt lat="24.121449" lon="120.802381">
        <ele>320.0</ele>
      </trkpt>
      <trkpt lat="24.121492" lon="120.802596">
        <ele>323.0</ele>
      </trkpt>
      <trkpt lat="24.121621" lon="120.802832">
        <ele>326.0</ele>
      </trkpt>
      <trkpt lat="24.121642" lon="120.803196">
        <ele>321.0</ele>
      </trkpt>
      <trkpt lat="24.121664" lon="120.803239">
        <ele>321.0</ele>
      </trkpt>
      <trkpt lat="24.121728" lon="120.803282">
        <ele>323.0</ele>
      </trkpt>
      <trkpt lat="24.121964" lon="120.803218">
        <ele>332.0</ele>
      </trkpt>
      <trkpt lat="24.122329" lon="120.803239">
        <ele>344.0</ele>
      </trkpt>
      <trkpt lat="24.122436" lon="120.803282">
        <ele>346.0</ele>
      </trkpt>
      <trkpt lat="24.122694" lon="120.803561">
        <ele>347.0</ele>
      </trkpt>
      <trkpt lat="24.122801" lon="120.803626">
        <ele>349.0</ele>
      </trkpt>
      <trkpt lat="24.122908" lon="120.803626">
        <ele>352.0</ele>
      </trkpt>
      <trkpt lat="24.122994" lon="120.803711">
        <ele>353.0</ele>
      </trkpt>
      <trkpt lat="24.123015" lon="120.804076">
        <ele>345.0</ele>
      </trkpt>
      <trkpt lat="24.12308" lon="120.804205">
        <ele>344.0</ele>
      </trkpt>
      <trkpt lat="24.123187" lon="120.804291">
        <ele>347.0</ele>
      </trkpt>
      <trkpt lat="24.12338" lon="120.804377">
        <ele>351.0</ele>
      </trkpt>
      <trkpt lat="24.123745" lon="120.804634">
        <ele>355.0</ele>
      </trkpt>
      <trkpt lat="24.123831" lon="120.804677">
        <ele>357.0</ele>
      </trkpt>
      <trkpt lat="24.124024" lon="120.804741">
        <ele>360.0</ele>
      </trkpt>
      <trkpt lat="24.12426" lon="120.804784">
        <ele>365.0</ele>
      </trkpt>
      <trkpt lat="24.124517" lon="120.804913">
        <ele>371.0</ele>
      </trkpt>
      <trkpt lat="24.124539" lon="120.804956">
        <ele>371.0</ele>
      </trkpt>
      <trkpt lat="24.124539" lon="120.804999">
        <ele>370.0</ele>
      </trkpt>
      <trkpt lat="24.124453" lon="120.805171">
        <ele>367.0</ele>
      </trkpt>
      <trkpt lat="24.124453" lon="120.805278">
        <ele>367.0</ele>
      </trkpt>
      <trkpt lat="24.124496" lon="120.805428">
        <ele>367.0</ele>
      </trkpt>
      <trkpt lat="24.124625" lon="120.805578">
        <ele>370.0</ele>
      </trkpt>
      <trkpt lat="24.124754" lon="120.8056">
        <ele>372.0</ele>
      </trkpt>
      <trkpt lat="24.125075" lon="120.805557">
        <ele>378.0</ele>
      </trkpt>
      <trkpt lat="24.125311" lon="120.8056">
        <ele>380.0</ele>
      </trkpt>
      <trkpt lat="24.125376" lon="120.8056">
        <ele>380.0</ele>
      </trkpt>
      <trkpt lat="24.125419" lon="120.805578">
        <ele>381.0</ele>
      </trkpt>
      <trkpt lat="24.125483" lon="120.805471">
        <ele>382.0</ele>
      </trkpt>
      <trkpt lat="24.125612" lon="120.804977">
        <ele>387.0</ele>
      </trkpt>
      <trkpt lat="24.125805" lon="120.804699">
        <ele>397.0</ele>
      </trkpt>
      <trkpt lat="24.125891" lon="120.804634">
        <ele>400.0</ele>
      </trkpt>
      <trkpt lat="24.125998" lon="120.804613">
        <ele>402.0</ele>
      </trkpt>
      <trkpt lat="24.126105" lon="120.804613">
        <ele>402.0</ele>
      </trkpt>
      <trkpt lat="24.126535" lon="120.804699">
        <ele>404.0</ele>
      </trkpt>
      <trkpt lat="24.126599" lon="120.804741">
        <ele>404.0</ele>
      </trkpt>
      <trkpt lat="24.126835" lon="120.804999">
        <ele>403.0</ele>
      </trkpt>
      <trkpt lat="24.1272" lon="120.805214">
        <ele>411.0</ele>
      </trkpt>
      <trkpt lat="24.12735" lon="120.805278">
        <ele>415.0</ele>
      </trkpt>
      <trkpt lat="24.127564" lon="120.805321">
        <ele>419.0</ele>
      </trkpt>
      <trkpt lat="24.127822" lon="120.805299">
        <ele>425.0</ele>
      </trkpt>
      <trkpt lat="24.128165" lon="120.805342">
        <ele>433.0</ele>
      </trkpt>
      <trkpt lat="24.12853" lon="120.805471">
        <ele>440.0</ele>
      </trkpt>
      <trkpt lat="24.128616" lon="120.805471">
        <ele>442.0</ele>
      </trkpt>
      <trkpt lat="24.128637" lon="120.80545">
        <ele>443.0</ele>
      </trkpt>
      <trkpt lat="24.128637" lon="120.805407">
        <ele>443.0</ele>
      </trkpt>
      <trkpt lat="24.128294" lon="120.805171">
        <ele>438.0</ele>
      </trkpt>
      <trkpt lat="24.128187" lon="120.80502">
        <ele>436.0</ele>
      </trkpt>
      <trkpt lat="24.127843" lon="120.804656">
        <ele>434.0</ele>
      </trkpt>
      <trkpt lat="24.127801" lon="120.804548">
        <ele>435.0</ele>
      </trkpt>
      <trkpt lat="24.127822" lon="120.804505">
        <ele>437.0</ele>
      </trkpt>
      <trkpt lat="24.127908" lon="120.804548">
        <ele>439.0</ele>
      </trkpt>
      <trkpt lat="24.128079" lon="120.80472">
        <ele>441.0</ele>
      </trkpt>
      <trkpt lat="24.128337" lon="120.804849">
        <ele>446.0</ele>
      </trkpt>
      <trkpt lat="24.12853" lon="120.804999">
        <ele>447.0</ele>
      </trkpt>
      <trkpt lat="24.128873" lon="120.805128">
        <ele>456.0</ele>
      </trkpt>
      <trkpt lat="24.12926" lon="120.805192">
        <ele>466.0</ele>
      </trkpt>
      <trkpt lat="24.129453" lon="120.805407">
        <ele>466.0</ele>
      </trkpt>
      <trkpt lat="24.12956" lon="120.805471">
        <ele>467.0</ele>
      </trkpt>
      <trkpt lat="24.12986" lon="120.805514">
        <ele>475.0</ele>
      </trkpt>
      <trkpt lat="24.130375" lon="120.805771">
        <ele>482.0</ele>
      </trkpt>
      <trkpt lat="24.130783" lon="120.805814">
        <ele>494.0</ele>
      </trkpt>
      <trkpt lat="24.130848" lon="120.8059">
        <ele>494.0</ele>
      </trkpt>
      <trkpt lat="24.130762" lon="120.806243">
        <ele>486.0</ele>
      </trkpt>
      <trkpt lat="24.130762" lon="120.806608">
        <ele>480.0</ele>
      </trkpt>
      <trkpt lat="24.130848" lon="120.806737">
        <ele>482.0</ele>
      </trkpt>
      <trkpt lat="24.13147" lon="120.807209">
        <ele>499.0</ele>
      </trkpt>
      <trkpt lat="24.131792" lon="120.807552">
        <ele>500.0</ele>
      </trkpt>
      <trkpt lat="24.132049" lon="120.807767">
        <ele>508.0</ele>
      </trkpt>
      <trkpt lat="24.132843" lon="120.808196">
        <ele>521.0</ele>
      </trkpt>
      <trkpt lat="24.133122" lon="120.808604">
        <ele>526.0</ele>
      </trkpt>
      <trkpt lat="24.133165" lon="120.80869">
        <ele>527.0</ele>
      </trkpt>
      <trkpt lat="24.133165" lon="120.808754">
        <ele>527.0</ele>
      </trkpt>
      <trkpt lat="24.133143" lon="120.80884">
        <ele>527.0</ele>
      </trkpt>
      <trkpt lat="24.133058" lon="120.809054">
        <ele>528.0</ele>
      </trkpt>
      <trkpt lat="24.132822" lon="120.809097">
        <ele>528.0</ele>
      </trkpt>
      <trkpt lat="24.132714" lon="120.809097">
        <ele>528.0</ele>
      </trkpt>
      <trkpt lat="24.132543" lon="120.808904">
        <ele>524.0</ele>
      </trkpt>
      <trkpt lat="24.132478" lon="120.808861">
        <ele>523.0</ele>
      </trkpt>
      <trkpt lat="24.13235" lon="120.80884">
        <ele>523.0</ele>
      </trkpt>
      <trkpt lat="24.132242" lon="120.80884">
        <ele>524.0</ele>
      </trkpt>
      <trkpt lat="24.131963" lon="120.808904">
        <ele>529.0</ele>
      </trkpt>
      <trkpt lat="24.13162" lon="120.808904">
        <ele>532.0</ele>
      </trkpt>
      <trkpt lat="24.131019" lon="120.80899">
        <ele>551.0</ele>
      </trkpt>
      <trkpt lat="24.13074" lon="120.80899">
        <ele>556.0</ele>
      </trkpt>
      <trkpt lat="24.130504" lon="120.808947">
        <ele>552.0</ele>
      </trkpt>
      <trkpt lat="24.130139" lon="120.808818">
        <ele>545.0</ele>
      </trkpt>
      <trkpt lat="24.129925" lon="120.808733">
        <ele>542.0</ele>
      </trkpt>
      <trkpt lat="24.129667" lon="120.808604">
        <ele>537.0</ele>
      </trkpt>
      <trkpt lat="24.129496" lon="120.808625">
        <ele>539.0</ele>
      </trkpt>
      <trkpt lat="24.129388" lon="120.808711">
        <ele>542.0</ele>
      </trkpt>
      <trkpt lat="24.12926" lon="120.808969">
        <ele>547.0</ele>
      </trkpt>
      <trkpt lat="24.129131" lon="120.809119">
        <ele>547.0</ele>
      </trkpt>
      <trkpt lat="24.129088" lon="120.809248">
        <ele>546.0</ele>
      </trkpt>
      <trkpt lat="24.129088" lon="120.809333">
        <ele>545.0</ele>
      </trkpt>
      <trkpt lat="24.129152" lon="120.809655">
        <ele>544.0</ele>
      </trkpt>
      <trkpt lat="24.129152" lon="120.809999">
        <ele>540.0</ele>
      </trkpt>
      <trkpt lat="24.129195" lon="120.810149">
        <ele>540.0</ele>
      </trkpt>
      <trkpt lat="24.129238" lon="120.810213">
        <ele>540.0</ele>
      </trkpt>
      <trkpt lat="24.12941" lon="120.810385">
        <ele>544.0</ele>
      </trkpt>
      <trkpt lat="24.129624" lon="120.810535">
        <ele>550.0</ele>
      </trkpt>
      <trkpt lat="24.129775" lon="120.810792">
        <ele>552.0</ele>
      </trkpt>
      <trkpt lat="24.129989" lon="120.810921">
        <ele>560.0</ele>
      </trkpt>
      <trkpt lat="24.130054" lon="120.811007">
        <ele>563.0</ele>
      </trkpt>
      <trkpt lat="24.130032" lon="120.811093">
        <ele>562.0</ele>
      </trkpt>
      <trkpt lat="24.129796" lon="120.81135">
        <ele>553.0</ele>
      </trkpt>
      <trkpt lat="24.129624" lon="120.811479">
        <ele>546.0</ele>
      </trkpt>
      <trkpt lat="24.129624" lon="120.811565">
        <ele>546.0</ele>
      </trkpt>
      <trkpt lat="24.129839" lon="120.811887">
        <ele>557.0</ele>
      </trkpt>
      <trkpt lat="24.130075" lon="120.812101">
        <ele>567.0</ele>
      </trkpt>
      <trkpt lat="24.130161" lon="120.812402">
        <ele>573.0</ele>
      </trkpt>
      <trkpt lat="24.130204" lon="120.812445">
        <ele>574.0</ele>
      </trkpt>
      <trkpt lat="24.130375" lon="120.812552">
        <ele>582.0</ele>
      </trkpt>
      <trkpt lat="24.130354" lon="120.812917">
        <ele>589.0</ele>
      </trkpt>
      <trkpt lat="24.13044" lon="120.81296">
        <ele>592.0</ele>
      </trkpt>
      <trkpt lat="24.130526" lon="120.812895">
        <ele>594.0</ele>
      </trkpt>
      <trkpt lat="24.130697" lon="120.812681">
        <ele>596.0</ele>
      </trkpt>
      <trkpt lat="24.13074" lon="120.812573">
        <ele>596.0</ele>
      </trkpt>
      <trkpt lat="24.130654" lon="120.812359">
        <ele>591.0</ele>
      </trkpt>
      <trkpt lat="24.130526" lon="120.812209">
        <ele>585.0</ele>
      </trkpt>
      <trkpt lat="24.130526" lon="120.812166">
        <ele>585.0</ele>
      </trkpt>
      <trkpt lat="24.130547" lon="120.812144">
        <ele>586.0</ele>
      </trkpt>
      <trkpt lat="24.130654" lon="120.812166">
        <ele>590.0</ele>
      </trkpt>
      <trkpt lat="24.130848" lon="120.812295">
        <ele>598.0</ele>
      </trkpt>
      <trkpt lat="24.130955" lon="120.812466">
        <ele>603.0</ele>
      </trkpt>
      <trkpt lat="24.131084" lon="120.812595">
        <ele>610.0</ele>
      </trkpt>
      <trkpt lat="24.131084" lon="120.812681">
        <ele>611.0</ele>
      </trkpt>
      <trkpt lat="24.131041" lon="120.81296">
        <ele>612.0</ele>
      </trkpt>
      <trkpt lat="24.131105" lon="120.813067">
        <ele>616.0</ele>
      </trkpt>
      <trkpt lat="24.131148" lon="120.813067">
        <ele>617.0</ele>
      </trkpt>
      <trkpt lat="24.131191" lon="120.813046">
        <ele>619.0</ele>
      </trkpt>
      <trkpt lat="24.131298" lon="120.812831">
        <ele>620.0</ele>
      </trkpt>
      <trkpt lat="24.13147" lon="120.812659">
        <ele>625.0</ele>
      </trkpt>
      <trkpt lat="24.131556" lon="120.812466">
        <ele>627.0</ele>
      </trkpt>
      <trkpt lat="24.131599" lon="120.812466">
        <ele>628.0</ele>
      </trkpt>
      <trkpt lat="24.131641" lon="120.812509">
        <ele>630.0</ele>
      </trkpt>
      <trkpt lat="24.131663" lon="120.812616">
        <ele>632.0</ele>
      </trkpt>
      <trkpt lat="24.131641" lon="120.812831">
        <ele>633.0</ele>
      </trkpt>
      <trkpt lat="24.131877" lon="120.813239">
        <ele>645.0</ele>
      </trkpt>
      <trkpt lat="24.131942" lon="120.813282">
        <ele>648.0</ele>
      </trkpt>
      <trkpt lat="24.132028" lon="120.81326">
        <ele>651.0</ele>
      </trkpt>
      <trkpt lat="24.132242" lon="120.812981">
        <ele>652.0</ele>
      </trkpt>
      <trkpt lat="24.132328" lon="120.812895">
        <ele>652.0</ele>
      </trkpt>
      <trkpt lat="24.132457" lon="120.812852">
        <ele>655.0</ele>
      </trkpt>
      <trkpt lat="24.132628" lon="120.813131">
        <ele>661.0</ele>
      </trkpt>
      <trkpt lat="24.133272" lon="120.813561">
        <ele>684.0</ele>
      </trkpt>
      <trkpt lat="24.13338" lon="120.813582">
        <ele>685.0</ele>
      </trkpt>
      <trkpt lat="24.133573" lon="120.813561">
        <ele>680.0</ele>
      </trkpt>
      <trkpt lat="24.133701" lon="120.813668">
        <ele>689.0</ele>
      </trkpt>
      <trkpt lat="24.134023" lon="120.813711">
        <ele>689.0</ele>
      </trkpt>
      <trkpt lat="24.134302" lon="120.813861">
        <ele>705.0</ele>
      </trkpt>
      <trkpt lat="24.134688" lon="120.81399">
        <ele>723.0</ele>
      </trkpt>
      <trkpt lat="24.134753" lon="120.813968">
        <ele>722.0</ele>
      </trkpt>
      <trkpt lat="24.134839" lon="120.813904">
        <ele>719.0</ele>
      </trkpt>
      <trkpt lat="24.134989" lon="120.813689">
        <ele>709.0</ele>
      </trkpt>
      <trkpt lat="24.135032" lon="120.813603">
        <ele>706.0</ele>
      </trkpt>
      <trkpt lat="24.135096" lon="120.813325">
        <ele>692.0</ele>
      </trkpt>
      <trkpt lat="24.135182" lon="120.813239">
        <ele>692.0</ele>
      </trkpt>
      <trkpt lat="24.135504" lon="120.81311">
        <ele>698.0</ele>
      </trkpt>
      <trkpt lat="24.135954" lon="120.812874">
        <ele>701.0</ele>
      </trkpt>
      <trkpt lat="24.136062" lon="120.812874">
        <ele>702.0</ele>
      </trkpt>
      <trkpt lat="24.136255" lon="120.812981">
        <ele>707.0</ele>
      </trkpt>
      <trkpt lat="24.136405" lon="120.813024">
        <ele>711.0</ele>
      </trkpt>
      <trkpt lat="24.136834" lon="120.81296">
        <ele>708.0</ele>
      </trkpt>
      <trkpt lat="24.136941" lon="120.81311">
        <ele>711.0</ele>
      </trkpt>
      <trkpt lat="24.137006" lon="120.813174">
        <ele>712.0</ele>
      </trkpt>
      <trkpt lat="24.137242" lon="120.813239">
        <ele>710.0</ele>
      </trkpt>
      <trkpt lat="24.137371" lon="120.813325">
        <ele>711.0</ele>
      </trkpt>
      <trkpt lat="24.137423" lon="120.813421">
        <ele>713.0</ele>
      </trkpt>
      <trkpt lat="24.137423" lon="120.813421">
        <ele>713.0</ele>
      </trkpt>
      <trkpt lat="24.137478" lon="120.813603">
        <ele>718.0</ele>
      </trkpt>
      <trkpt lat="24.137542" lon="120.813689">
        <ele>719.0</ele>
      </trkpt>
      <trkpt lat="24.137843" lon="120.813839">
        <ele>718.0</ele>
      </trkpt>
      <trkpt lat="24.137929" lon="120.813904">
        <ele>719.0</ele>
      </trkpt>
      <trkpt lat="24.138143" lon="120.814247">
        <ele>728.0</ele>
      </trkpt>
      <trkpt lat="24.13821" lon="120.81438">
        <ele>735.0</ele>
      </trkpt>
      <trkpt lat="24.13806" lon="120.814631">
        <ele>754.0</ele>
      </trkpt>
      <trkpt lat="24.138406" lon="120.814838">
        <ele>758.0</ele>
      </trkpt>
      <trkpt lat="24.138758" lon="120.815102">
        <ele>764.0</ele>
      </trkpt>
      <trkpt lat="24.138889" lon="120.815171">
        <ele>762.0</ele>
      </trkpt>
      <trkpt lat="24.139057" lon="120.815183">
        <ele>757.0</ele>
      </trkpt>
      <trkpt lat="24.13921" lon="120.815136">
        <ele>752.0</ele>
      </trkpt>
      <trkpt lat="24.139336" lon="120.815023">
        <ele>746.0</ele>
      </trkpt>
      <trkpt lat="24.139267" lon="120.81516">
        <ele>750.0</ele>
      </trkpt>
      <trkpt lat="24.139133" lon="120.81525">
        <ele>756.0</ele>
      </trkpt>
      <trkpt lat="24.139105" lon="120.81534">
        <ele>759.0</ele>
      </trkpt>
      <trkpt lat="24.139096" lon="120.81544">
        <ele>761.0</ele>
      </trkpt>
      <trkpt lat="24.139034" lon="120.815453">
        <ele>764.0</ele>
      </trkpt>
      <trkpt lat="24.138975" lon="120.815406">
        <ele>766.0</ele>
      </trkpt>
      <trkpt lat="24.138972" lon="120.815465">
        <ele>768.0</ele>
      </trkpt>
      <trkpt lat="24.139" lon="120.815529">
        <ele>768.0</ele>
      </trkpt>
      <trkpt lat="24.13898" lon="120.815692">
        <ele>773.0</ele>
      </trkpt>
      <trkpt lat="24.139032" lon="120.815804">
        <ele>773.0</ele>
      </trkpt>
      <trkpt lat="24.139099" lon="120.815882">
        <ele>771.0</ele>
      </trkpt>
      <trkpt lat="24.139084" lon="120.816098">
        <ele>781.0</ele>
      </trkpt>
      <trkpt lat="24.139126" lon="120.816248">
        <ele>784.0</ele>
      </trkpt>
      <trkpt lat="24.13911" lon="120.816258">
        <ele>786.0</ele>
      </trkpt>
      <trkpt lat="24.139026" lon="120.81611">
        <ele>786.0</ele>
      </trkpt>
      <trkpt lat="24.138992" lon="120.815841">
        <ele>776.0</ele>
      </trkpt>
      <trkpt lat="24.138918" lon="120.815783">
        <ele>780.0</ele>
      </trkpt>
      <trkpt lat="24.138832" lon="120.815749">
        <ele>784.0</ele>
      </trkpt>
      <trkpt lat="24.138786" lon="120.815837">
        <ele>790.0</ele>
      </trkpt>
      <trkpt lat="24.138741" lon="120.815837">
        <ele>793.0</ele>
      </trkpt>
      <trkpt lat="24.138702" lon="120.815808">
        <ele>795.0</ele>
      </trkpt>
      <trkpt lat="24.138665" lon="120.815834">
        <ele>798.0</ele>
      </trkpt>
      <trkpt lat="24.138645" lon="120.815865">
        <ele>802.0</ele>
      </trkpt>
      <trkpt lat="24.138651" lon="120.815923">
        <ele>805.0</ele>
      </trkpt>
      <trkpt lat="24.13862" lon="120.815953">
        <ele>809.0</ele>
      </trkpt>
      <trkpt lat="24.138544" lon="120.815939">
        <ele>813.0</ele>
      </trkpt>
      <trkpt lat="24.138469" lon="120.816035">
        <ele>825.0</ele>
      </trkpt>
      <trkpt lat="24.138338" lon="120.816083">
        <ele>839.0</ele>
      </trkpt>
      <trkpt lat="24.138271" lon="120.816085">
        <ele>843.0</ele>
      </trkpt>
      <trkpt lat="24.138213" lon="120.816217">
        <ele>855.0</ele>
      </trkpt>
      <trkpt lat="24.138127" lon="120.816359">
        <ele>870.0</ele>
      </trkpt>
      <trkpt lat="24.13815" lon="120.816507">
        <ele>880.0</ele>
      </trkpt>
      <trkpt lat="24.138125" lon="120.816586">
        <ele>887.0</ele>
      </trkpt>
      <trkpt lat="24.138185" lon="120.816679">
        <ele>890.0</ele>
      </trkpt>
      <trkpt lat="24.138182" lon="120.816715">
        <ele>892.0</ele>
      </trkpt>
      <trkpt lat="24.13813" lon="120.81678">
        <ele>899.0</ele>
      </trkpt>
      <trkpt lat="24.138112" lon="120.816862">
        <ele>904.0</ele>
      </trkpt>
      <trkpt lat="24.138068" lon="120.816906">
        <ele>908.0</ele>
      </trkpt>
      <trkpt lat="24.138036" lon="120.816995">
        <ele>914.0</ele>
      </trkpt>
      <trkpt lat="24.13797" lon="120.817056">
        <ele>920.0</ele>
      </trkpt>
      <trkpt lat="24.137984" lon="120.817069">
        <ele>921.0</ele>
      </trkpt>
      <trkpt lat="24.137874" lon="120.81713">
        <ele>928.0</ele>
      </trkpt>
      <trkpt lat="24.13789" lon="120.817151">
        <ele>928.0</ele>
      </trkpt>
      <trkpt lat="24.137827" lon="120.817159">
        <ele>931.0</ele>
      </trkpt>
      <trkpt lat="24.137782" lon="120.817216">
        <ele>936.0</ele>
      </trkpt>
      <trkpt lat="24.137772" lon="120.817298">
        <ele>940.0</ele>
      </trkpt>
      <trkpt lat="24.137809" lon="120.817385">
        <ele>943.0</ele>
      </trkpt>
      <trkpt lat="24.137849" lon="120.817404">
        <ele>942.0</ele>
      </trkpt>
      <trkpt lat="24.137897" lon="120.817511">
        <ele>946.0</ele>
      </trkpt>
      <trkpt lat="24.137859" lon="120.817539">
        <ele>947.0</ele>
      </trkpt>
      <trkpt lat="24.13786" lon="120.817596">
        <ele>948.0</ele>
      </trkpt>
      <trkpt lat="24.137887" lon="120.817623">
        <ele>947.0</ele>
      </trkpt>
      <trkpt lat="24.137928" lon="120.817748">
        <ele>948.0</ele>
      </trkpt>
      <trkpt lat="24.13799" lon="120.817804">
        <ele>948.0</ele>
      </trkpt>
      <trkpt lat="24.13799" lon="120.817804">
        <ele>948.0</ele>
      </trkpt>
      <trkpt lat="24.137928" lon="120.817748">
        <ele>948.0</ele>
      </trkpt>
      <trkpt lat="24.137887" lon="120.817623">
        <ele>947.0</ele>
      </trkpt>
      <trkpt lat="24.13786" lon="120.817596">
        <ele>948.0</ele>
      </trkpt>
      <trkpt lat="24.137859" lon="120.817539">
        <ele>947.0</ele>
      </trkpt>
      <trkpt lat="24.137897" lon="120.817511">
        <ele>946.0</ele>
      </trkpt>
      <trkpt lat="24.137849" lon="120.817404">
        <ele>942.0</ele>
      </trkpt>
      <trkpt lat="24.137809" lon="120.817385">
        <ele>943.0</ele>
      </trkpt>
      <trkpt lat="24.137772" lon="120.817298">
        <ele>940.0</ele>
      </trkpt>
      <trkpt lat="24.13759" lon="120.81709">
        <ele>938.0</ele>
      </trkpt>
      <trkpt lat="24.137518" lon="120.81705">
        <ele>939.0</ele>
      </trkpt>
      <trkpt lat="24.137423" lon="120.81696">
        <ele>935.0</ele>
      </trkpt>
      <trkpt lat="24.137304" lon="120.8169">
        <ele>932.0</ele>
      </trkpt>
      <trkpt lat="24.137136" lon="120.81685">
        <ele>931.0</ele>
      </trkpt>
      <trkpt lat="24.137072" lon="120.8168">
        <ele>931.0</ele>
      </trkpt>
      <trkpt lat="24.137035" lon="120.81681">
        <ele>931.0</ele>
      </trkpt>
      <trkpt lat="24.137018" lon="120.81679">
        <ele>931.0</ele>
      </trkpt>
      <trkpt lat="24.136997" lon="120.816795">
        <ele>931.0</ele>
      </trkpt>
      <trkpt lat="24.136894" lon="120.81676">
        <ele>931.0</ele>
      </trkpt>
      <trkpt lat="24.136799" lon="120.8167">
        <ele>933.0</ele>
      </trkpt>
      <trkpt lat="24.136698" lon="120.81672">
        <ele>933.0</ele>
      </trkpt>
      <trkpt lat="24.136625" lon="120.81669">
        <ele>933.0</ele>
      </trkpt>
      <trkpt lat="24.136618" lon="120.81665">
        <ele>933.0</ele>
      </trkpt>
      <trkpt lat="24.136543" lon="120.81661">
        <ele>929.0</ele>
      </trkpt>
      <trkpt lat="24.136515" lon="120.816635">
        <ele>929.0</ele>
      </trkpt>
      <trkpt lat="24.13642" lon="120.81663">
        <ele>926.0</ele>
      </trkpt>
      <trkpt lat="24.136366" lon="120.816605">
        <ele>923.0</ele>
      </trkpt>
      <trkpt lat="24.136133" lon="120.81659">
        <ele>916.0</ele>
      </trkpt>
      <trkpt lat="24.13609" lon="120.81656">
        <ele>913.0</ele>
      </trkpt>
      <trkpt lat="24.135906" lon="120.816635">
        <ele>911.0</ele>
      </trkpt>
      <trkpt lat="24.135872" lon="120.81662">
        <ele>909.0</ele>
      </trkpt>
      <trkpt lat="24.13582" lon="120.816635">
        <ele>908.0</ele>
      </trkpt>
      <trkpt lat="24.135775" lon="120.8166">
        <ele>905.0</ele>
      </trkpt>
      <trkpt lat="24.135532" lon="120.81656">
        <ele>896.0</ele>
      </trkpt>
      <trkpt lat="24.13534" lon="120.81649">
        <ele>888.0</ele>
      </trkpt>
      <trkpt lat="24.135283" lon="120.816486">
        <ele>887.0</ele>
      </trkpt>
      <trkpt lat="24.135283" lon="120.816486">
        <ele>887.0</ele>
      </trkpt>
      <trkpt lat="24.135086" lon="120.81647">
        <ele>881.0</ele>
      </trkpt>
      <trkpt lat="24.134972" lon="120.81642">
        <ele>877.0</ele>
      </trkpt>
      <trkpt lat="24.134914" lon="120.81641">
        <ele>876.0</ele>
      </trkpt>
      <trkpt lat="24.134872" lon="120.81638">
        <ele>875.0</ele>
      </trkpt>
      <trkpt lat="24.134508" lon="120.81626">
        <ele>868.0</ele>
      </trkpt>
      <trkpt lat="24.13442" lon="120.81625">
        <ele>867.0</ele>
      </trkpt>
      <trkpt lat="24.134348" lon="120.81619">
        <ele>866.0</ele>
      </trkpt>
      <trkpt lat="24.134216" lon="120.81621">
        <ele>864.0</ele>
      </trkpt>
      <trkpt lat="24.133995" lon="120.81621">
        <ele>861.0</ele>
      </trkpt>
      <trkpt lat="24.133884" lon="120.816154">
        <ele>861.0</ele>
      </trkpt>
      <trkpt lat="24.133755" lon="120.81602">
        <ele>864.0</ele>
      </trkpt>
      <trkpt lat="24.133669" lon="120.81597">
        <ele>865.0</ele>
      </trkpt>
      <trkpt lat="24.133636" lon="120.815926">
        <ele>866.0</ele>
      </trkpt>
      <trkpt lat="24.133467" lon="120.81589">
        <ele>868.0</ele>
      </trkpt>
      <trkpt lat="24.13325" lon="120.81579">
        <ele>865.0</ele>
      </trkpt>
      <trkpt lat="24.133005" lon="120.8158">
        <ele>857.0</ele>
      </trkpt>
      <trkpt lat="24.132956" lon="120.81583">
        <ele>857.0</ele>
      </trkpt>
      <trkpt lat="24.132914" lon="120.815834">
        <ele>855.0</ele>
      </trkpt>
      <trkpt lat="24.132854" lon="120.81588">
        <ele>852.0</ele>
      </trkpt>
      <trkpt lat="24.132544" lon="120.815956">
        <ele>839.0</ele>
      </trkpt>
      <trkpt lat="24.132378" lon="120.81603">
        <ele>830.0</ele>
      </trkpt>
      <trkpt lat="24.13202" lon="120.8161">
        <ele>815.0</ele>
      </trkpt>
      <trkpt lat="24.131802" lon="120.81612">
        <ele>806.0</ele>
      </trkpt>
      <trkpt lat="24.131697" lon="120.816185">
        <ele>801.0</ele>
      </trkpt>
      <trkpt lat="24.13155" lon="120.81624">
        <ele>798.0</ele>
      </trkpt>
      <trkpt lat="24.131353" lon="120.816246">
        <ele>796.0</ele>
      </trkpt>
      <trkpt lat="24.131111" lon="120.81619">
        <ele>795.0</ele>
      </trkpt>
      <trkpt lat="24.130886" lon="120.81623">
        <ele>793.0</ele>
      </trkpt>
      <trkpt lat="24.130764" lon="120.81623">
        <ele>792.0</ele>
      </trkpt>
      <trkpt lat="24.130556" lon="120.816284">
        <ele>788.0</ele>
      </trkpt>
      <trkpt lat="24.130487" lon="120.81632">
        <ele>787.0</ele>
      </trkpt>
      <trkpt lat="24.130434" lon="120.81631">
        <ele>786.0</ele>
      </trkpt>
      <trkpt lat="24.130371" lon="120.81626">
        <ele>785.0</ele>
      </trkpt>
      <trkpt lat="24.130352" lon="120.81626">
        <ele>784.0</ele>
      </trkpt>
      <trkpt lat="24.130308" lon="120.81619">
        <ele>783.0</ele>
      </trkpt>
      <trkpt lat="24.130274" lon="120.8162">
        <ele>782.0</ele>
      </trkpt>
      <trkpt lat="24.13025" lon="120.81623">
        <ele>782.0</ele>
      </trkpt>
      <trkpt lat="24.13021" lon="120.81617">
        <ele>780.0</ele>
      </trkpt>
      <trkpt lat="24.130213" lon="120.816124">
        <ele>780.0</ele>
      </trkpt>
      <trkpt lat="24.130174" lon="120.816092">
        <ele>778.0</ele>
      </trkpt>
      <trkpt lat="24.130174" lon="120.816092">
        <ele>778.0</ele>
      </trkpt>
      <trkpt lat="24.130114" lon="120.81601">
        <ele>776.0</ele>
      </trkpt>
      <trkpt lat="24.130013" lon="120.815926">
        <ele>771.0</ele>
      </trkpt>
      <trkpt lat="24.12983" lon="120.81585">
        <ele>759.0</ele>
      </trkpt>
      <trkpt lat="24.129486" lon="120.81555">
        <ele>731.0</ele>
      </trkpt>
      <trkpt lat="24.129404" lon="120.81552">
        <ele>727.0</ele>
      </trkpt>
      <trkpt lat="24.129019" lon="120.8153">
        <ele>710.0</ele>
      </trkpt>
      <trkpt lat="24.128933" lon="120.81531">
        <ele>708.0</ele>
      </trkpt>
      <trkpt lat="24.128832" lon="120.815285">
        <ele>705.0</ele>
      </trkpt>
      <trkpt lat="24.128712" lon="120.815285">
        <ele>702.0</ele>
      </trkpt>
      <trkpt lat="24.12859" lon="120.815346">
        <ele>699.0</ele>
      </trkpt>
      <trkpt lat="24.128422" lon="120.81536">
        <ele>694.0</ele>
      </trkpt>
      <trkpt lat="24.12819" lon="120.81541">
        <ele>690.0</ele>
      </trkpt>
      <trkpt lat="24.128054" lon="120.815414">
        <ele>688.0</ele>
      </trkpt>
      <trkpt lat="24.127878" lon="120.81549">
        <ele>686.0</ele>
      </trkpt>
      <trkpt lat="24.127586" lon="120.81555">
        <ele>682.0</ele>
      </trkpt>
      <trkpt lat="24.127535" lon="120.815605">
        <ele>682.0</ele>
      </trkpt>
      <trkpt lat="24.12753" lon="120.81564">
        <ele>682.0</ele>
      </trkpt>
      <trkpt lat="24.127354" lon="120.815735">
        <ele>677.0</ele>
      </trkpt>
      <trkpt lat="24.127253" lon="120.815765">
        <ele>674.0</ele>
      </trkpt>
      <trkpt lat="24.126848" lon="120.81608">
        <ele>654.0</ele>
      </trkpt>
      <trkpt lat="24.126728" lon="120.81621">
        <ele>648.0</ele>
      </trkpt>
      <trkpt lat="24.126673" lon="120.81622">
        <ele>647.0</ele>
      </trkpt>
      <trkpt lat="24.126522" lon="120.81631">
        <ele>638.0</ele>
      </trkpt>
      <trkpt lat="24.126429" lon="120.816345">
        <ele>633.0</ele>
      </trkpt>
      <trkpt lat="24.126293" lon="120.816475">
        <ele>626.0</ele>
      </trkpt>
      <trkpt lat="24.126247" lon="120.8165">
        <ele>624.0</ele>
      </trkpt>
      <trkpt lat="24.12631" lon="120.81651">
        <ele>627.0</ele>
      </trkpt>
      <trkpt lat="24.126282" lon="120.816536">
        <ele>625.0</ele>
      </trkpt>
      <trkpt lat="24.126244" lon="120.81655">
        <ele>624.0</ele>
      </trkpt>
      <trkpt lat="24.12619" lon="120.816536">
        <ele>621.0</ele>
      </trkpt>
      <trkpt lat="24.126144" lon="120.81655">
        <ele>620.0</ele>
      </trkpt>
      <trkpt lat="24.126114" lon="120.81652">
        <ele>618.0</ele>
      </trkpt>
      <trkpt lat="24.126099" lon="120.81655">
        <ele>618.0</ele>
      </trkpt>
      <trkpt lat="24.126032" lon="120.816505">
        <ele>615.0</ele>
      </trkpt>
      <trkpt lat="24.12603" lon="120.81649">
        <ele>615.0</ele>
      </trkpt>
      <trkpt lat="24.125967" lon="120.81647">
        <ele>612.0</ele>
      </trkpt>
      <trkpt lat="24.125902" lon="120.81648">
        <ele>609.0</ele>
      </trkpt>
      <trkpt lat="24.125883" lon="120.816505">
        <ele>609.0</ele>
      </trkpt>
      <trkpt lat="24.125853" lon="120.816497">
        <ele>607.0</ele>
      </trkpt>
      <trkpt lat="24.125898" lon="120.816448">
        <ele>609.0</ele>
      </trkpt>
      <trkpt lat="24.125893" lon="120.816414">
        <ele>608.0</ele>
      </trkpt>
      <trkpt lat="24.12592" lon="120.81637">
        <ele>609.0</ele>
      </trkpt>
      <trkpt lat="24.125996" lon="120.81632">
        <ele>613.0</ele>
      </trkpt>
      <trkpt lat="24.126036" lon="120.816216">
        <ele>614.0</ele>
      </trkpt>
      <trkpt lat="24.126225" lon="120.81615">
        <ele>624.0</ele>
      </trkpt>
      <trkpt lat="24.12627" lon="120.81609">
        <ele>627.0</ele>
      </trkpt>
      <trkpt lat="24.126268" lon="120.81596">
        <ele>627.0</ele>
      </trkpt>
      <trkpt lat="24.126282" lon="120.81594">
        <ele>628.0</ele>
      </trkpt>
      <trkpt lat="24.12629" lon="120.81577">
        <ele>628.0</ele>
      </trkpt>
      <trkpt lat="24.126266" lon="120.81564">
        <ele>623.0</ele>
      </trkpt>
      <trkpt lat="24.126225" lon="120.81552">
        <ele>618.0</ele>
      </trkpt>
      <trkpt lat="24.126144" lon="120.81541">
        <ele>610.0</ele>
      </trkpt>
      <trkpt lat="24.126143" lon="120.815254">
        <ele>606.0</ele>
      </trkpt>
      <trkpt lat="24.126131" lon="120.815216">
        <ele>604.0</ele>
      </trkpt>
      <trkpt lat="24.126095" lon="120.81525">
        <ele>603.0</ele>
      </trkpt>
      <trkpt lat="24.126043" lon="120.81538">
        <ele>602.0</ele>
      </trkpt>
      <trkpt lat="24.126017" lon="120.81541">
        <ele>601.0</ele>
      </trkpt>
      <trkpt lat="24.125998" lon="120.81552">
        <ele>603.0</ele>
      </trkpt>
      <trkpt lat="24.125872" lon="120.81567">
        <ele>598.0</ele>
      </trkpt>
      <trkpt lat="24.125772" lon="120.81572">
        <ele>594.0</ele>
      </trkpt>
      <trkpt lat="24.125717" lon="120.815778">
        <ele>593.0</ele>
      </trkpt>
      <trkpt lat="24.125717" lon="120.815778">
        <ele>593.0</ele>
      </trkpt>
      <trkpt lat="24.125692" lon="120.81583">
        <ele>593.0</ele>
      </trkpt>
      <trkpt lat="24.125608" lon="120.815918">
        <ele>590.0</ele>
      </trkpt>
      <trkpt lat="24.12542" lon="120.816228">
        <ele>584.0</ele>
      </trkpt>
      <trkpt lat="24.125344" lon="120.816305">
        <ele>581.0</ele>
      </trkpt>
      <trkpt lat="24.125096" lon="120.816357">
        <ele>570.0</ele>
      </trkpt>
      <trkpt lat="24.124968" lon="120.816401">
        <ele>564.0</ele>
      </trkpt>
      <trkpt lat="24.124859" lon="120.816462">
        <ele>559.0</ele>
      </trkpt>
      <trkpt lat="24.124819" lon="120.816558">
        <ele>558.0</ele>
      </trkpt>
      <trkpt lat="24.124821" lon="120.816668">
        <ele>559.0</ele>
      </trkpt>
      <trkpt lat="24.124846" lon="120.816833">
        <ele>558.0</ele>
      </trkpt>
      <trkpt lat="24.124978" lon="120.817004">
        <ele>563.0</ele>
      </trkpt>
      <trkpt lat="24.124979" lon="120.817347">
        <ele>558.0</ele>
      </trkpt>
      <trkpt lat="24.124944" lon="120.817651">
        <ele>550.0</ele>
      </trkpt>
      <trkpt lat="24.124866" lon="120.817714">
        <ele>545.0</ele>
      </trkpt>
      <trkpt lat="24.124768" lon="120.817746">
        <ele>540.0</ele>
      </trkpt>
      <trkpt lat="24.124716" lon="120.817728">
        <ele>538.0</ele>
      </trkpt>
      <trkpt lat="24.124633" lon="120.817732">
        <ele>535.0</ele>
      </trkpt>
      <trkpt lat="24.124569" lon="120.817674">
        <ele>533.0</ele>
      </trkpt>
      <trkpt lat="24.124529" lon="120.81759">
        <ele>534.0</ele>
      </trkpt>
      <trkpt lat="24.124465" lon="120.817519">
        <ele>533.0</ele>
      </trkpt>
      <trkpt lat="24.124382" lon="120.817402">
        <ele>531.0</ele>
      </trkpt>
      <trkpt lat="24.124209" lon="120.817236">
        <ele>525.0</ele>
      </trkpt>
      <trkpt lat="24.124328" lon="120.816593">
        <ele>533.0</ele>
      </trkpt>
      <trkpt lat="24.12429" lon="120.816423">
        <ele>529.0</ele>
      </trkpt>
      <trkpt lat="24.124202" lon="120.816225">
        <ele>523.0</ele>
      </trkpt>
      <trkpt lat="24.124281" lon="120.816117">
        <ele>525.0</ele>
      </trkpt>
      <trkpt lat="24.124372" lon="120.815919">
        <ele>528.0</ele>
      </trkpt>
      <trkpt lat="24.124482" lon="120.815588">
        <ele>530.0</ele>
      </trkpt>
      <trkpt lat="24.124533" lon="120.815126">
        <ele>526.0</ele>
      </trkpt>
      <trkpt lat="24.124709" lon="120.81416">
        <ele>522.0</ele>
      </trkpt>
      <trkpt lat="24.124832" lon="120.814062">
        <ele>526.0</ele>
      </trkpt>
      <trkpt lat="24.124958" lon="120.814024">
        <ele>531.0</ele>
      </trkpt>
      <trkpt lat="24.125129" lon="120.813756">
        <ele>531.0</ele>
      </trkpt>
      <trkpt lat="24.125634" lon="120.813138">
        <ele>538.0</ele>
      </trkpt>
      <trkpt lat="24.125716" lon="120.813005">
        <ele>538.0</ele>
      </trkpt>
      <trkpt lat="24.125842" lon="120.81265">
        <ele>532.0</ele>
      </trkpt>
      <trkpt lat="24.125914" lon="120.812615">
        <ele>531.0</ele>
      </trkpt>
      <trkpt lat="24.12621" lon="120.812641">
        <ele>533.0</ele>
      </trkpt>
      <trkpt lat="24.126457" lon="120.81249">
        <ele>527.0</ele>
      </trkpt>
      <trkpt lat="24.12664" lon="120.812458">
        <ele>525.0</ele>
      </trkpt>
      <trkpt lat="24.126914" lon="120.812208">
        <ele>520.0</ele>
      </trkpt>
      <trkpt lat="24.126914" lon="120.812208">
        <ele>520.0</ele>
      </trkpt>
      <trkpt lat="24.127009" lon="120.812121">
        <ele>518.0</ele>
      </trkpt>
      <trkpt lat="24.126878" lon="120.812123">
        <ele>516.0</ele>
      </trkpt>
      <trkpt lat="24.126642" lon="120.812252">
        <ele>517.0</ele>
      </trkpt>
      <trkpt lat="24.126406" lon="120.81223">
        <ele>517.0</ele>
      </trkpt>
      <trkpt lat="24.126191" lon="120.812166">
        <ele>515.0</ele>
      </trkpt>
      <trkpt lat="24.125998" lon="120.812037">
        <ele>511.0</ele>
      </trkpt>
      <trkpt lat="24.125912" lon="120.81193">
        <ele>507.0</ele>
      </trkpt>
      <trkpt lat="24.125676" lon="120.811501">
        <ele>490.0</ele>
      </trkpt>
      <trkpt lat="24.12559" lon="120.811415">
        <ele>485.0</ele>
      </trkpt>
      <trkpt lat="24.125526" lon="120.811393">
        <ele>484.0</ele>
      </trkpt>
      <trkpt lat="24.125419" lon="120.811436">
        <ele>485.0</ele>
      </trkpt>
      <trkpt lat="24.12529" lon="120.811608">
        <ele>490.0</ele>
      </trkpt>
      <trkpt lat="24.124796" lon="120.811908">
        <ele>487.0</ele>
      </trkpt>
      <trkpt lat="24.124689" lon="120.812037">
        <ele>485.0</ele>
      </trkpt>
      <trkpt lat="24.124646" lon="120.812144">
        <ele>485.0</ele>
      </trkpt>
      <trkpt lat="24.124646" lon="120.812745">
        <ele>491.0</ele>
      </trkpt>
      <trkpt lat="24.124582" lon="120.812874">
        <ele>489.0</ele>
      </trkpt>
      <trkpt lat="24.124389" lon="120.813174">
        <ele>484.0</ele>
      </trkpt>
      <trkpt lat="24.124367" lon="120.813346">
        <ele>484.0</ele>
      </trkpt>
      <trkpt lat="24.124389" lon="120.813539">
        <ele>490.0</ele>
      </trkpt>
      <trkpt lat="24.124367" lon="120.813668">
        <ele>492.0</ele>
      </trkpt>
      <trkpt lat="24.124324" lon="120.813711">
        <ele>491.0</ele>
      </trkpt>
      <trkpt lat="24.124067" lon="120.813839">
        <ele>481.0</ele>
      </trkpt>
      <trkpt lat="24.124024" lon="120.813882">
        <ele>480.0</ele>
      </trkpt>
      <trkpt lat="24.123809" lon="120.814183">
        <ele>475.0</ele>
      </trkpt>
      <trkpt lat="24.123273" lon="120.814784">
        <ele>467.0</ele>
      </trkpt>
      <trkpt lat="24.123037" lon="120.814805">
        <ele>460.0</ele>
      </trkpt>
      <trkpt lat="24.12293" lon="120.814848">
        <ele>457.0</ele>
      </trkpt>
      <trkpt lat="24.122779" lon="120.814977">
        <ele>456.0</ele>
      </trkpt>
      <trkpt lat="24.122736" lon="120.815084">
        <ele>455.0</ele>
      </trkpt>
      <trkpt lat="24.122715" lon="120.815148">
        <ele>455.0</ele>
      </trkpt>
      <trkpt lat="24.122801" lon="120.815427">
        <ele>458.0</ele>
      </trkpt>
      <trkpt lat="24.122908" lon="120.815599">
        <ele>462.0</ele>
      </trkpt>
      <trkpt lat="24.12293" lon="120.815706">
        <ele>463.0</ele>
      </trkpt>
      <trkpt lat="24.12293" lon="120.815835">
        <ele>463.0</ele>
      </trkpt>
      <trkpt lat="24.122694" lon="120.816436">
        <ele>453.0</ele>
      </trkpt>
      <trkpt lat="24.122672" lon="120.816565">
        <ele>452.0</ele>
      </trkpt>
      <trkpt lat="24.122672" lon="120.81665">
        <ele>451.0</ele>
      </trkpt>
      <trkpt lat="24.122801" lon="120.816844">
        <ele>455.0</ele>
      </trkpt>
      <trkpt lat="24.122865" lon="120.816972">
        <ele>456.0</ele>
      </trkpt>
      <trkpt lat="24.122838" lon="120.817697">
        <ele>445.0</ele>
      </trkpt>
      <trkpt lat="24.122658" lon="120.818117">
        <ele>431.0</ele>
      </trkpt>
      <trkpt lat="24.122589" lon="120.817833">
        <ele>430.0</ele>
      </trkpt>
      <trkpt lat="24.122522" lon="120.817671">
        <ele>428.0</ele>
      </trkpt>
      <trkpt lat="24.122407" lon="120.817492">
        <ele>426.0</ele>
      </trkpt>
      <trkpt lat="24.122285" lon="120.817398">
        <ele>423.0</ele>
      </trkpt>
      <trkpt lat="24.122118" lon="120.81735">
        <ele>418.0</ele>
      </trkpt>
      <trkpt lat="24.121788" lon="120.81735">
        <ele>406.0</ele>
      </trkpt>
      <trkpt lat="24.121628" lon="120.817281">
        <ele>402.0</ele>
      </trkpt>
      <trkpt lat="24.121517" lon="120.817211">
        <ele>400.0</ele>
      </trkpt>
      <trkpt lat="24.121461" lon="120.817065">
        <ele>400.0</ele>
      </trkpt>
      <trkpt lat="24.121524" lon="120.816703">
        <ele>405.0</ele>
      </trkpt>
      <trkpt lat="24.121521" lon="120.816618">
        <ele>406.0</ele>
      </trkpt>
      <trkpt lat="24.121461" lon="120.816468">
        <ele>405.0</ele>
      </trkpt>
      <trkpt lat="24.121256" lon="120.816264">
        <ele>398.0</ele>
      </trkpt>
      <trkpt lat="24.121063" lon="120.815899">
        <ele>393.0</ele>
      </trkpt>
      <trkpt lat="24.120913" lon="120.815792">
        <ele>387.0</ele>
      </trkpt>
      <trkpt lat="24.12087" lon="120.815685">
        <ele>384.0</ele>
      </trkpt>
      <trkpt lat="24.120891" lon="120.81547">
        <ele>382.0</ele>
      </trkpt>
      <trkpt lat="24.120891" lon="120.815234">
        <ele>379.0</ele>
      </trkpt>
      <trkpt lat="24.120956" lon="120.815063">
        <ele>379.0</ele>
      </trkpt>
      <trkpt lat="24.121213" lon="120.814719">
        <ele>382.0</ele>
      </trkpt>
      <trkpt lat="24.121428" lon="120.81429">
        <ele>379.0</ele>
      </trkpt>
      <trkpt lat="24.121428" lon="120.814183">
        <ele>377.0</ele>
      </trkpt>
      <trkpt lat="24.121342" lon="120.81399">
        <ele>371.0</ele>
      </trkpt>
      <trkpt lat="24.121342" lon="120.813839">
        <ele>369.0</ele>
      </trkpt>
      <trkpt lat="24.121363" lon="120.813732">
        <ele>368.0</ele>
      </trkpt>
      <trkpt lat="24.121578" lon="120.813539">
        <ele>375.0</ele>
      </trkpt>
      <trkpt lat="24.121556" lon="120.813067">
        <ele>370.0</ele>
      </trkpt>
      <trkpt lat="24.121599" lon="120.812874">
        <ele>371.0</ele>
      </trkpt>
      <trkpt lat="24.121706" lon="120.812659">
        <ele>374.0</ele>
      </trkpt>
      <trkpt lat="24.121706" lon="120.812595">
        <ele>374.0</ele>
      </trkpt>
      <trkpt lat="24.121685" lon="120.812509">
        <ele>373.0</ele>
      </trkpt>
      <trkpt lat="24.121363" lon="120.812359">
        <ele>362.0</ele>
      </trkpt>
      <trkpt lat="24.121277" lon="120.812295">
        <ele>359.0</ele>
      </trkpt>
      <trkpt lat="24.12102" lon="120.81193">
        <ele>352.0</ele>
      </trkpt>
      <trkpt lat="24.120977" lon="120.81178">
        <ele>351.0</ele>
      </trkpt>
      <trkpt lat="24.12102" lon="120.811629">
        <ele>353.0</ele>
      </trkpt>
      <trkpt lat="24.121149" lon="120.811479">
        <ele>357.0</ele>
      </trkpt>
      <trkpt lat="24.121191" lon="120.811329">
        <ele>357.0</ele>
      </trkpt>
      <trkpt lat="24.121213" lon="120.810964">
        <ele>353.0</ele>
      </trkpt>
      <trkpt lat="24.121277" lon="120.810621">
        <ele>352.0</ele>
      </trkpt>
      <trkpt lat="24.121277" lon="120.810278">
        <ele>349.0</ele>
      </trkpt>
      <trkpt lat="24.121406" lon="120.809977">
        <ele>352.0</ele>
      </trkpt>
      <trkpt lat="24.121363" lon="120.80987">
        <ele>349.0</ele>
      </trkpt>
      <trkpt lat="24.12102" lon="120.809526">
        <ele>334.0</ele>
      </trkpt>
      <trkpt lat="24.120805" lon="120.809355">
        <ele>327.0</ele>
      </trkpt>
      <trkpt lat="24.120762" lon="120.809248">
        <ele>327.0</ele>
      </trkpt>
      <trkpt lat="24.120741" lon="120.809183">
        <ele>326.0</ele>
      </trkpt>
      <trkpt lat="24.120741" lon="120.809097">
        <ele>327.0</ele>
      </trkpt>
      <trkpt lat="24.120762" lon="120.809054">
        <ele>328.0</ele>
      </trkpt>
      <trkpt lat="24.120977" lon="120.809012">
        <ele>334.0</ele>
      </trkpt>
      <trkpt lat="24.121041" lon="120.808969">
        <ele>336.0</ele>
      </trkpt>
      <trkpt lat="24.121041" lon="120.808904">
        <ele>336.0</ele>
      </trkpt>
      <trkpt lat="24.12102" lon="120.80884">
        <ele>337.0</ele>
      </trkpt>
      <trkpt lat="24.120998" lon="120.808797">
        <ele>336.0</ele>
      </trkpt>
      <trkpt lat="24.120762" lon="120.808647">
        <ele>332.0</ele>
      </trkpt>
      <trkpt lat="24.120569" lon="120.808582">
        <ele>328.0</ele>
      </trkpt>
      <trkpt lat="24.120398" lon="120.808582">
        <ele>324.0</ele>
      </trkpt>
      <trkpt lat="24.120097" lon="120.80869">
        <ele>316.0</ele>
      </trkpt>
      <trkpt lat="24.119968" lon="120.808711">
        <ele>314.0</ele>
      </trkpt>
      <trkpt lat="24.11984" lon="120.808668">
        <ele>313.0</ele>
      </trkpt>
      <trkpt lat="24.119818" lon="120.808625">
        <ele>313.0</ele>
      </trkpt>
      <trkpt lat="24.119775" lon="120.808325">
        <ele>313.0</ele>
      </trkpt>
      <trkpt lat="24.119797" lon="120.808239">
        <ele>313.0</ele>
      </trkpt>
      <trkpt lat="24.119904" lon="120.807982">
        <ele>313.0</ele>
      </trkpt>
      <trkpt lat="24.11999" lon="120.807531">
        <ele>310.0</ele>
      </trkpt>
      <trkpt lat="24.120033" lon="120.807445">
        <ele>311.0</ele>
      </trkpt>
      <trkpt lat="24.120183" lon="120.807231">
        <ele>315.0</ele>
      </trkpt>
      <trkpt lat="24.120204" lon="120.807166">
        <ele>315.0</ele>
      </trkpt>
      <trkpt lat="24.120269" lon="120.806694">
        <ele>315.0</ele>
      </trkpt>
      <trkpt lat="24.12029" lon="120.806651">
        <ele>314.0</ele>
      </trkpt>
      <trkpt lat="24.120419" lon="120.806522">
        <ele>312.0</ele>
      </trkpt>
      <trkpt lat="24.120483" lon="120.806415">
        <ele>310.0</ele>
      </trkpt>
      <trkpt lat="24.120462" lon="120.806265">
        <ele>310.0</ele>
      </trkpt>
      <trkpt lat="24.120269" lon="120.805646">
        <ele>313.0</ele>
      </trkpt>
      <trkpt lat="24.120269" lon="120.805646">
        <ele>313.0</ele>
      </trkpt>
      <trkpt lat="24.120033" lon="120.804784">
        <ele>315.0</ele>
      </trkpt>
      <trkpt lat="24.11999" lon="120.804484">
        <ele>312.0</ele>
      </trkpt>
      <trkpt lat="24.11999" lon="120.804269">
        <ele>310.0</ele>
      </trkpt>
      <trkpt lat="24.119904" lon="120.804098">
        <ele>310.0</ele>
      </trkpt>
      <trkpt lat="24.119711" lon="120.803947">
        <ele>314.0</ele>
      </trkpt>
      <trkpt lat="24.119668" lon="120.803862">
        <ele>313.0</ele>
      </trkpt>
      <trkpt lat="24.119604" lon="120.803583">
        <ele>311.0</ele>
      </trkpt>
      <trkpt lat="24.119604" lon="120.803518">
        <ele>310.0</ele>
      </trkpt>
      <trkpt lat="24.119647" lon="120.803304">
        <ele>304.0</ele>
      </trkpt>
      <trkpt lat="24.119625" lon="120.803196">
        <ele>302.0</ele>
      </trkpt>
      <trkpt lat="24.119582" lon="120.803154">
        <ele>302.0</ele>
      </trkpt>
      <trkpt lat="24.119239" lon="120.803003">
        <ele>307.0</ele>
      </trkpt>
      <trkpt lat="24.119132" lon="120.802896">
        <ele>304.0</ele>
      </trkpt>
      <trkpt lat="24.119003" lon="120.802724">
        <ele>298.0</ele>
      </trkpt>
      <trkpt lat="24.118938" lon="120.802403">
        <ele>291.0</ele>
      </trkpt>
      <trkpt lat="24.118896" lon="120.80236">
        <ele>291.0</ele>
      </trkpt>
      <trkpt lat="24.11881" lon="120.80236">
        <ele>291.0</ele>
      </trkpt>
      <trkpt lat="24.118531" lon="120.802467">
        <ele>293.0</ele>
      </trkpt>
      <trkpt lat="24.118338" lon="120.802639">
        <ele>295.0</ele>
      </trkpt>
      <trkpt lat="24.11823" lon="120.802875">
        <ele>294.0</ele>
      </trkpt>
      <trkpt lat="24.118187" lon="120.803218">
        <ele>295.0</ele>
      </trkpt>
      <trkpt lat="24.118145" lon="120.803261">
        <ele>294.0</ele>
      </trkpt>
      <trkpt lat="24.118059" lon="120.803282">
        <ele>293.0</ele>
      </trkpt>
      <trkpt lat="24.117842" lon="120.802411">
        <ele>283.0</ele>
      </trkpt>
      <trkpt lat="24.117906" lon="120.802003">
        <ele>282.0</ele>
      </trkpt>
      <trkpt lat="24.117837" lon="120.801754">
        <ele>280.0</ele>
      </trkpt>
      <trkpt lat="24.117706" lon="120.801519">
        <ele>276.0</ele>
      </trkpt>
      <trkpt lat="24.117492" lon="120.801509">
        <ele>274.0</ele>
      </trkpt>
      <trkpt lat="24.117204" lon="120.800798">
        <ele>280.0</ele>
      </trkpt>
      <trkpt lat="24.117151" lon="120.800489">
        <ele>286.0</ele>
      </trkpt>
      <trkpt lat="24.117171" lon="120.800318">
        <ele>287.0</ele>
      </trkpt>
      <trkpt lat="24.117431" lon="120.799901">
        <ele>282.0</ele>
      </trkpt>
      <trkpt lat="24.117489" lon="120.799706">
        <ele>282.0</ele>
      </trkpt>
      <trkpt lat="24.117355" lon="120.799476">
        <ele>287.0</ele>
      </trkpt>
      <trkpt lat="24.117177" lon="120.799324">
        <ele>291.0</ele>
      </trkpt>
      <trkpt lat="24.117111" lon="120.799159">
        <ele>292.0</ele>
      </trkpt>
      <trkpt lat="24.117098" lon="120.797847">
        <ele>279.0</ele>
      </trkpt>
      <trkpt lat="24.117325" lon="120.797229">
        <ele>276.0</ele>
      </trkpt>
      <trkpt lat="24.117325" lon="120.797229">
        <ele>276.0</ele>
      </trkpt>
      <trkpt lat="24.1175" lon="120.796754">
        <ele>276.0</ele>
      </trkpt>
      <trkpt lat="24.117522" lon="120.796437">
        <ele>276.0</ele>
      </trkpt>
      <trkpt lat="24.11756" lon="120.796347">
        <ele>277.0</ele>
      </trkpt>
    </trkseg>
  </trk>
</gpx>
