<?xml version="1.0" encoding="UTF-8"?>
<gpx xmlns="http://www.topografix.com/GPX/1/1" xmlns:xsi="http://www.w3.org/2001/XMLSchema-instance" xsi:schemaLocation="http://www.topografix.com/GPX/1/1 http://www.topografix.com/GPX/1/1/gpx.xsd" version="1.1" creator="Martin Schneider">
  <wpt lat="24.024199" lon="120.827625">
    <ele>259.0</ele>
    <name>Start</name>
  </wpt>
  <wpt lat="24.040096" lon="120.85567">
    <ele>293.0</ele>
    <name>End</name>
  </wpt>
  <wpt lat="24.070197" lon="120.829466">
    <name>1</name>
    <desc>Fork</desc>
  </wpt>
  <wpt lat="24.074934" lon="120.828938">
    <ele>1175.0</ele>
    <name>Summit Dahengpingshan</name>
  </wpt>
  <trk>
    <name>45_Dahengpingshan</name>
    <trkseg>
      <trkpt lat="24.024199" lon="120.827625">
        <ele>259.0</ele>
      </trkpt>
      <trkpt lat="24.023995" lon="120.827193">
        <ele>259.0</ele>
      </trkpt>
      <trkpt lat="24.024074" lon="120.827229">
        <ele>259.0</ele>
      </trkpt>
      <trkpt lat="24.024246" lon="120.8271">
        <ele>259.0</ele>
      </trkpt>
      <trkpt lat="24.024332" lon="120.827014">
        <ele>258.0</ele>
      </trkpt>
      <trkpt lat="24.024332" lon="120.827014">
        <ele>258.0</ele>
      </trkpt>
      <trkpt lat="24.024503" lon="120.826349">
        <ele>256.0</ele>
      </trkpt>
      <trkpt lat="24.024503" lon="120.826349">
        <ele>256.0</ele>
      </trkpt>
      <trkpt lat="24.024911" lon="120.82621">
        <ele>252.0</ele>
      </trkpt>
      <trkpt lat="24.024997" lon="120.826113">
        <ele>251.0</ele>
      </trkpt>
      <trkpt lat="24.025416" lon="120.82672">
        <ele>243.0</ele>
      </trkpt>
      <trkpt lat="24.025553" lon="120.826817">
        <ele>240.0</ele>
      </trkpt>
      <trkpt lat="24.025718" lon="120.826851">
        <ele>237.0</ele>
      </trkpt>
      <trkpt lat="24.025718" lon="120.826851">
        <ele>237.0</ele>
      </trkpt>
      <trkpt lat="24.025851" lon="120.826844">
        <ele>234.0</ele>
      </trkpt>
      <trkpt lat="24.027404" lon="120.826636">
        <ele>239.0</ele>
      </trkpt>
      <trkpt lat="24.027404" lon="120.826636">
        <ele>239.0</ele>
      </trkpt>
      <trkpt lat="24.02766" lon="120.82669">
        <ele>243.0</ele>
      </trkpt>
      <trkpt lat="24.027753" lon="120.826738">
        <ele>244.0</ele>
      </trkpt>
      <trkpt lat="24.027753" lon="120.826738">
        <ele>244.0</ele>
      </trkpt>
      <trkpt lat="24.027826" lon="120.826805">
        <ele>246.0</ele>
      </trkpt>
      <trkpt lat="24.028069" lon="120.827163">
        <ele>249.0</ele>
      </trkpt>
      <trkpt lat="24.028194" lon="120.827315">
        <ele>251.0</ele>
      </trkpt>
      <trkpt lat="24.028258" lon="120.827336">
        <ele>252.0</ele>
      </trkpt>
      <trkpt lat="24.028387" lon="120.827315">
        <ele>254.0</ele>
      </trkpt>
      <trkpt lat="24.028387" lon="120.827315">
        <ele>254.0</ele>
      </trkpt>
      <trkpt lat="24.028258" lon="120.827336">
        <ele>252.0</ele>
      </trkpt>
      <trkpt lat="24.028194" lon="120.827315">
        <ele>251.0</ele>
      </trkpt>
      <trkpt lat="24.0281123" lon="120.8272156">
        <ele>250.0</ele>
      </trkpt>
      <trkpt lat="24.028112" lon="120.827216">
        <ele>250.0</ele>
      </trkpt>
      <trkpt lat="24.028194" lon="120.827315">
        <ele>251.0</ele>
      </trkpt>
      <trkpt lat="24.028258" lon="120.827336">
        <ele>252.0</ele>
      </trkpt>
      <trkpt lat="24.028387" lon="120.827315">
        <ele>254.0</ele>
      </trkpt>
      <trkpt lat="24.028451" lon="120.827272">
        <ele>256.0</ele>
      </trkpt>
      <trkpt lat="24.028513" lon="120.827189">
        <ele>257.0</ele>
      </trkpt>
      <trkpt lat="24.028601" lon="120.827224">
        <ele>258.0</ele>
      </trkpt>
      <trkpt lat="24.028633" lon="120.827313">
        <ele>259.0</ele>
      </trkpt>
      <trkpt lat="24.028544" lon="120.827598">
        <ele>257.0</ele>
      </trkpt>
      <trkpt lat="24.028542" lon="120.827769">
        <ele>258.0</ele>
      </trkpt>
      <trkpt lat="24.028682" lon="120.827886">
        <ele>260.0</ele>
      </trkpt>
      <trkpt lat="24.028716" lon="120.827952">
        <ele>261.0</ele>
      </trkpt>
      <trkpt lat="24.02871" lon="120.82804">
        <ele>261.0</ele>
      </trkpt>
      <trkpt lat="24.02862" lon="120.82836">
        <ele>260.0</ele>
      </trkpt>
      <trkpt lat="24.028685" lon="120.828427">
        <ele>260.0</ele>
      </trkpt>
      <trkpt lat="24.028815" lon="120.828513">
        <ele>262.0</ele>
      </trkpt>
      <trkpt lat="24.029001" lon="120.828806">
        <ele>264.0</ele>
      </trkpt>
      <trkpt lat="24.029104" lon="120.829047">
        <ele>265.0</ele>
      </trkpt>
      <trkpt lat="24.029159" lon="120.829199">
        <ele>266.0</ele>
      </trkpt>
      <trkpt lat="24.029484" lon="120.82945">
        <ele>275.0</ele>
      </trkpt>
      <trkpt lat="24.029549" lon="120.829577">
        <ele>276.0</ele>
      </trkpt>
      <trkpt lat="24.029603" lon="120.830002">
        <ele>276.0</ele>
      </trkpt>
      <trkpt lat="24.029679" lon="120.830161">
        <ele>277.0</ele>
      </trkpt>
      <trkpt lat="24.029834" lon="120.830377">
        <ele>279.0</ele>
      </trkpt>
      <trkpt lat="24.030375" lon="120.830473">
        <ele>290.0</ele>
      </trkpt>
      <trkpt lat="24.03048" lon="120.830535">
        <ele>292.0</ele>
      </trkpt>
      <trkpt lat="24.030507" lon="120.830666">
        <ele>291.0</ele>
      </trkpt>
      <trkpt lat="24.030505" lon="120.830788">
        <ele>289.0</ele>
      </trkpt>
      <trkpt lat="24.030641" lon="120.830975">
        <ele>291.0</ele>
      </trkpt>
      <trkpt lat="24.030712" lon="120.831161">
        <ele>292.0</ele>
      </trkpt>
      <trkpt lat="24.030601" lon="120.831712">
        <ele>288.0</ele>
      </trkpt>
      <trkpt lat="24.030676" lon="120.831872">
        <ele>288.0</ele>
      </trkpt>
      <trkpt lat="24.031041" lon="120.832224">
        <ele>295.0</ele>
      </trkpt>
      <trkpt lat="24.032193" lon="120.832826">
        <ele>324.0</ele>
      </trkpt>
      <trkpt lat="24.032253" lon="120.832861">
        <ele>325.0</ele>
      </trkpt>
      <trkpt lat="24.032723" lon="120.832729">
        <ele>336.0</ele>
      </trkpt>
      <trkpt lat="24.033009" lon="120.83277">
        <ele>341.0</ele>
      </trkpt>
      <trkpt lat="24.033211" lon="120.83288">
        <ele>344.0</ele>
      </trkpt>
      <trkpt lat="24.033416" lon="120.833176">
        <ele>348.0</ele>
      </trkpt>
      <trkpt lat="24.033455" lon="120.833486">
        <ele>349.0</ele>
      </trkpt>
      <trkpt lat="24.033551" lon="120.833588">
        <ele>353.0</ele>
      </trkpt>
      <trkpt lat="24.033925" lon="120.833807">
        <ele>363.0</ele>
      </trkpt>
      <trkpt lat="24.034064" lon="120.833978">
        <ele>363.0</ele>
      </trkpt>
      <trkpt lat="24.034154" lon="120.83404">
        <ele>363.0</ele>
      </trkpt>
      <trkpt lat="24.034367" lon="120.834253">
        <ele>367.0</ele>
      </trkpt>
      <trkpt lat="24.034469" lon="120.83438">
        <ele>369.0</ele>
      </trkpt>
      <trkpt lat="24.034675" lon="120.834526">
        <ele>372.0</ele>
      </trkpt>
      <trkpt lat="24.034607" lon="120.834222">
        <ele>375.0</ele>
      </trkpt>
      <trkpt lat="24.03458" lon="120.83393">
        <ele>381.0</ele>
      </trkpt>
      <trkpt lat="24.034628" lon="120.833618">
        <ele>392.0</ele>
      </trkpt>
      <trkpt lat="24.034731" lon="120.833397">
        <ele>402.0</ele>
      </trkpt>
      <trkpt lat="24.034808" lon="120.833147">
        <ele>410.0</ele>
      </trkpt>
      <trkpt lat="24.034842" lon="120.832948">
        <ele>415.0</ele>
      </trkpt>
      <trkpt lat="24.03483" lon="120.832707">
        <ele>418.0</ele>
      </trkpt>
      <trkpt lat="24.034847" lon="120.832319">
        <ele>425.0</ele>
      </trkpt>
      <trkpt lat="24.034913" lon="120.832303">
        <ele>430.0</ele>
      </trkpt>
      <trkpt lat="24.034977" lon="120.832342">
        <ele>433.0</ele>
      </trkpt>
      <trkpt lat="24.035066" lon="120.832489">
        <ele>433.0</ele>
      </trkpt>
      <trkpt lat="24.035135" lon="120.832718">
        <ele>429.0</ele>
      </trkpt>
      <trkpt lat="24.035168" lon="120.832941">
        <ele>424.0</ele>
      </trkpt>
      <trkpt lat="24.035258" lon="120.83303">
        <ele>423.0</ele>
      </trkpt>
      <trkpt lat="24.035452" lon="120.833043">
        <ele>423.0</ele>
      </trkpt>
      <trkpt lat="24.035483" lon="120.832875">
        <ele>429.0</ele>
      </trkpt>
      <trkpt lat="24.035484" lon="120.832654">
        <ele>436.0</ele>
      </trkpt>
      <trkpt lat="24.035559" lon="120.832392">
        <ele>446.0</ele>
      </trkpt>
      <trkpt lat="24.036043" lon="120.831546">
        <ele>481.0</ele>
      </trkpt>
      <trkpt lat="24.036109" lon="120.831505">
        <ele>483.0</ele>
      </trkpt>
      <trkpt lat="24.036109" lon="120.831505">
        <ele>483.0</ele>
      </trkpt>
      <trkpt lat="24.036373" lon="120.831341">
        <ele>492.0</ele>
      </trkpt>
      <trkpt lat="24.036885" lon="120.831203">
        <ele>504.0</ele>
      </trkpt>
      <trkpt lat="24.037116" lon="120.831288">
        <ele>502.0</ele>
      </trkpt>
      <trkpt lat="24.037379" lon="120.831015">
        <ele>514.0</ele>
      </trkpt>
      <trkpt lat="24.037759" lon="120.83086">
        <ele>527.0</ele>
      </trkpt>
      <trkpt lat="24.037861" lon="120.831107">
        <ele>524.0</ele>
      </trkpt>
      <trkpt lat="24.037836" lon="120.831428">
        <ele>515.0</ele>
      </trkpt>
      <trkpt lat="24.037852" lon="120.831639">
        <ele>510.0</ele>
      </trkpt>
      <trkpt lat="24.038043" lon="120.831653">
        <ele>517.0</ele>
      </trkpt>
      <trkpt lat="24.03817" lon="120.831511">
        <ele>525.0</ele>
      </trkpt>
      <trkpt lat="24.038306" lon="120.83103">
        <ele>541.0</ele>
      </trkpt>
      <trkpt lat="24.038642" lon="120.830527">
        <ele>556.0</ele>
      </trkpt>
      <trkpt lat="24.039229" lon="120.829507">
        <ele>574.0</ele>
      </trkpt>
      <trkpt lat="24.039358" lon="120.829006">
        <ele>580.0</ele>
      </trkpt>
      <trkpt lat="24.039492" lon="120.828794">
        <ele>586.0</ele>
      </trkpt>
      <trkpt lat="24.039684" lon="120.828579">
        <ele>592.0</ele>
      </trkpt>
      <trkpt lat="24.039758" lon="120.828452">
        <ele>594.0</ele>
      </trkpt>
      <trkpt lat="24.039836" lon="120.828231">
        <ele>600.0</ele>
      </trkpt>
      <trkpt lat="24.040083" lon="120.827792">
        <ele>613.0</ele>
      </trkpt>
      <trkpt lat="24.040356" lon="120.827568">
        <ele>621.0</ele>
      </trkpt>
      <trkpt lat="24.040621" lon="120.827223">
        <ele>633.0</ele>
      </trkpt>
      <trkpt lat="24.040791" lon="120.827269">
        <ele>630.0</ele>
      </trkpt>
      <trkpt lat="24.0408" lon="120.827101">
        <ele>636.0</ele>
      </trkpt>
      <trkpt lat="24.040954" lon="120.82698">
        <ele>644.0</ele>
      </trkpt>
      <trkpt lat="24.040834" lon="120.826784">
        <ele>645.0</ele>
      </trkpt>
      <trkpt lat="24.041124" lon="120.826737">
        <ele>656.0</ele>
      </trkpt>
      <trkpt lat="24.04109" lon="120.826522">
        <ele>663.0</ele>
      </trkpt>
      <trkpt lat="24.041192" lon="120.826466">
        <ele>668.0</ele>
      </trkpt>
      <trkpt lat="24.041235" lon="120.826354">
        <ele>674.0</ele>
      </trkpt>
      <trkpt lat="24.041244" lon="120.826214">
        <ele>680.0</ele>
      </trkpt>
      <trkpt lat="24.041568" lon="120.826261">
        <ele>684.0</ele>
      </trkpt>
      <trkpt lat="24.0413652" lon="120.8259879">
        <ele>691.0</ele>
      </trkpt>
      <trkpt lat="24.041365" lon="120.825988">
        <ele>691.0</ele>
      </trkpt>
      <trkpt lat="24.041346" lon="120.825962">
        <ele>692.0</ele>
      </trkpt>
      <trkpt lat="24.041789" lon="120.826092">
        <ele>699.0</ele>
      </trkpt>
      <trkpt lat="24.0419" lon="120.825915">
        <ele>710.0</ele>
      </trkpt>
      <trkpt lat="24.041704" lon="120.825831">
        <ele>702.0</ele>
      </trkpt>
      <trkpt lat="24.041585" lon="120.825728">
        <ele>704.0</ele>
      </trkpt>
      <trkpt lat="24.041508" lon="120.825625">
        <ele>708.0</ele>
      </trkpt>
      <trkpt lat="24.041329" lon="120.825569">
        <ele>710.0</ele>
      </trkpt>
      <trkpt lat="24.041107" lon="120.825532">
        <ele>711.0</ele>
      </trkpt>
      <trkpt lat="24.041056" lon="120.825401">
        <ele>718.0</ele>
      </trkpt>
      <trkpt lat="24.040922" lon="120.824745">
        <ele>752.0</ele>
      </trkpt>
      <trkpt lat="24.040732" lon="120.824729">
        <ele>750.0</ele>
      </trkpt>
      <trkpt lat="24.040458" lon="120.824356">
        <ele>748.0</ele>
      </trkpt>
      <trkpt lat="24.040465" lon="120.824282">
        <ele>750.0</ele>
      </trkpt>
      <trkpt lat="24.040465" lon="120.824282">
        <ele>750.0</ele>
      </trkpt>
      <trkpt lat="24.040485" lon="120.824053">
        <ele>753.0</ele>
      </trkpt>
      <trkpt lat="24.040539" lon="120.823875">
        <ele>756.0</ele>
      </trkpt>
      <trkpt lat="24.041041" lon="120.823273">
        <ele>773.0</ele>
      </trkpt>
      <trkpt lat="24.041041" lon="120.823273">
        <ele>773.0</ele>
      </trkpt>
      <trkpt lat="24.041209" lon="120.823365">
        <ele>779.0</ele>
      </trkpt>
      <trkpt lat="24.041371" lon="120.823318">
        <ele>778.0</ele>
      </trkpt>
      <trkpt lat="24.041882" lon="120.823461">
        <ele>778.0</ele>
      </trkpt>
      <trkpt lat="24.042033" lon="120.823472">
        <ele>777.0</ele>
      </trkpt>
      <trkpt lat="24.042033" lon="120.823472">
        <ele>777.0</ele>
      </trkpt>
      <trkpt lat="24.042054" lon="120.823474">
        <ele>777.0</ele>
      </trkpt>
      <trkpt lat="24.042506" lon="120.823972">
        <ele>768.0</ele>
      </trkpt>
      <trkpt lat="24.042631" lon="120.824236">
        <ele>768.0</ele>
      </trkpt>
      <trkpt lat="24.042631" lon="120.824236">
        <ele>768.0</ele>
      </trkpt>
      <trkpt lat="24.042683" lon="120.824344">
        <ele>769.0</ele>
      </trkpt>
      <trkpt lat="24.042681" lon="120.824515">
        <ele>768.0</ele>
      </trkpt>
      <trkpt lat="24.042681" lon="120.824515">
        <ele>768.0</ele>
      </trkpt>
      <trkpt lat="24.042768" lon="120.824757">
        <ele>771.0</ele>
      </trkpt>
      <trkpt lat="24.042922" lon="120.824968">
        <ele>779.0</ele>
      </trkpt>
      <trkpt lat="24.043027" lon="120.825185">
        <ele>784.0</ele>
      </trkpt>
      <trkpt lat="24.043476" lon="120.825453">
        <ele>807.0</ele>
      </trkpt>
      <trkpt lat="24.043606" lon="120.825714">
        <ele>815.0</ele>
      </trkpt>
      <trkpt lat="24.044419" lon="120.826163">
        <ele>838.0</ele>
      </trkpt>
      <trkpt lat="24.04454" lon="120.826028">
        <ele>846.0</ele>
      </trkpt>
      <trkpt lat="24.044634" lon="120.826021">
        <ele>850.0</ele>
      </trkpt>
      <trkpt lat="24.044708" lon="120.826077">
        <ele>851.0</ele>
      </trkpt>
      <trkpt lat="24.044796" lon="120.826024">
        <ele>855.0</ele>
      </trkpt>
      <trkpt lat="24.044949" lon="120.82597">
        <ele>863.0</ele>
      </trkpt>
      <trkpt lat="24.045041" lon="120.82588">
        <ele>869.0</ele>
      </trkpt>
      <trkpt lat="24.044989" lon="120.825722">
        <ele>869.0</ele>
      </trkpt>
      <trkpt lat="24.045151" lon="120.825657">
        <ele>876.0</ele>
      </trkpt>
      <trkpt lat="24.045243" lon="120.825552">
        <ele>881.0</ele>
      </trkpt>
      <trkpt lat="24.04529" lon="120.825557">
        <ele>883.0</ele>
      </trkpt>
      <trkpt lat="24.045325" lon="120.825521">
        <ele>885.0</ele>
      </trkpt>
      <trkpt lat="24.045325" lon="120.825419">
        <ele>886.0</ele>
      </trkpt>
      <trkpt lat="24.045592" lon="120.825317">
        <ele>902.0</ele>
      </trkpt>
      <trkpt lat="24.045645" lon="120.825207">
        <ele>907.0</ele>
      </trkpt>
      <trkpt lat="24.046159" lon="120.82509">
        <ele>931.0</ele>
      </trkpt>
      <trkpt lat="24.046195" lon="120.825051">
        <ele>933.0</ele>
      </trkpt>
      <trkpt lat="24.046298" lon="120.825041">
        <ele>937.0</ele>
      </trkpt>
      <trkpt lat="24.046381" lon="120.825001">
        <ele>940.0</ele>
      </trkpt>
      <trkpt lat="24.046618" lon="120.824981">
        <ele>946.0</ele>
      </trkpt>
      <trkpt lat="24.047149" lon="120.825051">
        <ele>960.0</ele>
      </trkpt>
      <trkpt lat="24.047361" lon="120.82512">
        <ele>964.0</ele>
      </trkpt>
      <trkpt lat="24.047581" lon="120.825137">
        <ele>964.0</ele>
      </trkpt>
      <trkpt lat="24.04764" lon="120.82511">
        <ele>963.0</ele>
      </trkpt>
      <trkpt lat="24.047744" lon="120.82513">
        <ele>958.0</ele>
      </trkpt>
      <trkpt lat="24.047814" lon="120.825072">
        <ele>956.0</ele>
      </trkpt>
      <trkpt lat="24.047944" lon="120.8251">
        <ele>950.0</ele>
      </trkpt>
      <trkpt lat="24.048012" lon="120.825096">
        <ele>947.0</ele>
      </trkpt>
      <trkpt lat="24.048442" lon="120.825251">
        <ele>940.0</ele>
      </trkpt>
      <trkpt lat="24.048549" lon="120.825311">
        <ele>942.0</ele>
      </trkpt>
      <trkpt lat="24.048681" lon="120.825511">
        <ele>952.0</ele>
      </trkpt>
      <trkpt lat="24.048846" lon="120.825602">
        <ele>957.0</ele>
      </trkpt>
      <trkpt lat="24.0491" lon="120.825683">
        <ele>962.0</ele>
      </trkpt>
      <trkpt lat="24.049278" lon="120.825805">
        <ele>966.0</ele>
      </trkpt>
      <trkpt lat="24.049713" lon="120.825999">
        <ele>951.0</ele>
      </trkpt>
      <trkpt lat="24.049786" lon="120.825955">
        <ele>948.0</ele>
      </trkpt>
      <trkpt lat="24.049907" lon="120.826024">
        <ele>946.0</ele>
      </trkpt>
      <trkpt lat="24.049991" lon="120.826098">
        <ele>948.0</ele>
      </trkpt>
      <trkpt lat="24.049963" lon="120.826165">
        <ele>952.0</ele>
      </trkpt>
      <trkpt lat="24.049977" lon="120.826218">
        <ele>954.0</ele>
      </trkpt>
      <trkpt lat="24.050173" lon="120.826277">
        <ele>958.0</ele>
      </trkpt>
      <trkpt lat="24.050537" lon="120.826465">
        <ele>974.0</ele>
      </trkpt>
      <trkpt lat="24.050717" lon="120.826524">
        <ele>981.0</ele>
      </trkpt>
      <trkpt lat="24.05104" lon="120.826775">
        <ele>985.0</ele>
      </trkpt>
      <trkpt lat="24.051055" lon="120.826748">
        <ele>985.0</ele>
      </trkpt>
      <trkpt lat="24.051075" lon="120.826743">
        <ele>984.0</ele>
      </trkpt>
      <trkpt lat="24.051496" lon="120.826877">
        <ele>972.0</ele>
      </trkpt>
      <trkpt lat="24.052337" lon="120.82727">
        <ele>980.0</ele>
      </trkpt>
      <trkpt lat="24.052698" lon="120.827407">
        <ele>978.0</ele>
      </trkpt>
      <trkpt lat="24.053247" lon="120.827464">
        <ele>970.0</ele>
      </trkpt>
      <trkpt lat="24.053626" lon="120.827692">
        <ele>962.0</ele>
      </trkpt>
      <trkpt lat="24.053626" lon="120.827692">
        <ele>962.0</ele>
      </trkpt>
      <trkpt lat="24.054136" lon="120.827807">
        <ele>958.0</ele>
      </trkpt>
      <trkpt lat="24.0571037" lon="120.8281704">
        <ele>1006.0</ele>
      </trkpt>
      <trkpt lat="24.057439" lon="120.828335">
        <ele>1017.0</ele>
      </trkpt>
      <trkpt lat="24.057806" lon="120.82845">
        <ele>1004.0</ele>
      </trkpt>
      <trkpt lat="24.058301" lon="120.828335">
        <ele>993.0</ele>
      </trkpt>
      <trkpt lat="24.059151" lon="120.828436">
        <ele>978.0</ele>
      </trkpt>
      <trkpt lat="24.059674" lon="120.828479">
        <ele>978.0</ele>
      </trkpt>
      <trkpt lat="24.060039" lon="120.828436">
        <ele>978.0</ele>
      </trkpt>
      <trkpt lat="24.060509" lon="120.828493">
        <ele>986.0</ele>
      </trkpt>
      <trkpt lat="24.060836" lon="120.828565">
        <ele>995.0</ele>
      </trkpt>
      <trkpt lat="24.061163" lon="120.82875">
        <ele>1003.0</ele>
      </trkpt>
      <trkpt lat="24.06145" lon="120.828965">
        <ele>1012.0</ele>
      </trkpt>
      <trkpt lat="24.061868" lon="120.829065">
        <ele>1018.0</ele>
      </trkpt>
      <trkpt lat="24.062873" lon="120.829209">
        <ele>1025.0</ele>
      </trkpt>
      <trkpt lat="24.063135" lon="120.829066">
        <ele>1015.0</ele>
      </trkpt>
      <trkpt lat="24.063945" lon="120.829452">
        <ele>1010.0</ele>
      </trkpt>
      <trkpt lat="24.064363" lon="120.82951">
        <ele>1003.0</ele>
      </trkpt>
      <trkpt lat="24.065198" lon="120.829767">
        <ele>1001.0</ele>
      </trkpt>
      <trkpt lat="24.066243" lon="120.829881">
        <ele>1014.0</ele>
      </trkpt>
      <trkpt lat="24.066596" lon="120.829996">
        <ele>1022.0</ele>
      </trkpt>
      <trkpt lat="24.066936" lon="120.830053">
        <ele>1029.0</ele>
      </trkpt>
      <trkpt lat="24.067275" lon="120.830053">
        <ele>1039.0</ele>
      </trkpt>
      <trkpt lat="24.067432" lon="120.83001">
        <ele>1046.0</ele>
      </trkpt>
      <trkpt lat="24.067824" lon="120.829996">
        <ele>1057.0</ele>
      </trkpt>
      <trkpt lat="24.068085" lon="120.82991">
        <ele>1059.0</ele>
      </trkpt>
      <trkpt lat="24.068347" lon="120.829767">
        <ele>1058.0</ele>
      </trkpt>
      <trkpt lat="24.068595" lon="120.829682">
        <ele>1059.0</ele>
      </trkpt>
      <trkpt lat="24.068895" lon="120.829682">
        <ele>1067.0</ele>
      </trkpt>
      <trkpt lat="24.0690968" lon="120.8297305">
        <ele>1074.0</ele>
      </trkpt>
      <trkpt lat="24.069365" lon="120.829795">
        <ele>1084.0</ele>
      </trkpt>
      <trkpt lat="24.069548" lon="120.829738">
        <ele>1088.0</ele>
      </trkpt>
      <trkpt lat="24.069757" lon="120.829581">
        <ele>1090.0</ele>
      </trkpt>
      <trkpt lat="24.070102" lon="120.829501">
        <ele>1099.0</ele>
      </trkpt>
      <trkpt lat="24.070178" lon="120.82947">
        <ele>1102.0</ele>
      </trkpt>
      <trkpt lat="24.0702098" lon="120.8294467">
        <ele>1103.0</ele>
      </trkpt>
      <trkpt lat="24.07029" lon="120.829388">
        <ele>1106.0</ele>
      </trkpt>
      <trkpt lat="24.070397" lon="120.829361">
        <ele>1111.0</ele>
      </trkpt>
      <trkpt lat="24.070919" lon="120.829353">
        <ele>1136.0</ele>
      </trkpt>
      <trkpt lat="24.07108" lon="120.829313">
        <ele>1138.0</ele>
      </trkpt>
      <trkpt lat="24.071221" lon="120.829227">
        <ele>1140.0</ele>
      </trkpt>
      <trkpt lat="24.071312" lon="120.829198">
        <ele>1142.0</ele>
      </trkpt>
      <trkpt lat="24.071364" lon="120.829206">
        <ele>1142.0</ele>
      </trkpt>
      <trkpt lat="24.071453" lon="120.829271">
        <ele>1140.0</ele>
      </trkpt>
      <trkpt lat="24.071525" lon="120.82926">
        <ele>1141.0</ele>
      </trkpt>
      <trkpt lat="24.07169" lon="120.829321">
        <ele>1140.0</ele>
      </trkpt>
      <trkpt lat="24.071818" lon="120.829292">
        <ele>1140.0</ele>
      </trkpt>
      <trkpt lat="24.071991" lon="120.829349">
        <ele>1138.0</ele>
      </trkpt>
      <trkpt lat="24.07216" lon="120.829383">
        <ele>1136.0</ele>
      </trkpt>
      <trkpt lat="24.07229" lon="120.829337">
        <ele>1138.0</ele>
      </trkpt>
      <trkpt lat="24.072448" lon="120.829391">
        <ele>1135.0</ele>
      </trkpt>
      <trkpt lat="24.072518" lon="120.829357">
        <ele>1136.0</ele>
      </trkpt>
      <trkpt lat="24.072553" lon="120.829276">
        <ele>1138.0</ele>
      </trkpt>
      <trkpt lat="24.072615" lon="120.829214">
        <ele>1139.0</ele>
      </trkpt>
      <trkpt lat="24.072678" lon="120.829181">
        <ele>1138.0</ele>
      </trkpt>
      <trkpt lat="24.072837" lon="120.829173">
        <ele>1133.0</ele>
      </trkpt>
      <trkpt lat="24.072944" lon="120.829127">
        <ele>1128.0</ele>
      </trkpt>
      <trkpt lat="24.073036" lon="120.829048">
        <ele>1121.0</ele>
      </trkpt>
      <trkpt lat="24.073171" lon="120.829005">
        <ele>1115.0</ele>
      </trkpt>
      <trkpt lat="24.073357" lon="120.828986">
        <ele>1111.0</ele>
      </trkpt>
      <trkpt lat="24.073383" lon="120.828947">
        <ele>1110.0</ele>
      </trkpt>
      <trkpt lat="24.073573" lon="120.828899">
        <ele>1113.0</ele>
      </trkpt>
      <trkpt lat="24.073705" lon="120.82889">
        <ele>1116.0</ele>
      </trkpt>
      <trkpt lat="24.073934" lon="120.828841">
        <ele>1119.0</ele>
      </trkpt>
      <trkpt lat="24.074115" lon="120.82884">
        <ele>1124.0</ele>
      </trkpt>
      <trkpt lat="24.074156" lon="120.82886">
        <ele>1125.0</ele>
      </trkpt>
      <trkpt lat="24.074193" lon="120.828909">
        <ele>1129.0</ele>
      </trkpt>
      <trkpt lat="24.074366" lon="120.828949">
        <ele>1141.0</ele>
      </trkpt>
      <trkpt lat="24.074465" lon="120.828922">
        <ele>1146.0</ele>
      </trkpt>
      <trkpt lat="24.074536" lon="120.828921">
        <ele>1151.0</ele>
      </trkpt>
      <trkpt lat="24.074575" lon="120.828938">
        <ele>1153.0</ele>
      </trkpt>
      <trkpt lat="24.074661" lon="120.829023">
        <ele>1159.0</ele>
      </trkpt>
      <trkpt lat="24.074857" lon="120.82893">
        <ele>1170.0</ele>
      </trkpt>
      <trkpt lat="24.074934" lon="120.828938">
        <ele>1175.0</ele>
      </trkpt>
      <trkpt lat="24.075078" lon="120.828951">
        <ele>1176.0</ele>
      </trkpt>
      <trkpt lat="24.075227" lon="120.828932">
        <ele>1172.0</ele>
      </trkpt>
      <trkpt lat="24.075605" lon="120.828722">
        <ele>1164.0</ele>
      </trkpt>
      <trkpt lat="24.075788" lon="120.828545">
        <ele>1161.0</ele>
      </trkpt>
      <trkpt lat="24.075997" lon="120.828459">
        <ele>1156.0</ele>
      </trkpt>
      <trkpt lat="24.076162" lon="120.828456">
        <ele>1150.0</ele>
      </trkpt>
      <trkpt lat="24.076358" lon="120.828353">
        <ele>1145.0</ele>
      </trkpt>
      <trkpt lat="24.076581" lon="120.828454">
        <ele>1134.0</ele>
      </trkpt>
      <trkpt lat="24.07713" lon="120.828378">
        <ele>1111.0</ele>
      </trkpt>
      <trkpt lat="24.077511" lon="120.828424">
        <ele>1091.0</ele>
      </trkpt>
      <trkpt lat="24.077632" lon="120.828381">
        <ele>1088.0</ele>
      </trkpt>
      <trkpt lat="24.077709" lon="120.828272">
        <ele>1083.0</ele>
      </trkpt>
      <trkpt lat="24.077803" lon="120.828235">
        <ele>1078.0</ele>
      </trkpt>
      <trkpt lat="24.078032" lon="120.828334">
        <ele>1074.0</ele>
      </trkpt>
      <trkpt lat="24.078144" lon="120.828298">
        <ele>1069.0</ele>
      </trkpt>
      <trkpt lat="24.07841" lon="120.828401">
        <ele>1062.0</ele>
      </trkpt>
      <trkpt lat="24.078646" lon="120.828416">
        <ele>1064.0</ele>
      </trkpt>
      <trkpt lat="24.078841" lon="120.828503">
        <ele>1065.0</ele>
      </trkpt>
      <trkpt lat="24.079206" lon="120.82842">
        <ele>1071.0</ele>
      </trkpt>
      <trkpt lat="24.079635" lon="120.828474">
        <ele>1079.0</ele>
      </trkpt>
      <trkpt lat="24.07975" lon="120.828597">
        <ele>1080.0</ele>
      </trkpt>
      <trkpt lat="24.07983" lon="120.828629">
        <ele>1081.0</ele>
      </trkpt>
      <trkpt lat="24.08017" lon="120.828507">
        <ele>1085.0</ele>
      </trkpt>
      <trkpt lat="24.08048" lon="120.828545">
        <ele>1083.0</ele>
      </trkpt>
      <trkpt lat="24.080639" lon="120.828537">
        <ele>1082.0</ele>
      </trkpt>
      <trkpt lat="24.0809" lon="120.828401">
        <ele>1081.0</ele>
      </trkpt>
      <trkpt lat="24.081066" lon="120.82838">
        <ele>1084.0</ele>
      </trkpt>
      <trkpt lat="24.081289" lon="120.828417">
        <ele>1088.0</ele>
      </trkpt>
      <trkpt lat="24.081465" lon="120.828447">
        <ele>1091.0</ele>
      </trkpt>
      <trkpt lat="24.081887" lon="120.828405">
        <ele>1106.0</ele>
      </trkpt>
      <trkpt lat="24.081949" lon="120.82848">
        <ele>1110.0</ele>
      </trkpt>
      <trkpt lat="24.08213" lon="120.828573">
        <ele>1120.0</ele>
      </trkpt>
      <trkpt lat="24.082202" lon="120.828456">
        <ele>1124.0</ele>
      </trkpt>
      <trkpt lat="24.082465" lon="120.828544">
        <ele>1137.0</ele>
      </trkpt>
      <trkpt lat="24.082957" lon="120.828712">
        <ele>1136.0</ele>
      </trkpt>
      <trkpt lat="24.083035" lon="120.828717">
        <ele>1136.0</ele>
      </trkpt>
      <trkpt lat="24.083234" lon="120.828756">
        <ele>1136.0</ele>
      </trkpt>
      <trkpt lat="24.083272" lon="120.828782">
        <ele>1136.0</ele>
      </trkpt>
      <trkpt lat="24.083552" lon="120.828884">
        <ele>1131.0</ele>
      </trkpt>
      <trkpt lat="24.083648" lon="120.828878">
        <ele>1129.0</ele>
      </trkpt>
      <trkpt lat="24.083666" lon="120.828867">
        <ele>1129.0</ele>
      </trkpt>
      <trkpt lat="24.083713" lon="120.828773">
        <ele>1128.0</ele>
      </trkpt>
      <trkpt lat="24.083843" lon="120.828675">
        <ele>1125.0</ele>
      </trkpt>
      <trkpt lat="24.084247" lon="120.828593">
        <ele>1118.0</ele>
      </trkpt>
      <trkpt lat="24.08447" lon="120.828586">
        <ele>1110.0</ele>
      </trkpt>
      <trkpt lat="24.084521" lon="120.828603">
        <ele>1108.0</ele>
      </trkpt>
      <trkpt lat="24.084628" lon="120.82858">
        <ele>1105.0</ele>
      </trkpt>
      <trkpt lat="24.084768" lon="120.828582">
        <ele>1101.0</ele>
      </trkpt>
      <trkpt lat="24.084897" lon="120.828617">
        <ele>1096.0</ele>
      </trkpt>
      <trkpt lat="24.084994" lon="120.828608">
        <ele>1093.0</ele>
      </trkpt>
      <trkpt lat="24.085062" lon="120.828624">
        <ele>1089.0</ele>
      </trkpt>
      <trkpt lat="24.085143" lon="120.828597">
        <ele>1087.0</ele>
      </trkpt>
      <trkpt lat="24.085226" lon="120.828487">
        <ele>1088.0</ele>
      </trkpt>
      <trkpt lat="24.085408" lon="120.828352">
        <ele>1088.0</ele>
      </trkpt>
      <trkpt lat="24.085607" lon="120.828341">
        <ele>1083.0</ele>
      </trkpt>
      <trkpt lat="24.085832" lon="120.828244">
        <ele>1071.0</ele>
      </trkpt>
      <trkpt lat="24.086118" lon="120.828173">
        <ele>1062.0</ele>
      </trkpt>
      <trkpt lat="24.086251" lon="120.828203">
        <ele>1061.0</ele>
      </trkpt>
      <trkpt lat="24.086495" lon="120.828151">
        <ele>1055.0</ele>
      </trkpt>
      <trkpt lat="24.086583" lon="120.828127">
        <ele>1053.0</ele>
      </trkpt>
      <trkpt lat="24.086612" lon="120.828074">
        <ele>1050.0</ele>
      </trkpt>
      <trkpt lat="24.086681" lon="120.828037">
        <ele>1047.0</ele>
      </trkpt>
      <trkpt lat="24.087026" lon="120.827986">
        <ele>1034.0</ele>
      </trkpt>
      <trkpt lat="24.087077" lon="120.828032">
        <ele>1034.0</ele>
      </trkpt>
      <trkpt lat="24.087273" lon="120.828013">
        <ele>1027.0</ele>
      </trkpt>
      <trkpt lat="24.087477" lon="120.828061">
        <ele>1022.0</ele>
      </trkpt>
      <trkpt lat="24.087521" lon="120.828104">
        <ele>1022.0</ele>
      </trkpt>
      <trkpt lat="24.087623" lon="120.828071">
        <ele>1020.0</ele>
      </trkpt>
      <trkpt lat="24.087746" lon="120.828002">
        <ele>1017.0</ele>
      </trkpt>
      <trkpt lat="24.087801" lon="120.828021">
        <ele>1017.0</ele>
      </trkpt>
      <trkpt lat="24.088026" lon="120.828034">
        <ele>1016.0</ele>
      </trkpt>
      <trkpt lat="24.088555" lon="120.827933">
        <ele>1018.0</ele>
      </trkpt>
      <trkpt lat="24.088635" lon="120.827955">
        <ele>1022.0</ele>
      </trkpt>
      <trkpt lat="24.088723" lon="120.827921">
        <ele>1023.0</ele>
      </trkpt>
      <trkpt lat="24.08882" lon="120.827914">
        <ele>1025.0</ele>
      </trkpt>
      <trkpt lat="24.089032" lon="120.828048">
        <ele>1043.0</ele>
      </trkpt>
      <trkpt lat="24.08882" lon="120.827914">
        <ele>1025.0</ele>
      </trkpt>
      <trkpt lat="24.088723" lon="120.827921">
        <ele>1023.0</ele>
      </trkpt>
      <trkpt lat="24.088635" lon="120.827955">
        <ele>1022.0</ele>
      </trkpt>
      <trkpt lat="24.088555" lon="120.827933">
        <ele>1018.0</ele>
      </trkpt>
      <trkpt lat="24.088026" lon="120.828034">
        <ele>1016.0</ele>
      </trkpt>
      <trkpt lat="24.087801" lon="120.828021">
        <ele>1017.0</ele>
      </trkpt>
      <trkpt lat="24.087746" lon="120.828002">
        <ele>1017.0</ele>
      </trkpt>
      <trkpt lat="24.087623" lon="120.828071">
        <ele>1020.0</ele>
      </trkpt>
      <trkpt lat="24.087521" lon="120.828104">
        <ele>1022.0</ele>
      </trkpt>
      <trkpt lat="24.087477" lon="120.828061">
        <ele>1022.0</ele>
      </trkpt>
      <trkpt lat="24.087273" lon="120.828013">
        <ele>1027.0</ele>
      </trkpt>
      <trkpt lat="24.087077" lon="120.828032">
        <ele>1034.0</ele>
      </trkpt>
      <trkpt lat="24.087026" lon="120.827986">
        <ele>1034.0</ele>
      </trkpt>
      <trkpt lat="24.086681" lon="120.828037">
        <ele>1047.0</ele>
      </trkpt>
      <trkpt lat="24.086612" lon="120.828074">
        <ele>1050.0</ele>
      </trkpt>
      <trkpt lat="24.086583" lon="120.828127">
        <ele>1053.0</ele>
      </trkpt>
      <trkpt lat="24.086495" lon="120.828151">
        <ele>1055.0</ele>
      </trkpt>
      <trkpt lat="24.086251" lon="120.828203">
        <ele>1061.0</ele>
      </trkpt>
      <trkpt lat="24.086118" lon="120.828173">
        <ele>1062.0</ele>
      </trkpt>
      <trkpt lat="24.085832" lon="120.828244">
        <ele>1071.0</ele>
      </trkpt>
      <trkpt lat="24.085607" lon="120.828341">
        <ele>1083.0</ele>
      </trkpt>
      <trkpt lat="24.085408" lon="120.828352">
        <ele>1088.0</ele>
      </trkpt>
      <trkpt lat="24.085226" lon="120.828487">
        <ele>1088.0</ele>
      </trkpt>
      <trkpt lat="24.085143" lon="120.828597">
        <ele>1087.0</ele>
      </trkpt>
      <trkpt lat="24.085062" lon="120.828624">
        <ele>1089.0</ele>
      </trkpt>
      <trkpt lat="24.084994" lon="120.828608">
        <ele>1093.0</ele>
      </trkpt>
      <trkpt lat="24.084897" lon="120.828617">
        <ele>1096.0</ele>
      </trkpt>
      <trkpt lat="24.084768" lon="120.828582">
        <ele>1101.0</ele>
      </trkpt>
      <trkpt lat="24.084628" lon="120.82858">
        <ele>1105.0</ele>
      </trkpt>
      <trkpt lat="24.084521" lon="120.828603">
        <ele>1108.0</ele>
      </trkpt>
      <trkpt lat="24.08447" lon="120.828586">
        <ele>1110.0</ele>
      </trkpt>
      <trkpt lat="24.084247" lon="120.828593">
        <ele>1118.0</ele>
      </trkpt>
      <trkpt lat="24.083843" lon="120.828675">
        <ele>1125.0</ele>
      </trkpt>
      <trkpt lat="24.083713" lon="120.828773">
        <ele>1128.0</ele>
      </trkpt>
      <trkpt lat="24.083666" lon="120.828867">
        <ele>1129.0</ele>
      </trkpt>
      <trkpt lat="24.083648" lon="120.828878">
        <ele>1129.0</ele>
      </trkpt>
      <trkpt lat="24.083552" lon="120.828884">
        <ele>1131.0</ele>
      </trkpt>
      <trkpt lat="24.083272" lon="120.828782">
        <ele>1136.0</ele>
      </trkpt>
      <trkpt lat="24.083234" lon="120.828756">
        <ele>1136.0</ele>
      </trkpt>
      <trkpt lat="24.083035" lon="120.828717">
        <ele>1136.0</ele>
      </trkpt>
      <trkpt lat="24.082957" lon="120.828712">
        <ele>1136.0</ele>
      </trkpt>
      <trkpt lat="24.082465" lon="120.828544">
        <ele>1137.0</ele>
      </trkpt>
      <trkpt lat="24.082202" lon="120.828456">
        <ele>1124.0</ele>
      </trkpt>
      <trkpt lat="24.08213" lon="120.828573">
        <ele>1120.0</ele>
      </trkpt>
      <trkpt lat="24.081949" lon="120.82848">
        <ele>1110.0</ele>
      </trkpt>
      <trkpt lat="24.081887" lon="120.828405">
        <ele>1106.0</ele>
      </trkpt>
      <trkpt lat="24.081465" lon="120.828447">
        <ele>1091.0</ele>
      </trkpt>
      <trkpt lat="24.081289" lon="120.828417">
        <ele>1088.0</ele>
      </trkpt>
      <trkpt lat="24.081066" lon="120.82838">
        <ele>1084.0</ele>
      </trkpt>
      <trkpt lat="24.0809" lon="120.828401">
        <ele>1081.0</ele>
      </trkpt>
      <trkpt lat="24.080639" lon="120.828537">
        <ele>1082.0</ele>
      </trkpt>
      <trkpt lat="24.08048" lon="120.828545">
        <ele>1083.0</ele>
      </trkpt>
      <trkpt lat="24.08017" lon="120.828507">
        <ele>1085.0</ele>
      </trkpt>
      <trkpt lat="24.07983" lon="120.828629">
        <ele>1081.0</ele>
      </trkpt>
      <trkpt lat="24.07975" lon="120.828597">
        <ele>1080.0</ele>
      </trkpt>
      <trkpt lat="24.079635" lon="120.828474">
        <ele>1079.0</ele>
      </trkpt>
      <trkpt lat="24.079206" lon="120.82842">
        <ele>1071.0</ele>
      </trkpt>
      <trkpt lat="24.078841" lon="120.828503">
        <ele>1065.0</ele>
      </trkpt>
      <trkpt lat="24.078646" lon="120.828416">
        <ele>1064.0</ele>
      </trkpt>
      <trkpt lat="24.07841" lon="120.828401">
        <ele>1062.0</ele>
      </trkpt>
      <trkpt lat="24.078144" lon="120.828298">
        <ele>1069.0</ele>
      </trkpt>
      <trkpt lat="24.078032" lon="120.828334">
        <ele>1074.0</ele>
      </trkpt>
      <trkpt lat="24.077803" lon="120.828235">
        <ele>1078.0</ele>
      </trkpt>
      <trkpt lat="24.077709" lon="120.828272">
        <ele>1083.0</ele>
      </trkpt>
      <trkpt lat="24.077632" lon="120.828381">
        <ele>1088.0</ele>
      </trkpt>
      <trkpt lat="24.077511" lon="120.828424">
        <ele>1091.0</ele>
      </trkpt>
      <trkpt lat="24.07713" lon="120.828378">
        <ele>1111.0</ele>
      </trkpt>
      <trkpt lat="24.076581" lon="120.828454">
        <ele>1134.0</ele>
      </trkpt>
      <trkpt lat="24.076358" lon="120.828353">
        <ele>1145.0</ele>
      </trkpt>
      <trkpt lat="24.076162" lon="120.828456">
        <ele>1150.0</ele>
      </trkpt>
      <trkpt lat="24.075997" lon="120.828459">
        <ele>1156.0</ele>
      </trkpt>
      <trkpt lat="24.075788" lon="120.828545">
        <ele>1161.0</ele>
      </trkpt>
      <trkpt lat="24.075605" lon="120.828722">
        <ele>1164.0</ele>
      </trkpt>
      <trkpt lat="24.075227" lon="120.828932">
        <ele>1172.0</ele>
      </trkpt>
      <trkpt lat="24.075078" lon="120.828951">
        <ele>1176.0</ele>
      </trkpt>
      <trkpt lat="24.074934" lon="120.828938">
        <ele>1175.0</ele>
      </trkpt>
      <trkpt lat="24.074857" lon="120.82893">
        <ele>1170.0</ele>
      </trkpt>
      <trkpt lat="24.074661" lon="120.829023">
        <ele>1159.0</ele>
      </trkpt>
      <trkpt lat="24.074575" lon="120.828938">
        <ele>1153.0</ele>
      </trkpt>
      <trkpt lat="24.074536" lon="120.828921">
        <ele>1151.0</ele>
      </trkpt>
      <trkpt lat="24.074465" lon="120.828922">
        <ele>1146.0</ele>
      </trkpt>
      <trkpt lat="24.074366" lon="120.828949">
        <ele>1141.0</ele>
      </trkpt>
      <trkpt lat="24.074193" lon="120.828909">
        <ele>1129.0</ele>
      </trkpt>
      <trkpt lat="24.074156" lon="120.82886">
        <ele>1125.0</ele>
      </trkpt>
      <trkpt lat="24.074115" lon="120.82884">
        <ele>1124.0</ele>
      </trkpt>
      <trkpt lat="24.073934" lon="120.828841">
        <ele>1119.0</ele>
      </trkpt>
      <trkpt lat="24.073705" lon="120.82889">
        <ele>1116.0</ele>
      </trkpt>
      <trkpt lat="24.073573" lon="120.828899">
        <ele>1113.0</ele>
      </trkpt>
      <trkpt lat="24.073383" lon="120.828947">
        <ele>1110.0</ele>
      </trkpt>
      <trkpt lat="24.073357" lon="120.828986">
        <ele>1111.0</ele>
      </trkpt>
      <trkpt lat="24.073171" lon="120.829005">
        <ele>1115.0</ele>
      </trkpt>
      <trkpt lat="24.073036" lon="120.829048">
        <ele>1121.0</ele>
      </trkpt>
      <trkpt lat="24.072944" lon="120.829127">
        <ele>1128.0</ele>
      </trkpt>
      <trkpt lat="24.072837" lon="120.829173">
        <ele>1133.0</ele>
      </trkpt>
      <trkpt lat="24.072678" lon="120.829181">
        <ele>1138.0</ele>
      </trkpt>
      <trkpt lat="24.072615" lon="120.829214">
        <ele>1139.0</ele>
      </trkpt>
      <trkpt lat="24.072553" lon="120.829276">
        <ele>1138.0</ele>
      </trkpt>
      <trkpt lat="24.072518" lon="120.829357">
        <ele>1136.0</ele>
      </trkpt>
      <trkpt lat="24.072448" lon="120.829391">
        <ele>1135.0</ele>
      </trkpt>
      <trkpt lat="24.07229" lon="120.829337">
        <ele>1138.0</ele>
      </trkpt>
      <trkpt lat="24.07216" lon="120.829383">
        <ele>1136.0</ele>
      </trkpt>
      <trkpt lat="24.071991" lon="120.829349">
        <ele>1138.0</ele>
      </trkpt>
      <trkpt lat="24.071818" lon="120.829292">
        <ele>1140.0</ele>
      </trkpt>
      <trkpt lat="24.07169" lon="120.829321">
        <ele>1140.0</ele>
      </trkpt>
      <trkpt lat="24.071525" lon="120.82926">
        <ele>1141.0</ele>
      </trkpt>
      <trkpt lat="24.071453" lon="120.829271">
        <ele>1140.0</ele>
      </trkpt>
      <trkpt lat="24.071364" lon="120.829206">
        <ele>1142.0</ele>
      </trkpt>
      <trkpt lat="24.071312" lon="120.829198">
        <ele>1142.0</ele>
      </trkpt>
      <trkpt lat="24.071221" lon="120.829227">
        <ele>1140.0</ele>
      </trkpt>
      <trkpt lat="24.07108" lon="120.829313">
        <ele>1138.0</ele>
      </trkpt>
      <trkpt lat="24.070919" lon="120.829353">
        <ele>1136.0</ele>
      </trkpt>
      <trkpt lat="24.070397" lon="120.829361">
        <ele>1111.0</ele>
      </trkpt>
      <trkpt lat="24.07029" lon="120.829388">
        <ele>1106.0</ele>
      </trkpt>
      <trkpt lat="24.07029" lon="120.829388">
        <ele>1106.0</ele>
      </trkpt>
      <trkpt lat="24.070178" lon="120.82947">
        <ele>1102.0</ele>
      </trkpt>
      <trkpt lat="24.070283" lon="120.829732">
        <ele>1111.0</ele>
      </trkpt>
      <trkpt lat="24.070271" lon="120.829856">
        <ele>1113.0</ele>
      </trkpt>
      <trkpt lat="24.070295" lon="120.830089">
        <ele>1112.0</ele>
      </trkpt>
      <trkpt lat="24.070314" lon="120.830153">
        <ele>1109.0</ele>
      </trkpt>
      <trkpt lat="24.070314" lon="120.830153">
        <ele>1109.0</ele>
      </trkpt>
      <trkpt lat="24.070376" lon="120.83036">
        <ele>1100.0</ele>
      </trkpt>
      <trkpt lat="24.07042" lon="120.830429">
        <ele>1097.0</ele>
      </trkpt>
      <trkpt lat="24.070424" lon="120.830515">
        <ele>1093.0</ele>
      </trkpt>
      <trkpt lat="24.070366" lon="120.830694">
        <ele>1084.0</ele>
      </trkpt>
      <trkpt lat="24.070358" lon="120.830766">
        <ele>1080.0</ele>
      </trkpt>
      <trkpt lat="24.070396" lon="120.830886">
        <ele>1075.0</ele>
      </trkpt>
      <trkpt lat="24.070451" lon="120.830966">
        <ele>1072.0</ele>
      </trkpt>
      <trkpt lat="24.070486" lon="120.831063">
        <ele>1068.0</ele>
      </trkpt>
      <trkpt lat="24.070618" lon="120.831302">
        <ele>1059.0</ele>
      </trkpt>
      <trkpt lat="24.070632" lon="120.831347">
        <ele>1058.0</ele>
      </trkpt>
      <trkpt lat="24.07063" lon="120.831414">
        <ele>1055.0</ele>
      </trkpt>
      <trkpt lat="24.07063" lon="120.831414">
        <ele>1055.0</ele>
      </trkpt>
      <trkpt lat="24.070646" lon="120.831561">
        <ele>1049.0</ele>
      </trkpt>
      <trkpt lat="24.070687" lon="120.831661">
        <ele>1045.0</ele>
      </trkpt>
      <trkpt lat="24.070669" lon="120.83183">
        <ele>1039.0</ele>
      </trkpt>
      <trkpt lat="24.07069" lon="120.831931">
        <ele>1036.0</ele>
      </trkpt>
      <trkpt lat="24.070692" lon="120.832033">
        <ele>1032.0</ele>
      </trkpt>
      <trkpt lat="24.070663" lon="120.832163">
        <ele>1027.0</ele>
      </trkpt>
      <trkpt lat="24.070694" lon="120.832275">
        <ele>1024.0</ele>
      </trkpt>
      <trkpt lat="24.070698" lon="120.83248">
        <ele>1017.0</ele>
      </trkpt>
      <trkpt lat="24.070671" lon="120.832534">
        <ele>1014.0</ele>
      </trkpt>
      <trkpt lat="24.070377" lon="120.832687">
        <ele>1005.0</ele>
      </trkpt>
      <trkpt lat="24.070249" lon="120.832827">
        <ele>999.0</ele>
      </trkpt>
      <trkpt lat="24.070228" lon="120.832883">
        <ele>997.0</ele>
      </trkpt>
      <trkpt lat="24.070239" lon="120.832943">
        <ele>995.0</ele>
      </trkpt>
      <trkpt lat="24.070383" lon="120.833227">
        <ele>988.0</ele>
      </trkpt>
      <trkpt lat="24.070383" lon="120.833289">
        <ele>986.0</ele>
      </trkpt>
      <trkpt lat="24.070314" lon="120.833342">
        <ele>984.0</ele>
      </trkpt>
      <trkpt lat="24.070064" lon="120.833423">
        <ele>980.0</ele>
      </trkpt>
      <trkpt lat="24.069782" lon="120.833666">
        <ele>964.0</ele>
      </trkpt>
      <trkpt lat="24.069767" lon="120.833716">
        <ele>963.0</ele>
      </trkpt>
      <trkpt lat="24.069787" lon="120.833981">
        <ele>960.0</ele>
      </trkpt>
      <trkpt lat="24.069779" lon="120.834037">
        <ele>959.0</ele>
      </trkpt>
      <trkpt lat="24.06967" lon="120.83416">
        <ele>954.0</ele>
      </trkpt>
      <trkpt lat="24.069661" lon="120.834231">
        <ele>953.0</ele>
      </trkpt>
      <trkpt lat="24.069697" lon="120.83427">
        <ele>954.0</ele>
      </trkpt>
      <trkpt lat="24.069738" lon="120.834267">
        <ele>955.0</ele>
      </trkpt>
      <trkpt lat="24.069906" lon="120.834188">
        <ele>961.0</ele>
      </trkpt>
      <trkpt lat="24.069992" lon="120.834093">
        <ele>966.0</ele>
      </trkpt>
      <trkpt lat="24.070058" lon="120.833989">
        <ele>968.0</ele>
      </trkpt>
      <trkpt lat="24.070157" lon="120.833927">
        <ele>968.0</ele>
      </trkpt>
      <trkpt lat="24.070188" lon="120.833947">
        <ele>967.0</ele>
      </trkpt>
      <trkpt lat="24.070196" lon="120.833981">
        <ele>966.0</ele>
      </trkpt>
      <trkpt lat="24.070172" lon="120.834029">
        <ele>965.0</ele>
      </trkpt>
      <trkpt lat="24.070131" lon="120.834259">
        <ele>960.0</ele>
      </trkpt>
      <trkpt lat="24.070139" lon="120.834329">
        <ele>958.0</ele>
      </trkpt>
      <trkpt lat="24.07017" lon="120.834375">
        <ele>956.0</ele>
      </trkpt>
      <trkpt lat="24.07042" lon="120.834467">
        <ele>948.0</ele>
      </trkpt>
      <trkpt lat="24.070563" lon="120.834448">
        <ele>945.0</ele>
      </trkpt>
      <trkpt lat="24.070649" lon="120.834401">
        <ele>945.0</ele>
      </trkpt>
      <trkpt lat="24.070706" lon="120.834393">
        <ele>944.0</ele>
      </trkpt>
      <trkpt lat="24.070761" lon="120.834401">
        <ele>942.0</ele>
      </trkpt>
      <trkpt lat="24.070884" lon="120.834379">
        <ele>941.0</ele>
      </trkpt>
      <trkpt lat="24.070976" lon="120.834424">
        <ele>937.0</ele>
      </trkpt>
      <trkpt lat="24.071045" lon="120.834425">
        <ele>936.0</ele>
      </trkpt>
      <trkpt lat="24.071205" lon="120.834379">
        <ele>934.0</ele>
      </trkpt>
      <trkpt lat="24.071242" lon="120.834394">
        <ele>933.0</ele>
      </trkpt>
      <trkpt lat="24.071324" lon="120.834495">
        <ele>928.0</ele>
      </trkpt>
      <trkpt lat="24.071349" lon="120.834623">
        <ele>922.0</ele>
      </trkpt>
      <trkpt lat="24.071394" lon="120.834712">
        <ele>918.0</ele>
      </trkpt>
      <trkpt lat="24.071471" lon="120.834762">
        <ele>915.0</ele>
      </trkpt>
      <trkpt lat="24.071517" lon="120.834771">
        <ele>914.0</ele>
      </trkpt>
      <trkpt lat="24.07156" lon="120.834757">
        <ele>914.0</ele>
      </trkpt>
      <trkpt lat="24.071683" lon="120.834619">
        <ele>916.0</ele>
      </trkpt>
      <trkpt lat="24.071717" lon="120.834601">
        <ele>916.0</ele>
      </trkpt>
      <trkpt lat="24.07178" lon="120.834602">
        <ele>914.0</ele>
      </trkpt>
      <trkpt lat="24.071906" lon="120.834652">
        <ele>909.0</ele>
      </trkpt>
      <trkpt lat="24.071952" lon="120.834684">
        <ele>907.0</ele>
      </trkpt>
      <trkpt lat="24.071979" lon="120.834757">
        <ele>904.0</ele>
      </trkpt>
      <trkpt lat="24.071938" lon="120.834819">
        <ele>903.0</ele>
      </trkpt>
      <trkpt lat="24.071794" lon="120.83486">
        <ele>905.0</ele>
      </trkpt>
      <trkpt lat="24.07174" lon="120.834916">
        <ele>904.0</ele>
      </trkpt>
      <trkpt lat="24.071708" lon="120.83498">
        <ele>903.0</ele>
      </trkpt>
      <trkpt lat="24.071656" lon="120.835023">
        <ele>903.0</ele>
      </trkpt>
      <trkpt lat="24.071512" lon="120.835024">
        <ele>905.0</ele>
      </trkpt>
      <trkpt lat="24.071357" lon="120.835052">
        <ele>907.0</ele>
      </trkpt>
      <trkpt lat="24.071133" lon="120.835048">
        <ele>911.0</ele>
      </trkpt>
      <trkpt lat="24.070967" lon="120.8351">
        <ele>912.0</ele>
      </trkpt>
      <trkpt lat="24.070809" lon="120.835215">
        <ele>911.0</ele>
      </trkpt>
      <trkpt lat="24.070685" lon="120.835384">
        <ele>909.0</ele>
      </trkpt>
      <trkpt lat="24.07065" lon="120.835472">
        <ele>908.0</ele>
      </trkpt>
      <trkpt lat="24.070587" lon="120.835537">
        <ele>907.0</ele>
      </trkpt>
      <trkpt lat="24.070523" lon="120.835696">
        <ele>904.0</ele>
      </trkpt>
      <trkpt lat="24.070524" lon="120.835816">
        <ele>900.0</ele>
      </trkpt>
      <trkpt lat="24.070554" lon="120.83601">
        <ele>893.0</ele>
      </trkpt>
      <trkpt lat="24.070473" lon="120.836236">
        <ele>888.0</ele>
      </trkpt>
      <trkpt lat="24.070379" lon="120.836396">
        <ele>885.0</ele>
      </trkpt>
      <trkpt lat="24.070137" lon="120.836401">
        <ele>889.0</ele>
      </trkpt>
      <trkpt lat="24.069939" lon="120.836373">
        <ele>892.0</ele>
      </trkpt>
      <trkpt lat="24.069832" lon="120.836401">
        <ele>892.0</ele>
      </trkpt>
      <trkpt lat="24.069774" lon="120.836577">
        <ele>885.0</ele>
      </trkpt>
      <trkpt lat="24.069687" lon="120.836665">
        <ele>883.0</ele>
      </trkpt>
      <trkpt lat="24.069594" lon="120.836691">
        <ele>882.0</ele>
      </trkpt>
      <trkpt lat="24.069594" lon="120.836691">
        <ele>882.0</ele>
      </trkpt>
      <trkpt lat="24.069558" lon="120.836701">
        <ele>882.0</ele>
      </trkpt>
      <trkpt lat="24.069488" lon="120.83684">
        <ele>880.0</ele>
      </trkpt>
      <trkpt lat="24.069452" lon="120.836994">
        <ele>877.0</ele>
      </trkpt>
      <trkpt lat="24.069519" lon="120.837212">
        <ele>872.0</ele>
      </trkpt>
      <trkpt lat="24.069507" lon="120.837343">
        <ele>870.0</ele>
      </trkpt>
      <trkpt lat="24.069463" lon="120.837454">
        <ele>868.0</ele>
      </trkpt>
      <trkpt lat="24.069385" lon="120.837542">
        <ele>867.0</ele>
      </trkpt>
      <trkpt lat="24.069285" lon="120.837569">
        <ele>868.0</ele>
      </trkpt>
      <trkpt lat="24.069065" lon="120.837594">
        <ele>871.0</ele>
      </trkpt>
      <trkpt lat="24.068914" lon="120.837748">
        <ele>871.0</ele>
      </trkpt>
      <trkpt lat="24.068891" lon="120.837887">
        <ele>870.0</ele>
      </trkpt>
      <trkpt lat="24.068928" lon="120.838065">
        <ele>868.0</ele>
      </trkpt>
      <trkpt lat="24.069098" lon="120.838458">
        <ele>859.0</ele>
      </trkpt>
      <trkpt lat="24.069307" lon="120.83902">
        <ele>845.0</ele>
      </trkpt>
      <trkpt lat="24.069286" lon="120.83917">
        <ele>843.0</ele>
      </trkpt>
      <trkpt lat="24.069264" lon="120.839202">
        <ele>842.0</ele>
      </trkpt>
      <trkpt lat="24.068685" lon="120.839417">
        <ele>857.0</ele>
      </trkpt>
      <trkpt lat="24.068363" lon="120.839481">
        <ele>868.0</ele>
      </trkpt>
      <trkpt lat="24.068277" lon="120.839567">
        <ele>866.0</ele>
      </trkpt>
      <trkpt lat="24.068191" lon="120.839739">
        <ele>860.0</ele>
      </trkpt>
      <trkpt lat="24.068062" lon="120.839825">
        <ele>859.0</ele>
      </trkpt>
      <trkpt lat="24.067998" lon="120.839846">
        <ele>859.0</ele>
      </trkpt>
      <trkpt lat="24.067934" lon="120.839825">
        <ele>862.0</ele>
      </trkpt>
      <trkpt lat="24.067869" lon="120.83976">
        <ele>866.0</ele>
      </trkpt>
      <trkpt lat="24.067805" lon="120.839739">
        <ele>869.0</ele>
      </trkpt>
      <trkpt lat="24.067311" lon="120.839911">
        <ele>872.0</ele>
      </trkpt>
      <trkpt lat="24.067251" lon="120.839868">
        <ele>874.0</ele>
      </trkpt>
      <trkpt lat="24.067031" lon="120.839874">
        <ele>876.0</ele>
      </trkpt>
      <trkpt lat="24.066951" lon="120.839921">
        <ele>877.0</ele>
      </trkpt>
      <trkpt lat="24.066704" lon="120.839939">
        <ele>880.0</ele>
      </trkpt>
      <trkpt lat="24.066658" lon="120.840138">
        <ele>882.0</ele>
      </trkpt>
      <trkpt lat="24.066382" lon="120.840561">
        <ele>875.0</ele>
      </trkpt>
      <trkpt lat="24.066348" lon="120.840665">
        <ele>875.0</ele>
      </trkpt>
      <trkpt lat="24.066296" lon="120.841014">
        <ele>876.0</ele>
      </trkpt>
      <trkpt lat="24.066257" lon="120.841145">
        <ele>876.0</ele>
      </trkpt>
      <trkpt lat="24.066176" lon="120.841202">
        <ele>873.0</ele>
      </trkpt>
      <trkpt lat="24.066084" lon="120.841344">
        <ele>869.0</ele>
      </trkpt>
      <trkpt lat="24.066031" lon="120.841371">
        <ele>867.0</ele>
      </trkpt>
      <trkpt lat="24.065889" lon="120.841378">
        <ele>861.0</ele>
      </trkpt>
      <trkpt lat="24.065496" lon="120.841331">
        <ele>844.0</ele>
      </trkpt>
      <trkpt lat="24.065374" lon="120.841288">
        <ele>839.0</ele>
      </trkpt>
      <trkpt lat="24.06506" lon="120.841309">
        <ele>826.0</ele>
      </trkpt>
      <trkpt lat="24.064988" lon="120.841348">
        <ele>824.0</ele>
      </trkpt>
      <trkpt lat="24.064556" lon="120.841274">
        <ele>809.0</ele>
      </trkpt>
      <trkpt lat="24.064471" lon="120.84128">
        <ele>807.0</ele>
      </trkpt>
      <trkpt lat="24.06449" lon="120.841395">
        <ele>808.0</ele>
      </trkpt>
      <trkpt lat="24.064276" lon="120.841438">
        <ele>801.0</ele>
      </trkpt>
      <trkpt lat="24.064194" lon="120.841365">
        <ele>798.0</ele>
      </trkpt>
      <trkpt lat="24.064136" lon="120.841238">
        <ele>795.0</ele>
      </trkpt>
      <trkpt lat="24.064091" lon="120.841238">
        <ele>792.0</ele>
      </trkpt>
      <trkpt lat="24.064076" lon="120.841341">
        <ele>792.0</ele>
      </trkpt>
      <trkpt lat="24.064101" lon="120.84143">
        <ele>794.0</ele>
      </trkpt>
      <trkpt lat="24.064155" lon="120.84154">
        <ele>798.0</ele>
      </trkpt>
      <trkpt lat="24.064056" lon="120.841635">
        <ele>794.0</ele>
      </trkpt>
      <trkpt lat="24.063969" lon="120.841685">
        <ele>789.0</ele>
      </trkpt>
      <trkpt lat="24.063913" lon="120.841767">
        <ele>784.0</ele>
      </trkpt>
      <trkpt lat="24.063942" lon="120.841804">
        <ele>784.0</ele>
      </trkpt>
      <trkpt lat="24.063978" lon="120.84193">
        <ele>780.0</ele>
      </trkpt>
      <trkpt lat="24.063844" lon="120.84185">
        <ele>778.0</ele>
      </trkpt>
      <trkpt lat="24.0638" lon="120.841882">
        <ele>775.0</ele>
      </trkpt>
      <trkpt lat="24.063893" lon="120.842028">
        <ele>773.0</ele>
      </trkpt>
      <trkpt lat="24.06391" lon="120.8421">
        <ele>771.0</ele>
      </trkpt>
      <trkpt lat="24.063785" lon="120.842119">
        <ele>766.0</ele>
      </trkpt>
      <trkpt lat="24.063687" lon="120.842072">
        <ele>764.0</ele>
      </trkpt>
      <trkpt lat="24.063535" lon="120.841905">
        <ele>764.0</ele>
      </trkpt>
      <trkpt lat="24.063442" lon="120.841778">
        <ele>763.0</ele>
      </trkpt>
      <trkpt lat="24.063401" lon="120.841933">
        <ele>758.0</ele>
      </trkpt>
      <trkpt lat="24.063324" lon="120.842019">
        <ele>753.0</ele>
      </trkpt>
      <trkpt lat="24.063203" lon="120.842028">
        <ele>748.0</ele>
      </trkpt>
      <trkpt lat="24.062973" lon="120.841988">
        <ele>741.0</ele>
      </trkpt>
      <trkpt lat="24.062845" lon="120.842013">
        <ele>735.0</ele>
      </trkpt>
      <trkpt lat="24.062845" lon="120.842013">
        <ele>735.0</ele>
      </trkpt>
      <trkpt lat="24.062834" lon="120.842015">
        <ele>735.0</ele>
      </trkpt>
      <trkpt lat="24.062614" lon="120.841994">
        <ele>727.0</ele>
      </trkpt>
      <trkpt lat="24.06184" lon="120.842026">
        <ele>699.0</ele>
      </trkpt>
      <trkpt lat="24.061785" lon="120.841958">
        <ele>698.0</ele>
      </trkpt>
      <trkpt lat="24.061781" lon="120.841918">
        <ele>697.0</ele>
      </trkpt>
      <trkpt lat="24.061842" lon="120.841817">
        <ele>700.0</ele>
      </trkpt>
      <trkpt lat="24.062173" lon="120.841716">
        <ele>713.0</ele>
      </trkpt>
      <trkpt lat="24.062171" lon="120.841674">
        <ele>713.0</ele>
      </trkpt>
      <trkpt lat="24.061866" lon="120.841673">
        <ele>701.0</ele>
      </trkpt>
      <trkpt lat="24.061689" lon="120.841694">
        <ele>694.0</ele>
      </trkpt>
      <trkpt lat="24.061596" lon="120.841748">
        <ele>690.0</ele>
      </trkpt>
      <trkpt lat="24.061376" lon="120.842173">
        <ele>679.0</ele>
      </trkpt>
      <trkpt lat="24.061291" lon="120.842304">
        <ele>675.0</ele>
      </trkpt>
      <trkpt lat="24.061246" lon="120.842327">
        <ele>672.0</ele>
      </trkpt>
      <trkpt lat="24.0611" lon="120.842282">
        <ele>665.0</ele>
      </trkpt>
      <trkpt lat="24.061053" lon="120.842247">
        <ele>662.0</ele>
      </trkpt>
      <trkpt lat="24.060999" lon="120.842182">
        <ele>660.0</ele>
      </trkpt>
      <trkpt lat="24.060975" lon="120.842104">
        <ele>659.0</ele>
      </trkpt>
      <trkpt lat="24.060971" lon="120.842029">
        <ele>658.0</ele>
      </trkpt>
      <trkpt lat="24.060935" lon="120.841976">
        <ele>657.0</ele>
      </trkpt>
      <trkpt lat="24.060805" lon="120.841942">
        <ele>651.0</ele>
      </trkpt>
      <trkpt lat="24.060658" lon="120.841838">
        <ele>645.0</ele>
      </trkpt>
      <trkpt lat="24.060538" lon="120.841804">
        <ele>641.0</ele>
      </trkpt>
      <trkpt lat="24.060462" lon="120.841814">
        <ele>638.0</ele>
      </trkpt>
      <trkpt lat="24.060383" lon="120.841791">
        <ele>636.0</ele>
      </trkpt>
      <trkpt lat="24.060136" lon="120.841664">
        <ele>628.0</ele>
      </trkpt>
      <trkpt lat="24.060019" lon="120.841669">
        <ele>625.0</ele>
      </trkpt>
      <trkpt lat="24.059781" lon="120.841826">
        <ele>608.0</ele>
      </trkpt>
      <trkpt lat="24.059754" lon="120.841898">
        <ele>606.0</ele>
      </trkpt>
      <trkpt lat="24.059777" lon="120.84193">
        <ele>607.0</ele>
      </trkpt>
      <trkpt lat="24.060061" lon="120.842018">
        <ele>620.0</ele>
      </trkpt>
      <trkpt lat="24.06009" lon="120.842062">
        <ele>621.0</ele>
      </trkpt>
      <trkpt lat="24.06008" lon="120.842103">
        <ele>620.0</ele>
      </trkpt>
      <trkpt lat="24.059665" lon="120.842134">
        <ele>598.0</ele>
      </trkpt>
      <trkpt lat="24.059635" lon="120.842116">
        <ele>597.0</ele>
      </trkpt>
      <trkpt lat="24.059584" lon="120.842048">
        <ele>595.0</ele>
      </trkpt>
      <trkpt lat="24.059519" lon="120.842047">
        <ele>591.0</ele>
      </trkpt>
      <trkpt lat="24.05946" lon="120.842127">
        <ele>588.0</ele>
      </trkpt>
      <trkpt lat="24.059422" lon="120.842219">
        <ele>586.0</ele>
      </trkpt>
      <trkpt lat="24.059437" lon="120.842306">
        <ele>586.0</ele>
      </trkpt>
      <trkpt lat="24.059601" lon="120.842393">
        <ele>593.0</ele>
      </trkpt>
      <trkpt lat="24.059959" lon="120.842471">
        <ele>608.0</ele>
      </trkpt>
      <trkpt lat="24.059988" lon="120.842521">
        <ele>608.0</ele>
      </trkpt>
      <trkpt lat="24.05994" lon="120.842673">
        <ele>599.0</ele>
      </trkpt>
      <trkpt lat="24.059963" lon="120.842691">
        <ele>599.0</ele>
      </trkpt>
      <trkpt lat="24.060087" lon="120.84268">
        <ele>605.0</ele>
      </trkpt>
      <trkpt lat="24.060198" lon="120.842691">
        <ele>610.0</ele>
      </trkpt>
      <trkpt lat="24.060208" lon="120.842732">
        <ele>609.0</ele>
      </trkpt>
      <trkpt lat="24.060152" lon="120.842779">
        <ele>604.0</ele>
      </trkpt>
      <trkpt lat="24.059945" lon="120.842875">
        <ele>590.0</ele>
      </trkpt>
      <trkpt lat="24.059854" lon="120.842874">
        <ele>587.0</ele>
      </trkpt>
      <trkpt lat="24.05982" lon="120.842842">
        <ele>587.0</ele>
      </trkpt>
      <trkpt lat="24.059812" lon="120.842785">
        <ele>589.0</ele>
      </trkpt>
      <trkpt lat="24.059776" lon="120.84278">
        <ele>588.0</ele>
      </trkpt>
      <trkpt lat="24.059719" lon="120.84282">
        <ele>585.0</ele>
      </trkpt>
      <trkpt lat="24.059691" lon="120.842891">
        <ele>581.0</ele>
      </trkpt>
      <trkpt lat="24.059693" lon="120.842938">
        <ele>579.0</ele>
      </trkpt>
      <trkpt lat="24.059727" lon="120.843019">
        <ele>577.0</ele>
      </trkpt>
      <trkpt lat="24.059787" lon="120.843062">
        <ele>577.0</ele>
      </trkpt>
      <trkpt lat="24.059981" lon="120.843049">
        <ele>583.0</ele>
      </trkpt>
      <trkpt lat="24.05998" lon="120.843101">
        <ele>581.0</ele>
      </trkpt>
      <trkpt lat="24.05988" lon="120.843121">
        <ele>577.0</ele>
      </trkpt>
      <trkpt lat="24.05976" lon="120.843206">
        <ele>570.0</ele>
      </trkpt>
      <trkpt lat="24.059642" lon="120.843244">
        <ele>566.0</ele>
      </trkpt>
      <trkpt lat="24.059616" lon="120.843271">
        <ele>564.0</ele>
      </trkpt>
      <trkpt lat="24.059616" lon="120.843307">
        <ele>563.0</ele>
      </trkpt>
      <trkpt lat="24.05965" lon="120.843321">
        <ele>563.0</ele>
      </trkpt>
      <trkpt lat="24.05983" lon="120.843292">
        <ele>569.0</ele>
      </trkpt>
      <trkpt lat="24.059879" lon="120.843315">
        <ele>569.0</ele>
      </trkpt>
      <trkpt lat="24.059963" lon="120.843392">
        <ele>568.0</ele>
      </trkpt>
      <trkpt lat="24.059931" lon="120.843423">
        <ele>566.0</ele>
      </trkpt>
      <trkpt lat="24.059771" lon="120.843434">
        <ele>562.0</ele>
      </trkpt>
      <trkpt lat="24.059647" lon="120.843471">
        <ele>557.0</ele>
      </trkpt>
      <trkpt lat="24.059658" lon="120.843532">
        <ele>555.0</ele>
      </trkpt>
      <trkpt lat="24.059815" lon="120.843621">
        <ele>556.0</ele>
      </trkpt>
      <trkpt lat="24.059838" lon="120.843651">
        <ele>555.0</ele>
      </trkpt>
      <trkpt lat="24.059832" lon="120.843722">
        <ele>552.0</ele>
      </trkpt>
      <trkpt lat="24.059845" lon="120.843787">
        <ele>550.0</ele>
      </trkpt>
      <trkpt lat="24.060057" lon="120.844054">
        <ele>546.0</ele>
      </trkpt>
      <trkpt lat="24.060057" lon="120.844054">
        <ele>546.0</ele>
      </trkpt>
      <trkpt lat="24.06026" lon="120.844374">
        <ele>541.0</ele>
      </trkpt>
      <trkpt lat="24.060383" lon="120.844384">
        <ele>544.0</ele>
      </trkpt>
      <trkpt lat="24.060445" lon="120.844441">
        <ele>544.0</ele>
      </trkpt>
      <trkpt lat="24.06048" lon="120.844505">
        <ele>543.0</ele>
      </trkpt>
      <trkpt lat="24.060258" lon="120.84476">
        <ele>531.0</ele>
      </trkpt>
      <trkpt lat="24.060203" lon="120.844866">
        <ele>527.0</ele>
      </trkpt>
      <trkpt lat="24.060142" lon="120.844867">
        <ele>526.0</ele>
      </trkpt>
      <trkpt lat="24.059947" lon="120.844779">
        <ele>523.0</ele>
      </trkpt>
      <trkpt lat="24.059726" lon="120.844473">
        <ele>524.0</ele>
      </trkpt>
      <trkpt lat="24.059671" lon="120.844452">
        <ele>523.0</ele>
      </trkpt>
      <trkpt lat="24.059609" lon="120.844499">
        <ele>519.0</ele>
      </trkpt>
      <trkpt lat="24.059801" lon="120.844863">
        <ele>515.0</ele>
      </trkpt>
      <trkpt lat="24.059914" lon="120.84503">
        <ele>515.0</ele>
      </trkpt>
      <trkpt lat="24.060026" lon="120.845161">
        <ele>514.0</ele>
      </trkpt>
      <trkpt lat="24.060103" lon="120.845286">
        <ele>512.0</ele>
      </trkpt>
      <trkpt lat="24.060122" lon="120.84542">
        <ele>507.0</ele>
      </trkpt>
      <trkpt lat="24.059902" lon="120.845288">
        <ele>506.0</ele>
      </trkpt>
      <trkpt lat="24.059573" lon="120.845315">
        <ele>495.0</ele>
      </trkpt>
      <trkpt lat="24.059147" lon="120.845058">
        <ele>486.0</ele>
      </trkpt>
      <trkpt lat="24.059097" lon="120.844948">
        <ele>487.0</ele>
      </trkpt>
      <trkpt lat="24.058901" lon="120.844815">
        <ele>485.0</ele>
      </trkpt>
      <trkpt lat="24.05878" lon="120.844858">
        <ele>479.0</ele>
      </trkpt>
      <trkpt lat="24.058671" lon="120.844873">
        <ele>475.0</ele>
      </trkpt>
      <trkpt lat="24.058624" lon="120.844831">
        <ele>475.0</ele>
      </trkpt>
      <trkpt lat="24.058522" lon="120.844682">
        <ele>478.0</ele>
      </trkpt>
      <trkpt lat="24.058363" lon="120.844642">
        <ele>474.0</ele>
      </trkpt>
      <trkpt lat="24.058218" lon="120.844516">
        <ele>475.0</ele>
      </trkpt>
      <trkpt lat="24.057519" lon="120.844426">
        <ele>456.0</ele>
      </trkpt>
      <trkpt lat="24.056969" lon="120.844375">
        <ele>439.0</ele>
      </trkpt>
      <trkpt lat="24.056709" lon="120.844388">
        <ele>430.0</ele>
      </trkpt>
      <trkpt lat="24.056624" lon="120.844395">
        <ele>428.0</ele>
      </trkpt>
      <trkpt lat="24.05651" lon="120.844255">
        <ele>426.0</ele>
      </trkpt>
      <trkpt lat="24.056512" lon="120.843998">
        <ele>428.0</ele>
      </trkpt>
      <trkpt lat="24.056458" lon="120.843713">
        <ele>429.0</ele>
      </trkpt>
      <trkpt lat="24.056492" lon="120.843564">
        <ele>431.0</ele>
      </trkpt>
      <trkpt lat="24.056457" lon="120.843472">
        <ele>431.0</ele>
      </trkpt>
      <trkpt lat="24.056399" lon="120.843475">
        <ele>430.0</ele>
      </trkpt>
      <trkpt lat="24.056335" lon="120.843612">
        <ele>427.0</ele>
      </trkpt>
      <trkpt lat="24.056053" lon="120.843904">
        <ele>417.0</ele>
      </trkpt>
      <trkpt lat="24.055993" lon="120.843897">
        <ele>415.0</ele>
      </trkpt>
      <trkpt lat="24.055993" lon="120.843897">
        <ele>415.0</ele>
      </trkpt>
      <trkpt lat="24.055787" lon="120.843834">
        <ele>413.0</ele>
      </trkpt>
      <trkpt lat="24.055695" lon="120.843926">
        <ele>411.0</ele>
      </trkpt>
      <trkpt lat="24.055434" lon="120.844127">
        <ele>407.0</ele>
      </trkpt>
      <trkpt lat="24.055048" lon="120.844263">
        <ele>406.0</ele>
      </trkpt>
      <trkpt lat="24.054931" lon="120.844313">
        <ele>405.0</ele>
      </trkpt>
      <trkpt lat="24.054801" lon="120.844392">
        <ele>404.0</ele>
      </trkpt>
      <trkpt lat="24.054683" lon="120.844527">
        <ele>401.0</ele>
      </trkpt>
      <trkpt lat="24.054572" lon="120.84462">
        <ele>399.0</ele>
      </trkpt>
      <trkpt lat="24.054402" lon="120.844795">
        <ele>394.0</ele>
      </trkpt>
      <trkpt lat="24.054288" lon="120.844803">
        <ele>393.0</ele>
      </trkpt>
      <trkpt lat="24.053895" lon="120.844706">
        <ele>400.0</ele>
      </trkpt>
      <trkpt lat="24.053688" lon="120.844746">
        <ele>405.0</ele>
      </trkpt>
      <trkpt lat="24.053584" lon="120.845111">
        <ele>400.0</ele>
      </trkpt>
      <trkpt lat="24.053528" lon="120.845237">
        <ele>398.0</ele>
      </trkpt>
      <trkpt lat="24.053459" lon="120.845363">
        <ele>396.0</ele>
      </trkpt>
      <trkpt lat="24.053345" lon="120.845518">
        <ele>392.0</ele>
      </trkpt>
      <trkpt lat="24.053143" lon="120.845751">
        <ele>389.0</ele>
      </trkpt>
      <trkpt lat="24.053134" lon="120.845888">
        <ele>385.0</ele>
      </trkpt>
      <trkpt lat="24.053099" lon="120.84624">
        <ele>379.0</ele>
      </trkpt>
      <trkpt lat="24.053052" lon="120.846353">
        <ele>377.0</ele>
      </trkpt>
      <trkpt lat="24.052921" lon="120.846481">
        <ele>374.0</ele>
      </trkpt>
      <trkpt lat="24.052869" lon="120.846576">
        <ele>371.0</ele>
      </trkpt>
      <trkpt lat="24.052774" lon="120.846656">
        <ele>369.0</ele>
      </trkpt>
      <trkpt lat="24.052659" lon="120.846688">
        <ele>368.0</ele>
      </trkpt>
      <trkpt lat="24.052565" lon="120.84668">
        <ele>367.0</ele>
      </trkpt>
      <trkpt lat="24.052472" lon="120.846627">
        <ele>369.0</ele>
      </trkpt>
      <trkpt lat="24.052392" lon="120.846536">
        <ele>374.0</ele>
      </trkpt>
      <trkpt lat="24.052303" lon="120.846501">
        <ele>377.0</ele>
      </trkpt>
      <trkpt lat="24.052189" lon="120.846514">
        <ele>378.0</ele>
      </trkpt>
      <trkpt lat="24.052071" lon="120.846619">
        <ele>375.0</ele>
      </trkpt>
      <trkpt lat="24.051795" lon="120.846964">
        <ele>370.0</ele>
      </trkpt>
      <trkpt lat="24.051596" lon="120.847338">
        <ele>362.0</ele>
      </trkpt>
      <trkpt lat="24.051403" lon="120.847535">
        <ele>359.0</ele>
      </trkpt>
      <trkpt lat="24.051233" lon="120.847598">
        <ele>359.0</ele>
      </trkpt>
      <trkpt lat="24.051037" lon="120.847619">
        <ele>361.0</ele>
      </trkpt>
      <trkpt lat="24.050822" lon="120.847616">
        <ele>364.0</ele>
      </trkpt>
      <trkpt lat="24.050697" lon="120.84764">
        <ele>364.0</ele>
      </trkpt>
      <trkpt lat="24.050515" lon="120.847705">
        <ele>364.0</ele>
      </trkpt>
      <trkpt lat="24.050101" lon="120.847815">
        <ele>364.0</ele>
      </trkpt>
      <trkpt lat="24.049886" lon="120.848043">
        <ele>355.0</ele>
      </trkpt>
      <trkpt lat="24.049555" lon="120.84833">
        <ele>348.0</ele>
      </trkpt>
      <trkpt lat="24.049095" lon="120.848646">
        <ele>344.0</ele>
      </trkpt>
      <trkpt lat="24.048928" lon="120.848695">
        <ele>340.0</ele>
      </trkpt>
      <trkpt lat="24.048593" lon="120.848663">
        <ele>336.0</ele>
      </trkpt>
      <trkpt lat="24.048477" lon="120.848617">
        <ele>336.0</ele>
      </trkpt>
      <trkpt lat="24.048265" lon="120.848504">
        <ele>338.0</ele>
      </trkpt>
      <trkpt lat="24.048101" lon="120.848354">
        <ele>343.0</ele>
      </trkpt>
      <trkpt lat="24.048054" lon="120.848327">
        <ele>344.0</ele>
      </trkpt>
      <trkpt lat="24.047951" lon="120.848365">
        <ele>344.0</ele>
      </trkpt>
      <trkpt lat="24.047863" lon="120.848442">
        <ele>343.0</ele>
      </trkpt>
      <trkpt lat="24.047855" lon="120.848499">
        <ele>343.0</ele>
      </trkpt>
      <trkpt lat="24.04797" lon="120.848754">
        <ele>338.0</ele>
      </trkpt>
      <trkpt lat="24.048044" lon="120.849049">
        <ele>330.0</ele>
      </trkpt>
      <trkpt lat="24.048081" lon="120.849317">
        <ele>322.0</ele>
      </trkpt>
      <trkpt lat="24.048045" lon="120.849464">
        <ele>319.0</ele>
      </trkpt>
      <trkpt lat="24.047982" lon="120.849611">
        <ele>317.0</ele>
      </trkpt>
      <trkpt lat="24.047854" lon="120.84977">
        <ele>316.0</ele>
      </trkpt>
      <trkpt lat="24.047701" lon="120.849894">
        <ele>315.0</ele>
      </trkpt>
      <trkpt lat="24.047199" lon="120.850396">
        <ele>309.0</ele>
      </trkpt>
      <trkpt lat="24.047099" lon="120.850438">
        <ele>309.0</ele>
      </trkpt>
      <trkpt lat="24.046957" lon="120.850527">
        <ele>307.0</ele>
      </trkpt>
      <trkpt lat="24.046778" lon="120.850791">
        <ele>297.0</ele>
      </trkpt>
      <trkpt lat="24.046704" lon="120.850807">
        <ele>296.0</ele>
      </trkpt>
      <trkpt lat="24.046498" lon="120.850731">
        <ele>303.0</ele>
      </trkpt>
      <trkpt lat="24.046276" lon="120.850813">
        <ele>304.0</ele>
      </trkpt>
      <trkpt lat="24.046163" lon="120.850924">
        <ele>303.0</ele>
      </trkpt>
      <trkpt lat="24.046084" lon="120.85102">
        <ele>303.0</ele>
      </trkpt>
      <trkpt lat="24.045928" lon="120.851353">
        <ele>296.0</ele>
      </trkpt>
      <trkpt lat="24.045793" lon="120.85146">
        <ele>294.0</ele>
      </trkpt>
      <trkpt lat="24.045673" lon="120.851597">
        <ele>291.0</ele>
      </trkpt>
      <trkpt lat="24.045617" lon="120.851722">
        <ele>289.0</ele>
      </trkpt>
      <trkpt lat="24.04559" lon="120.851841">
        <ele>287.0</ele>
      </trkpt>
      <trkpt lat="24.045575" lon="120.852042">
        <ele>284.0</ele>
      </trkpt>
      <trkpt lat="24.04566" lon="120.852282">
        <ele>281.0</ele>
      </trkpt>
      <trkpt lat="24.045619" lon="120.852332">
        <ele>280.0</ele>
      </trkpt>
      <trkpt lat="24.045492" lon="120.852431">
        <ele>279.0</ele>
      </trkpt>
      <trkpt lat="24.045403" lon="120.85253">
        <ele>277.0</ele>
      </trkpt>
      <trkpt lat="24.045239" lon="120.852627">
        <ele>276.0</ele>
      </trkpt>
      <trkpt lat="24.045163" lon="120.852742">
        <ele>274.0</ele>
      </trkpt>
      <trkpt lat="24.045176" lon="120.853389">
        <ele>265.0</ele>
      </trkpt>
      <trkpt lat="24.045032" lon="120.854422">
        <ele>261.0</ele>
      </trkpt>
      <trkpt lat="24.04497" lon="120.854644">
        <ele>263.0</ele>
      </trkpt>
      <trkpt lat="24.04474" lon="120.854799">
        <ele>268.0</ele>
      </trkpt>
      <trkpt lat="24.044673" lon="120.85482">
        <ele>269.0</ele>
      </trkpt>
      <trkpt lat="24.044549" lon="120.854796">
        <ele>271.0</ele>
      </trkpt>
      <trkpt lat="24.044285" lon="120.854574">
        <ele>272.0</ele>
      </trkpt>
      <trkpt lat="24.044088" lon="120.854508">
        <ele>274.0</ele>
      </trkpt>
      <trkpt lat="24.043912" lon="120.854493">
        <ele>276.0</ele>
      </trkpt>
      <trkpt lat="24.043723" lon="120.854499">
        <ele>279.0</ele>
      </trkpt>
      <trkpt lat="24.043506" lon="120.854553">
        <ele>282.0</ele>
      </trkpt>
      <trkpt lat="24.043227" lon="120.854361">
        <ele>284.0</ele>
      </trkpt>
      <trkpt lat="24.043094" lon="120.854305">
        <ele>285.0</ele>
      </trkpt>
      <trkpt lat="24.042315" lon="120.854342">
        <ele>288.0</ele>
      </trkpt>
      <trkpt lat="24.041933" lon="120.854491">
        <ele>287.0</ele>
      </trkpt>
      <trkpt lat="24.041639" lon="120.854139">
        <ele>287.0</ele>
      </trkpt>
      <trkpt lat="24.041108" lon="120.854677">
        <ele>287.0</ele>
      </trkpt>
      <trkpt lat="24.040275" lon="120.855832">
        <ele>292.0</ele>
      </trkpt>
      <trkpt lat="24.040096" lon="120.85567">
        <ele>293.0</ele>
      </trkpt>
    </trkseg>
  </trk>
</gpx>
