<?xml version="1.0" encoding="UTF-8"?>
<gpx xmlns="http://www.topografix.com/GPX/1/1" xmlns:xsi="http://www.w3.org/2001/XMLSchema-instance" xsi:schemaLocation="http://www.topografix.com/GPX/1/1 http://www.topografix.com/GPX/1/1/gpx.xsd" version="1.1" creator="Martin Schneider">
  <wpt lat="23.950428" lon="120.86897">
    <ele>380.0</ele>
    <name>Start</name>
  </wpt>
  <wpt lat="23.950428" lon="120.86897">
    <ele>380.0</ele>
    <name>End</name>
  </wpt>
  <wpt lat="23.9370632" lon="120.8466697">
    <name>1</name>
    <desc>Trailhead</desc>
  </wpt>
  <wpt lat="23.934617" lon="120.841583">
    <ele>1126.0</ele>
    <name>Summit Jiufenershan</name>
  </wpt>
  <trk>
    <name>047_Juifenershan</name>
    <trkseg>
      <trkpt lat="23.950428" lon="120.86897">
        <ele>380.0</ele>
      </trkpt>
      <trkpt lat="23.950428" lon="120.86897">
        <ele>380.0</ele>
      </trkpt>
      <trkpt lat="23.950045" lon="120.868664">
        <ele>382.0</ele>
      </trkpt>
      <trkpt lat="23.949917" lon="120.868522">
        <ele>382.0</ele>
      </trkpt>
      <trkpt lat="23.949852" lon="120.868452">
        <ele>382.0</ele>
      </trkpt>
      <trkpt lat="23.949132" lon="120.867653">
        <ele>384.0</ele>
      </trkpt>
      <trkpt lat="23.949273" lon="120.867484">
        <ele>381.0</ele>
      </trkpt>
      <trkpt lat="23.94953" lon="120.867097">
        <ele>376.0</ele>
      </trkpt>
      <trkpt lat="23.950131" lon="120.86684">
        <ele>375.0</ele>
      </trkpt>
      <trkpt lat="23.950174" lon="120.866776">
        <ele>375.0</ele>
      </trkpt>
      <trkpt lat="23.950195" lon="120.86669">
        <ele>376.0</ele>
      </trkpt>
      <trkpt lat="23.950195" lon="120.866604">
        <ele>377.0</ele>
      </trkpt>
      <trkpt lat="23.950088" lon="120.866196">
        <ele>380.0</ele>
      </trkpt>
      <trkpt lat="23.950095" lon="120.866035">
        <ele>381.0</ele>
      </trkpt>
      <trkpt lat="23.95026" lon="120.86566">
        <ele>387.0</ele>
      </trkpt>
      <trkpt lat="23.95041" lon="120.865488">
        <ele>389.0</ele>
      </trkpt>
      <trkpt lat="23.950474" lon="120.865445">
        <ele>390.0</ele>
      </trkpt>
      <trkpt lat="23.95056" lon="120.865424">
        <ele>391.0</ele>
      </trkpt>
      <trkpt lat="23.950796" lon="120.865445">
        <ele>395.0</ele>
      </trkpt>
      <trkpt lat="23.950946" lon="120.865424">
        <ele>395.0</ele>
      </trkpt>
      <trkpt lat="23.951225" lon="120.865188">
        <ele>390.0</ele>
      </trkpt>
      <trkpt lat="23.951311" lon="120.865145">
        <ele>389.0</ele>
      </trkpt>
      <trkpt lat="23.951397" lon="120.865145">
        <ele>389.0</ele>
      </trkpt>
      <trkpt lat="23.95159" lon="120.865231">
        <ele>390.0</ele>
      </trkpt>
      <trkpt lat="23.951697" lon="120.865381">
        <ele>392.0</ele>
      </trkpt>
      <trkpt lat="23.951805" lon="120.865445">
        <ele>391.0</ele>
      </trkpt>
      <trkpt lat="23.951912" lon="120.865467">
        <ele>390.0</ele>
      </trkpt>
      <trkpt lat="23.952148" lon="120.865424">
        <ele>386.0</ele>
      </trkpt>
      <trkpt lat="23.952363" lon="120.865316">
        <ele>385.0</ele>
      </trkpt>
      <trkpt lat="23.953221" lon="120.864973">
        <ele>399.0</ele>
      </trkpt>
      <trkpt lat="23.953307" lon="120.864909">
        <ele>399.0</ele>
      </trkpt>
      <trkpt lat="23.953435" lon="120.86478">
        <ele>402.0</ele>
      </trkpt>
      <trkpt lat="23.954144" lon="120.86375">
        <ele>415.0</ele>
      </trkpt>
      <trkpt lat="23.954251" lon="120.8636">
        <ele>417.0</ele>
      </trkpt>
      <trkpt lat="23.954294" lon="120.863428">
        <ele>416.0</ele>
      </trkpt>
      <trkpt lat="23.954294" lon="120.863128">
        <ele>414.0</ele>
      </trkpt>
      <trkpt lat="23.954315" lon="120.863085">
        <ele>415.0</ele>
      </trkpt>
      <trkpt lat="23.954444" lon="120.862978">
        <ele>419.0</ele>
      </trkpt>
      <trkpt lat="23.954487" lon="120.862913">
        <ele>421.0</ele>
      </trkpt>
      <trkpt lat="23.954487" lon="120.862849">
        <ele>420.0</ele>
      </trkpt>
      <trkpt lat="23.954452" lon="120.862729">
        <ele>419.0</ele>
      </trkpt>
      <trkpt lat="23.954423" lon="120.862656">
        <ele>418.0</ele>
      </trkpt>
      <trkpt lat="23.953865" lon="120.861905">
        <ele>420.0</ele>
      </trkpt>
      <trkpt lat="23.953693" lon="120.861712">
        <ele>421.0</ele>
      </trkpt>
      <trkpt lat="23.953071" lon="120.861111">
        <ele>420.0</ele>
      </trkpt>
      <trkpt lat="23.953006" lon="120.861025">
        <ele>420.0</ele>
      </trkpt>
      <trkpt lat="23.95292" lon="120.860703">
        <ele>424.0</ele>
      </trkpt>
      <trkpt lat="23.95292" lon="120.860574">
        <ele>427.0</ele>
      </trkpt>
      <trkpt lat="23.953006" lon="120.860403">
        <ele>434.0</ele>
      </trkpt>
      <trkpt lat="23.953028" lon="120.860252">
        <ele>439.0</ele>
      </trkpt>
      <trkpt lat="23.953028" lon="120.860102">
        <ele>443.0</ele>
      </trkpt>
      <trkpt lat="23.952985" lon="120.859931">
        <ele>445.0</ele>
      </trkpt>
      <trkpt lat="23.952727" lon="120.859222">
        <ele>448.0</ele>
      </trkpt>
      <trkpt lat="23.95262" lon="120.858986">
        <ele>447.0</ele>
      </trkpt>
      <trkpt lat="23.952191" lon="120.858493">
        <ele>445.0</ele>
      </trkpt>
      <trkpt lat="23.952084" lon="120.85845">
        <ele>443.0</ele>
      </trkpt>
      <trkpt lat="23.951697" lon="120.858364">
        <ele>434.0</ele>
      </trkpt>
      <trkpt lat="23.951569" lon="120.858278">
        <ele>435.0</ele>
      </trkpt>
      <trkpt lat="23.951547" lon="120.858192">
        <ele>436.0</ele>
      </trkpt>
      <trkpt lat="23.951569" lon="120.858107">
        <ele>437.0</ele>
      </trkpt>
      <trkpt lat="23.951611" lon="120.858042">
        <ele>437.0</ele>
      </trkpt>
      <trkpt lat="23.951783" lon="120.857914">
        <ele>439.0</ele>
      </trkpt>
      <trkpt lat="23.951819" lon="120.857852">
        <ele>440.0</ele>
      </trkpt>
      <trkpt lat="23.951938" lon="120.857394">
        <ele>443.0</ele>
      </trkpt>
      <trkpt lat="23.952109" lon="120.857219">
        <ele>445.0</ele>
      </trkpt>
      <trkpt lat="23.952247" lon="120.856982">
        <ele>447.0</ele>
      </trkpt>
      <trkpt lat="23.952127" lon="120.856862">
        <ele>449.0</ele>
      </trkpt>
      <trkpt lat="23.952062" lon="120.856862">
        <ele>450.0</ele>
      </trkpt>
      <trkpt lat="23.951933" lon="120.857034">
        <ele>449.0</ele>
      </trkpt>
      <trkpt lat="23.951805" lon="120.857077">
        <ele>449.0</ele>
      </trkpt>
      <trkpt lat="23.95144" lon="120.856991">
        <ele>456.0</ele>
      </trkpt>
      <trkpt lat="23.951247" lon="120.857034">
        <ele>459.0</ele>
      </trkpt>
      <trkpt lat="23.951054" lon="120.857163">
        <ele>459.0</ele>
      </trkpt>
      <trkpt lat="23.950989" lon="120.857184">
        <ele>459.0</ele>
      </trkpt>
      <trkpt lat="23.950689" lon="120.857205">
        <ele>467.0</ele>
      </trkpt>
      <trkpt lat="23.950346" lon="120.857377">
        <ele>473.0</ele>
      </trkpt>
      <trkpt lat="23.950238" lon="120.857399">
        <ele>476.0</ele>
      </trkpt>
      <trkpt lat="23.950131" lon="120.857399">
        <ele>479.0</ele>
      </trkpt>
      <trkpt lat="23.949873" lon="120.857356">
        <ele>490.0</ele>
      </trkpt>
      <trkpt lat="23.94968" lon="120.857399">
        <ele>495.0</ele>
      </trkpt>
      <trkpt lat="23.94953" lon="120.857484">
        <ele>496.0</ele>
      </trkpt>
      <trkpt lat="23.949487" lon="120.85742">
        <ele>500.0</ele>
      </trkpt>
      <trkpt lat="23.949487" lon="120.857377">
        <ele>503.0</ele>
      </trkpt>
      <trkpt lat="23.949552" lon="120.857291">
        <ele>504.0</ele>
      </trkpt>
      <trkpt lat="23.949637" lon="120.857248">
        <ele>503.0</ele>
      </trkpt>
      <trkpt lat="23.949916" lon="120.857205">
        <ele>495.0</ele>
      </trkpt>
      <trkpt lat="23.950045" lon="120.85712">
        <ele>494.0</ele>
      </trkpt>
      <trkpt lat="23.950152" lon="120.856969">
        <ele>496.0</ele>
      </trkpt>
      <trkpt lat="23.950496" lon="120.856669">
        <ele>495.0</ele>
      </trkpt>
      <trkpt lat="23.950496" lon="120.856605">
        <ele>496.0</ele>
      </trkpt>
      <trkpt lat="23.950474" lon="120.85654">
        <ele>497.0</ele>
      </trkpt>
      <trkpt lat="23.950024" lon="120.856047">
        <ele>521.0</ele>
      </trkpt>
      <trkpt lat="23.949895" lon="120.855875">
        <ele>531.0</ele>
      </trkpt>
      <trkpt lat="23.949809" lon="120.855703">
        <ele>536.0</ele>
      </trkpt>
      <trkpt lat="23.949766" lon="120.855532">
        <ele>537.0</ele>
      </trkpt>
      <trkpt lat="23.949788" lon="120.855146">
        <ele>533.0</ele>
      </trkpt>
      <trkpt lat="23.949745" lon="120.85506">
        <ele>533.0</ele>
      </trkpt>
      <trkpt lat="23.949702" lon="120.855017">
        <ele>534.0</ele>
      </trkpt>
      <trkpt lat="23.949616" lon="120.854995">
        <ele>535.0</ele>
      </trkpt>
      <trkpt lat="23.94953" lon="120.855017">
        <ele>537.0</ele>
      </trkpt>
      <trkpt lat="23.949187" lon="120.855167">
        <ele>549.0</ele>
      </trkpt>
      <trkpt lat="23.949122" lon="120.855167">
        <ele>550.0</ele>
      </trkpt>
      <trkpt lat="23.9482" lon="120.854995">
        <ele>560.0</ele>
      </trkpt>
      <trkpt lat="23.948007" lon="120.854995">
        <ele>563.0</ele>
      </trkpt>
      <trkpt lat="23.947835" lon="120.855038">
        <ele>568.0</ele>
      </trkpt>
      <trkpt lat="23.947427" lon="120.855231">
        <ele>583.0</ele>
      </trkpt>
      <trkpt lat="23.947277" lon="120.855274">
        <ele>589.0</ele>
      </trkpt>
      <trkpt lat="23.946848" lon="120.855253">
        <ele>599.0</ele>
      </trkpt>
      <trkpt lat="23.946741" lon="120.855231">
        <ele>602.0</ele>
      </trkpt>
      <trkpt lat="23.946655" lon="120.855188">
        <ele>603.0</ele>
      </trkpt>
      <trkpt lat="23.946612" lon="120.855124">
        <ele>604.0</ele>
      </trkpt>
      <trkpt lat="23.946612" lon="120.855038">
        <ele>602.0</ele>
      </trkpt>
      <trkpt lat="23.946655" lon="120.854995">
        <ele>600.0</ele>
      </trkpt>
      <trkpt lat="23.946912" lon="120.854845">
        <ele>594.0</ele>
      </trkpt>
      <trkpt lat="23.946998" lon="120.854759">
        <ele>592.0</ele>
      </trkpt>
      <trkpt lat="23.94702" lon="120.854673">
        <ele>593.0</ele>
      </trkpt>
      <trkpt lat="23.947084" lon="120.854137">
        <ele>599.0</ele>
      </trkpt>
      <trkpt lat="23.94732" lon="120.853686">
        <ele>604.0</ele>
      </trkpt>
      <trkpt lat="23.947384" lon="120.853622">
        <ele>604.0</ele>
      </trkpt>
      <trkpt lat="23.947685" lon="120.853429">
        <ele>599.0</ele>
      </trkpt>
      <trkpt lat="23.947728" lon="120.853365">
        <ele>600.0</ele>
      </trkpt>
      <trkpt lat="23.947685" lon="120.852914">
        <ele>605.0</ele>
      </trkpt>
      <trkpt lat="23.947556" lon="120.852442">
        <ele>611.0</ele>
      </trkpt>
      <trkpt lat="23.947341" lon="120.852335">
        <ele>613.0</ele>
      </trkpt>
      <trkpt lat="23.947148" lon="120.852292">
        <ele>616.0</ele>
      </trkpt>
      <trkpt lat="23.946891" lon="120.852141">
        <ele>616.0</ele>
      </trkpt>
      <trkpt lat="23.946676" lon="120.852077">
        <ele>617.0</ele>
      </trkpt>
      <trkpt lat="23.94659" lon="120.852034">
        <ele>618.0</ele>
      </trkpt>
      <trkpt lat="23.946505" lon="120.85197">
        <ele>619.0</ele>
      </trkpt>
      <trkpt lat="23.946333" lon="120.851691">
        <ele>615.0</ele>
      </trkpt>
      <trkpt lat="23.94624" lon="120.851598">
        <ele>615.0</ele>
      </trkpt>
      <trkpt lat="23.94618" lon="120.851538">
        <ele>615.0</ele>
      </trkpt>
      <trkpt lat="23.945797" lon="120.851154">
        <ele>616.0</ele>
      </trkpt>
      <trkpt lat="23.945561" lon="120.850833">
        <ele>618.0</ele>
      </trkpt>
      <trkpt lat="23.945496" lon="120.85079">
        <ele>620.0</ele>
      </trkpt>
      <trkpt lat="23.945196" lon="120.850747">
        <ele>632.0</ele>
      </trkpt>
      <trkpt lat="23.945067" lon="120.850639">
        <ele>635.0</ele>
      </trkpt>
      <trkpt lat="23.944917" lon="120.850425">
        <ele>638.0</ele>
      </trkpt>
      <trkpt lat="23.944616" lon="120.850103">
        <ele>648.0</ele>
      </trkpt>
      <trkpt lat="23.944573" lon="120.849996">
        <ele>648.0</ele>
      </trkpt>
      <trkpt lat="23.944488" lon="120.849609">
        <ele>657.0</ele>
      </trkpt>
      <trkpt lat="23.944445" lon="120.849524">
        <ele>660.0</ele>
      </trkpt>
      <trkpt lat="23.944295" lon="120.849352">
        <ele>665.0</ele>
      </trkpt>
      <trkpt lat="23.94429" lon="120.849296">
        <ele>665.0</ele>
      </trkpt>
      <trkpt lat="23.944283" lon="120.849208">
        <ele>666.0</ele>
      </trkpt>
      <trkpt lat="23.944273" lon="120.849094">
        <ele>669.0</ele>
      </trkpt>
      <trkpt lat="23.944295" lon="120.849052">
        <ele>670.0</ele>
      </trkpt>
      <trkpt lat="23.944702" lon="120.848987">
        <ele>665.0</ele>
      </trkpt>
      <trkpt lat="23.944831" lon="120.84903">
        <ele>661.0</ele>
      </trkpt>
      <trkpt lat="23.945024" lon="120.849137">
        <ele>653.0</ele>
      </trkpt>
      <trkpt lat="23.94511" lon="120.849159">
        <ele>650.0</ele>
      </trkpt>
      <trkpt lat="23.945603" lon="120.849094">
        <ele>641.0</ele>
      </trkpt>
      <trkpt lat="23.945775" lon="120.849009">
        <ele>641.0</ele>
      </trkpt>
      <trkpt lat="23.945968" lon="120.84888">
        <ele>643.0</ele>
      </trkpt>
      <trkpt lat="23.946033" lon="120.848773">
        <ele>646.0</ele>
      </trkpt>
      <trkpt lat="23.946068" lon="120.848656">
        <ele>650.0</ele>
      </trkpt>
      <trkpt lat="23.946097" lon="120.848558">
        <ele>653.0</ele>
      </trkpt>
      <trkpt lat="23.946118" lon="120.848494">
        <ele>655.0</ele>
      </trkpt>
      <trkpt lat="23.94614" lon="120.848215">
        <ele>664.0</ele>
      </trkpt>
      <trkpt lat="23.946183" lon="120.848064">
        <ele>667.0</ele>
      </trkpt>
      <trkpt lat="23.946247" lon="120.847957">
        <ele>669.0</ele>
      </trkpt>
      <trkpt lat="23.946376" lon="120.847871">
        <ele>668.0</ele>
      </trkpt>
      <trkpt lat="23.946548" lon="120.847786">
        <ele>667.0</ele>
      </trkpt>
      <trkpt lat="23.94702" lon="120.847743">
        <ele>655.0</ele>
      </trkpt>
      <trkpt lat="23.947084" lon="120.8477">
        <ele>654.0</ele>
      </trkpt>
      <trkpt lat="23.947105" lon="120.847635">
        <ele>654.0</ele>
      </trkpt>
      <trkpt lat="23.947105" lon="120.847378">
        <ele>656.0</ele>
      </trkpt>
      <trkpt lat="23.947063" lon="120.847335">
        <ele>657.0</ele>
      </trkpt>
      <trkpt lat="23.94702" lon="120.847335">
        <ele>659.0</ele>
      </trkpt>
      <trkpt lat="23.946977" lon="120.847356">
        <ele>660.0</ele>
      </trkpt>
      <trkpt lat="23.946891" lon="120.847507">
        <ele>664.0</ele>
      </trkpt>
      <trkpt lat="23.946848" lon="120.847528">
        <ele>665.0</ele>
      </trkpt>
      <trkpt lat="23.946741" lon="120.847528">
        <ele>669.0</ele>
      </trkpt>
      <trkpt lat="23.946376" lon="120.847313">
        <ele>680.0</ele>
      </trkpt>
      <trkpt lat="23.946226" lon="120.847335">
        <ele>684.0</ele>
      </trkpt>
      <trkpt lat="23.945775" lon="120.847592">
        <ele>690.0</ele>
      </trkpt>
      <trkpt lat="23.945518" lon="120.847592">
        <ele>695.0</ele>
      </trkpt>
      <trkpt lat="23.945432" lon="120.847635">
        <ele>695.0</ele>
      </trkpt>
      <trkpt lat="23.94526" lon="120.847807">
        <ele>694.0</ele>
      </trkpt>
      <trkpt lat="23.945217" lon="120.847828">
        <ele>695.0</ele>
      </trkpt>
      <trkpt lat="23.944938" lon="120.847743">
        <ele>702.0</ele>
      </trkpt>
      <trkpt lat="23.944466" lon="120.847743">
        <ele>708.0</ele>
      </trkpt>
      <trkpt lat="23.944423" lon="120.847721">
        <ele>709.0</ele>
      </trkpt>
      <trkpt lat="23.944402" lon="120.847657">
        <ele>711.0</ele>
      </trkpt>
      <trkpt lat="23.944402" lon="120.847592">
        <ele>712.0</ele>
      </trkpt>
      <trkpt lat="23.944423" lon="120.847549">
        <ele>713.0</ele>
      </trkpt>
      <trkpt lat="23.944509" lon="120.847528">
        <ele>713.0</ele>
      </trkpt>
      <trkpt lat="23.94496" lon="120.847528">
        <ele>708.0</ele>
      </trkpt>
      <trkpt lat="23.945003" lon="120.847421">
        <ele>710.0</ele>
      </trkpt>
      <trkpt lat="23.944852" lon="120.847421">
        <ele>712.0</ele>
      </trkpt>
      <trkpt lat="23.944573" lon="120.847335">
        <ele>718.0</ele>
      </trkpt>
      <trkpt lat="23.944316" lon="120.847163">
        <ele>729.0</ele>
      </trkpt>
      <trkpt lat="23.944187" lon="120.847099">
        <ele>734.0</ele>
      </trkpt>
      <trkpt lat="23.944136" lon="120.847089">
        <ele>735.0</ele>
      </trkpt>
      <trkpt lat="23.943972" lon="120.847056">
        <ele>738.0</ele>
      </trkpt>
      <trkpt lat="23.943651" lon="120.846992">
        <ele>743.0</ele>
      </trkpt>
      <trkpt lat="23.943029" lon="120.846906">
        <ele>753.0</ele>
      </trkpt>
      <trkpt lat="23.9429" lon="120.846906">
        <ele>755.0</ele>
      </trkpt>
      <trkpt lat="23.942837" lon="120.846944">
        <ele>755.0</ele>
      </trkpt>
      <trkpt lat="23.942685" lon="120.847056">
        <ele>755.0</ele>
      </trkpt>
      <trkpt lat="23.942578" lon="120.847185">
        <ele>754.0</ele>
      </trkpt>
      <trkpt lat="23.94256" lon="120.847226">
        <ele>753.0</ele>
      </trkpt>
      <trkpt lat="23.942363" lon="120.8477">
        <ele>748.0</ele>
      </trkpt>
      <trkpt lat="23.942299" lon="120.847807">
        <ele>747.0</ele>
      </trkpt>
      <trkpt lat="23.942127" lon="120.847936">
        <ele>748.0</ele>
      </trkpt>
      <trkpt lat="23.941827" lon="120.848">
        <ele>755.0</ele>
      </trkpt>
      <trkpt lat="23.941784" lon="120.847979">
        <ele>757.0</ele>
      </trkpt>
      <trkpt lat="23.94172" lon="120.847914">
        <ele>762.0</ele>
      </trkpt>
      <trkpt lat="23.941591" lon="120.847592">
        <ele>779.0</ele>
      </trkpt>
      <trkpt lat="23.941526" lon="120.847528">
        <ele>782.0</ele>
      </trkpt>
      <trkpt lat="23.941441" lon="120.847485">
        <ele>785.0</ele>
      </trkpt>
      <trkpt lat="23.94114" lon="120.847399">
        <ele>793.0</ele>
      </trkpt>
      <trkpt lat="23.941076" lon="120.847399">
        <ele>794.0</ele>
      </trkpt>
      <trkpt lat="23.94099" lon="120.847421">
        <ele>794.0</ele>
      </trkpt>
      <trkpt lat="23.940775" lon="120.847571">
        <ele>790.0</ele>
      </trkpt>
      <trkpt lat="23.940711" lon="120.847592">
        <ele>789.0</ele>
      </trkpt>
      <trkpt lat="23.940625" lon="120.847571">
        <ele>791.0</ele>
      </trkpt>
      <trkpt lat="23.940132" lon="120.847313">
        <ele>812.0</ele>
      </trkpt>
      <trkpt lat="23.940046" lon="120.847292">
        <ele>814.0</ele>
      </trkpt>
      <trkpt lat="23.93981" lon="120.847313">
        <ele>814.0</ele>
      </trkpt>
      <trkpt lat="23.938994" lon="120.847142">
        <ele>830.0</ele>
      </trkpt>
      <trkpt lat="23.938587" lon="120.847249">
        <ele>828.0</ele>
      </trkpt>
      <trkpt lat="23.938522" lon="120.847249">
        <ele>829.0</ele>
      </trkpt>
      <trkpt lat="23.938007" lon="120.847035">
        <ele>846.0</ele>
      </trkpt>
      <trkpt lat="23.937922" lon="120.847013">
        <ele>847.0</ele>
      </trkpt>
      <trkpt lat="23.937814" lon="120.847035">
        <ele>847.0</ele>
      </trkpt>
      <trkpt lat="23.937728" lon="120.847077">
        <ele>845.0</ele>
      </trkpt>
      <trkpt lat="23.937678" lon="120.847122">
        <ele>843.0</ele>
      </trkpt>
      <trkpt lat="23.937678" lon="120.847122">
        <ele>843.0</ele>
      </trkpt>
      <trkpt lat="23.937535" lon="120.847249">
        <ele>838.0</ele>
      </trkpt>
      <trkpt lat="23.937471" lon="120.847271">
        <ele>837.0</ele>
      </trkpt>
      <trkpt lat="23.937364" lon="120.847249">
        <ele>840.0</ele>
      </trkpt>
      <trkpt lat="23.937299" lon="120.847206">
        <ele>843.0</ele>
      </trkpt>
      <trkpt lat="23.937256" lon="120.84712">
        <ele>847.0</ele>
      </trkpt>
      <trkpt lat="23.937192" lon="120.846863">
        <ele>860.0</ele>
      </trkpt>
      <trkpt lat="23.937149" lon="120.846756">
        <ele>865.0</ele>
      </trkpt>
      <trkpt lat="23.937063" lon="120.84667">
        <ele>870.0</ele>
      </trkpt>
      <trkpt lat="23.937054" lon="120.846619">
        <ele>872.0</ele>
      </trkpt>
      <trkpt lat="23.936979" lon="120.846545">
        <ele>876.0</ele>
      </trkpt>
      <trkpt lat="23.936977" lon="120.846499">
        <ele>879.0</ele>
      </trkpt>
      <trkpt lat="23.937003" lon="120.846499">
        <ele>878.0</ele>
      </trkpt>
      <trkpt lat="23.937304" lon="120.846734">
        <ele>865.0</ele>
      </trkpt>
      <trkpt lat="23.93737" lon="120.846815">
        <ele>860.0</ele>
      </trkpt>
      <trkpt lat="23.937399" lon="120.846826">
        <ele>859.0</ele>
      </trkpt>
      <trkpt lat="23.93746" lon="120.846803">
        <ele>860.0</ele>
      </trkpt>
      <trkpt lat="23.937474" lon="120.84676">
        <ele>862.0</ele>
      </trkpt>
      <trkpt lat="23.937469" lon="120.846728">
        <ele>863.0</ele>
      </trkpt>
      <trkpt lat="23.937444" lon="120.846695">
        <ele>865.0</ele>
      </trkpt>
      <trkpt lat="23.937396" lon="120.846558">
        <ele>873.0</ele>
      </trkpt>
      <trkpt lat="23.937357" lon="120.846341">
        <ele>886.0</ele>
      </trkpt>
      <trkpt lat="23.937321" lon="120.84628">
        <ele>890.0</ele>
      </trkpt>
      <trkpt lat="23.937233" lon="120.846215">
        <ele>893.0</ele>
      </trkpt>
      <trkpt lat="23.937272" lon="120.846195">
        <ele>895.0</ele>
      </trkpt>
      <trkpt lat="23.937593" lon="120.846195">
        <ele>896.0</ele>
      </trkpt>
      <trkpt lat="23.937705" lon="120.846128">
        <ele>900.0</ele>
      </trkpt>
      <trkpt lat="23.937762" lon="120.846122">
        <ele>901.0</ele>
      </trkpt>
      <trkpt lat="23.937732" lon="120.846069">
        <ele>904.0</ele>
      </trkpt>
      <trkpt lat="23.937579" lon="120.846041">
        <ele>905.0</ele>
      </trkpt>
      <trkpt lat="23.937323" lon="120.845934">
        <ele>910.0</ele>
      </trkpt>
      <trkpt lat="23.937274" lon="120.845782">
        <ele>918.0</ele>
      </trkpt>
      <trkpt lat="23.937235" lon="120.845737">
        <ele>920.0</ele>
      </trkpt>
      <trkpt lat="23.937216" lon="120.845678">
        <ele>924.0</ele>
      </trkpt>
      <trkpt lat="23.937292" lon="120.845637">
        <ele>927.0</ele>
      </trkpt>
      <trkpt lat="23.937392" lon="120.845689">
        <ele>926.0</ele>
      </trkpt>
      <trkpt lat="23.937453" lon="120.845762">
        <ele>922.0</ele>
      </trkpt>
      <trkpt lat="23.937607" lon="120.845769">
        <ele>923.0</ele>
      </trkpt>
      <trkpt lat="23.937962" lon="120.845658">
        <ele>931.0</ele>
      </trkpt>
      <trkpt lat="23.938099" lon="120.845677">
        <ele>930.0</ele>
      </trkpt>
      <trkpt lat="23.938112" lon="120.845636">
        <ele>933.0</ele>
      </trkpt>
      <trkpt lat="23.938001" lon="120.845575">
        <ele>936.0</ele>
      </trkpt>
      <trkpt lat="23.937897" lon="120.845547">
        <ele>938.0</ele>
      </trkpt>
      <trkpt lat="23.937664" lon="120.845447">
        <ele>943.0</ele>
      </trkpt>
      <trkpt lat="23.937549" lon="120.845432">
        <ele>944.0</ele>
      </trkpt>
      <trkpt lat="23.937324" lon="120.845071">
        <ele>963.0</ele>
      </trkpt>
      <trkpt lat="23.937138" lon="120.844878">
        <ele>969.0</ele>
      </trkpt>
      <trkpt lat="23.937099" lon="120.844711">
        <ele>977.0</ele>
      </trkpt>
      <trkpt lat="23.937017" lon="120.84454">
        <ele>985.0</ele>
      </trkpt>
      <trkpt lat="23.936963" lon="120.844505">
        <ele>986.0</ele>
      </trkpt>
      <trkpt lat="23.936901" lon="120.844481">
        <ele>986.0</ele>
      </trkpt>
      <trkpt lat="23.936813" lon="120.844473">
        <ele>985.0</ele>
      </trkpt>
      <trkpt lat="23.936584" lon="120.844575">
        <ele>979.0</ele>
      </trkpt>
      <trkpt lat="23.936403" lon="120.844505">
        <ele>986.0</ele>
      </trkpt>
      <trkpt lat="23.936227" lon="120.844355">
        <ele>997.0</ele>
      </trkpt>
      <trkpt lat="23.936092" lon="120.844365">
        <ele>999.0</ele>
      </trkpt>
      <trkpt lat="23.935747" lon="120.844465">
        <ele>999.0</ele>
      </trkpt>
      <trkpt lat="23.935478" lon="120.844629">
        <ele>992.0</ele>
      </trkpt>
      <trkpt lat="23.935387" lon="120.844597">
        <ele>993.0</ele>
      </trkpt>
      <trkpt lat="23.935321" lon="120.844514">
        <ele>997.0</ele>
      </trkpt>
      <trkpt lat="23.935351" lon="120.844447">
        <ele>1000.0</ele>
      </trkpt>
      <trkpt lat="23.93547" lon="120.844425">
        <ele>1001.0</ele>
      </trkpt>
      <trkpt lat="23.935559" lon="120.844114">
        <ele>1016.0</ele>
      </trkpt>
      <trkpt lat="23.935719" lon="120.843886">
        <ele>1026.0</ele>
      </trkpt>
      <trkpt lat="23.935922" lon="120.843763">
        <ele>1030.0</ele>
      </trkpt>
      <trkpt lat="23.93612" lon="120.843678">
        <ele>1033.0</ele>
      </trkpt>
      <trkpt lat="23.936215" lon="120.843607">
        <ele>1036.0</ele>
      </trkpt>
      <trkpt lat="23.93628" lon="120.843589">
        <ele>1036.0</ele>
      </trkpt>
      <trkpt lat="23.936348" lon="120.84359">
        <ele>1036.0</ele>
      </trkpt>
      <trkpt lat="23.936588" lon="120.843644">
        <ele>1032.0</ele>
      </trkpt>
      <trkpt lat="23.936774" lon="120.843617">
        <ele>1033.0</ele>
      </trkpt>
      <trkpt lat="23.937009" lon="120.843656">
        <ele>1033.0</ele>
      </trkpt>
      <trkpt lat="23.937244" lon="120.843612">
        <ele>1036.0</ele>
      </trkpt>
      <trkpt lat="23.93754" lon="120.843519">
        <ele>1041.0</ele>
      </trkpt>
      <trkpt lat="23.937645" lon="120.843501">
        <ele>1039.0</ele>
      </trkpt>
      <trkpt lat="23.937682" lon="120.843482">
        <ele>1039.0</ele>
      </trkpt>
      <trkpt lat="23.93773" lon="120.843429">
        <ele>1040.0</ele>
      </trkpt>
      <trkpt lat="23.937857" lon="120.843127">
        <ele>1038.0</ele>
      </trkpt>
      <trkpt lat="23.937993" lon="120.842965">
        <ele>1031.0</ele>
      </trkpt>
      <trkpt lat="23.937998" lon="120.842941">
        <ele>1031.0</ele>
      </trkpt>
      <trkpt lat="23.937963" lon="120.842887">
        <ele>1032.0</ele>
      </trkpt>
      <trkpt lat="23.937857" lon="120.842807">
        <ele>1035.0</ele>
      </trkpt>
      <trkpt lat="23.937793" lon="120.842805">
        <ele>1038.0</ele>
      </trkpt>
      <trkpt lat="23.937754" lon="120.842823">
        <ele>1039.0</ele>
      </trkpt>
      <trkpt lat="23.937736" lon="120.842903">
        <ele>1041.0</ele>
      </trkpt>
      <trkpt lat="23.937715" lon="120.842929">
        <ele>1042.0</ele>
      </trkpt>
      <trkpt lat="23.937688" lon="120.842934">
        <ele>1043.0</ele>
      </trkpt>
      <trkpt lat="23.937673" lon="120.842923">
        <ele>1043.0</ele>
      </trkpt>
      <trkpt lat="23.937654" lon="120.84285">
        <ele>1044.0</ele>
      </trkpt>
      <trkpt lat="23.937458" lon="120.842681">
        <ele>1050.0</ele>
      </trkpt>
      <trkpt lat="23.937154" lon="120.842701">
        <ele>1057.0</ele>
      </trkpt>
      <trkpt lat="23.937087" lon="120.84275">
        <ele>1058.0</ele>
      </trkpt>
      <trkpt lat="23.937055" lon="120.842752">
        <ele>1059.0</ele>
      </trkpt>
      <trkpt lat="23.936694" lon="120.84249">
        <ele>1075.0</ele>
      </trkpt>
      <trkpt lat="23.936561" lon="120.842444">
        <ele>1077.0</ele>
      </trkpt>
      <trkpt lat="23.936457" lon="120.84244">
        <ele>1080.0</ele>
      </trkpt>
      <trkpt lat="23.936254" lon="120.842384">
        <ele>1085.0</ele>
      </trkpt>
      <trkpt lat="23.936156" lon="120.842374">
        <ele>1088.0</ele>
      </trkpt>
      <trkpt lat="23.935955" lon="120.842294">
        <ele>1093.0</ele>
      </trkpt>
      <trkpt lat="23.935754" lon="120.842239">
        <ele>1100.0</ele>
      </trkpt>
      <trkpt lat="23.935488" lon="120.842064">
        <ele>1107.0</ele>
      </trkpt>
      <trkpt lat="23.935273" lon="120.841885">
        <ele>1115.0</ele>
      </trkpt>
      <trkpt lat="23.935184" lon="120.841828">
        <ele>1120.0</ele>
      </trkpt>
      <trkpt lat="23.934979" lon="120.841744">
        <ele>1129.0</ele>
      </trkpt>
      <trkpt lat="23.934839" lon="120.841663">
        <ele>1130.0</ele>
      </trkpt>
      <trkpt lat="23.934682" lon="120.841618">
        <ele>1128.0</ele>
      </trkpt>
      <trkpt lat="23.934617" lon="120.841583">
        <ele>1126.0</ele>
      </trkpt>
      <trkpt lat="23.934682" lon="120.841618">
        <ele>1128.0</ele>
      </trkpt>
      <trkpt lat="23.934839" lon="120.841663">
        <ele>1130.0</ele>
      </trkpt>
      <trkpt lat="23.934979" lon="120.841744">
        <ele>1129.0</ele>
      </trkpt>
      <trkpt lat="23.935184" lon="120.841828">
        <ele>1120.0</ele>
      </trkpt>
      <trkpt lat="23.935273" lon="120.841885">
        <ele>1115.0</ele>
      </trkpt>
      <trkpt lat="23.935488" lon="120.842064">
        <ele>1107.0</ele>
      </trkpt>
      <trkpt lat="23.935754" lon="120.842239">
        <ele>1100.0</ele>
      </trkpt>
      <trkpt lat="23.935955" lon="120.842294">
        <ele>1093.0</ele>
      </trkpt>
      <trkpt lat="23.936156" lon="120.842374">
        <ele>1088.0</ele>
      </trkpt>
      <trkpt lat="23.936254" lon="120.842384">
        <ele>1085.0</ele>
      </trkpt>
      <trkpt lat="23.936457" lon="120.84244">
        <ele>1080.0</ele>
      </trkpt>
      <trkpt lat="23.936561" lon="120.842444">
        <ele>1077.0</ele>
      </trkpt>
      <trkpt lat="23.936694" lon="120.84249">
        <ele>1075.0</ele>
      </trkpt>
      <trkpt lat="23.937055" lon="120.842752">
        <ele>1059.0</ele>
      </trkpt>
      <trkpt lat="23.937087" lon="120.84275">
        <ele>1058.0</ele>
      </trkpt>
      <trkpt lat="23.937154" lon="120.842701">
        <ele>1057.0</ele>
      </trkpt>
      <trkpt lat="23.937458" lon="120.842681">
        <ele>1050.0</ele>
      </trkpt>
      <trkpt lat="23.937654" lon="120.84285">
        <ele>1044.0</ele>
      </trkpt>
      <trkpt lat="23.937673" lon="120.842923">
        <ele>1043.0</ele>
      </trkpt>
      <trkpt lat="23.937688" lon="120.842934">
        <ele>1043.0</ele>
      </trkpt>
      <trkpt lat="23.937715" lon="120.842929">
        <ele>1042.0</ele>
      </trkpt>
      <trkpt lat="23.937736" lon="120.842903">
        <ele>1041.0</ele>
      </trkpt>
      <trkpt lat="23.937754" lon="120.842823">
        <ele>1039.0</ele>
      </trkpt>
      <trkpt lat="23.937793" lon="120.842805">
        <ele>1038.0</ele>
      </trkpt>
      <trkpt lat="23.937857" lon="120.842807">
        <ele>1035.0</ele>
      </trkpt>
      <trkpt lat="23.937963" lon="120.842887">
        <ele>1032.0</ele>
      </trkpt>
      <trkpt lat="23.937998" lon="120.842941">
        <ele>1031.0</ele>
      </trkpt>
      <trkpt lat="23.937993" lon="120.842965">
        <ele>1031.0</ele>
      </trkpt>
      <trkpt lat="23.937857" lon="120.843127">
        <ele>1038.0</ele>
      </trkpt>
      <trkpt lat="23.93773" lon="120.843429">
        <ele>1040.0</ele>
      </trkpt>
      <trkpt lat="23.937682" lon="120.843482">
        <ele>1039.0</ele>
      </trkpt>
      <trkpt lat="23.937645" lon="120.843501">
        <ele>1039.0</ele>
      </trkpt>
      <trkpt lat="23.93754" lon="120.843519">
        <ele>1041.0</ele>
      </trkpt>
      <trkpt lat="23.937244" lon="120.843612">
        <ele>1036.0</ele>
      </trkpt>
      <trkpt lat="23.937009" lon="120.843656">
        <ele>1033.0</ele>
      </trkpt>
      <trkpt lat="23.936774" lon="120.843617">
        <ele>1033.0</ele>
      </trkpt>
      <trkpt lat="23.936588" lon="120.843644">
        <ele>1032.0</ele>
      </trkpt>
      <trkpt lat="23.936348" lon="120.84359">
        <ele>1036.0</ele>
      </trkpt>
      <trkpt lat="23.93628" lon="120.843589">
        <ele>1036.0</ele>
      </trkpt>
      <trkpt lat="23.936215" lon="120.843607">
        <ele>1036.0</ele>
      </trkpt>
      <trkpt lat="23.93612" lon="120.843678">
        <ele>1033.0</ele>
      </trkpt>
      <trkpt lat="23.935922" lon="120.843763">
        <ele>1030.0</ele>
      </trkpt>
      <trkpt lat="23.935719" lon="120.843886">
        <ele>1026.0</ele>
      </trkpt>
      <trkpt lat="23.935559" lon="120.844114">
        <ele>1016.0</ele>
      </trkpt>
      <trkpt lat="23.93547" lon="120.844425">
        <ele>1001.0</ele>
      </trkpt>
      <trkpt lat="23.935351" lon="120.844447">
        <ele>1000.0</ele>
      </trkpt>
      <trkpt lat="23.935321" lon="120.844514">
        <ele>997.0</ele>
      </trkpt>
      <trkpt lat="23.935387" lon="120.844597">
        <ele>993.0</ele>
      </trkpt>
      <trkpt lat="23.935478" lon="120.844629">
        <ele>992.0</ele>
      </trkpt>
      <trkpt lat="23.935747" lon="120.844465">
        <ele>999.0</ele>
      </trkpt>
      <trkpt lat="23.936092" lon="120.844365">
        <ele>999.0</ele>
      </trkpt>
      <trkpt lat="23.936227" lon="120.844355">
        <ele>997.0</ele>
      </trkpt>
      <trkpt lat="23.936403" lon="120.844505">
        <ele>986.0</ele>
      </trkpt>
      <trkpt lat="23.936584" lon="120.844575">
        <ele>979.0</ele>
      </trkpt>
      <trkpt lat="23.936813" lon="120.844473">
        <ele>985.0</ele>
      </trkpt>
      <trkpt lat="23.936901" lon="120.844481">
        <ele>986.0</ele>
      </trkpt>
      <trkpt lat="23.936963" lon="120.844505">
        <ele>986.0</ele>
      </trkpt>
      <trkpt lat="23.937017" lon="120.84454">
        <ele>985.0</ele>
      </trkpt>
      <trkpt lat="23.937099" lon="120.844711">
        <ele>977.0</ele>
      </trkpt>
      <trkpt lat="23.937138" lon="120.844878">
        <ele>969.0</ele>
      </trkpt>
      <trkpt lat="23.937324" lon="120.845071">
        <ele>963.0</ele>
      </trkpt>
      <trkpt lat="23.937549" lon="120.845432">
        <ele>944.0</ele>
      </trkpt>
      <trkpt lat="23.937664" lon="120.845447">
        <ele>943.0</ele>
      </trkpt>
      <trkpt lat="23.937897" lon="120.845547">
        <ele>938.0</ele>
      </trkpt>
      <trkpt lat="23.938001" lon="120.845575">
        <ele>936.0</ele>
      </trkpt>
      <trkpt lat="23.938112" lon="120.845636">
        <ele>933.0</ele>
      </trkpt>
      <trkpt lat="23.938099" lon="120.845677">
        <ele>930.0</ele>
      </trkpt>
      <trkpt lat="23.937962" lon="120.845658">
        <ele>931.0</ele>
      </trkpt>
      <trkpt lat="23.937607" lon="120.845769">
        <ele>923.0</ele>
      </trkpt>
      <trkpt lat="23.937453" lon="120.845762">
        <ele>922.0</ele>
      </trkpt>
      <trkpt lat="23.937392" lon="120.845689">
        <ele>926.0</ele>
      </trkpt>
      <trkpt lat="23.937292" lon="120.845637">
        <ele>927.0</ele>
      </trkpt>
      <trkpt lat="23.937216" lon="120.845678">
        <ele>924.0</ele>
      </trkpt>
      <trkpt lat="23.937235" lon="120.845737">
        <ele>920.0</ele>
      </trkpt>
      <trkpt lat="23.937274" lon="120.845782">
        <ele>918.0</ele>
      </trkpt>
      <trkpt lat="23.937323" lon="120.845934">
        <ele>910.0</ele>
      </trkpt>
      <trkpt lat="23.937579" lon="120.846041">
        <ele>905.0</ele>
      </trkpt>
      <trkpt lat="23.937732" lon="120.846069">
        <ele>904.0</ele>
      </trkpt>
      <trkpt lat="23.937762" lon="120.846122">
        <ele>901.0</ele>
      </trkpt>
      <trkpt lat="23.937705" lon="120.846128">
        <ele>900.0</ele>
      </trkpt>
      <trkpt lat="23.937593" lon="120.846195">
        <ele>896.0</ele>
      </trkpt>
      <trkpt lat="23.937272" lon="120.846195">
        <ele>895.0</ele>
      </trkpt>
      <trkpt lat="23.937233" lon="120.846215">
        <ele>893.0</ele>
      </trkpt>
      <trkpt lat="23.937321" lon="120.84628">
        <ele>890.0</ele>
      </trkpt>
      <trkpt lat="23.937357" lon="120.846341">
        <ele>886.0</ele>
      </trkpt>
      <trkpt lat="23.937396" lon="120.846558">
        <ele>873.0</ele>
      </trkpt>
      <trkpt lat="23.937444" lon="120.846695">
        <ele>865.0</ele>
      </trkpt>
      <trkpt lat="23.937469" lon="120.846728">
        <ele>863.0</ele>
      </trkpt>
      <trkpt lat="23.937474" lon="120.84676">
        <ele>862.0</ele>
      </trkpt>
      <trkpt lat="23.93746" lon="120.846803">
        <ele>860.0</ele>
      </trkpt>
      <trkpt lat="23.937399" lon="120.846826">
        <ele>859.0</ele>
      </trkpt>
      <trkpt lat="23.93737" lon="120.846815">
        <ele>860.0</ele>
      </trkpt>
      <trkpt lat="23.937304" lon="120.846734">
        <ele>865.0</ele>
      </trkpt>
      <trkpt lat="23.937003" lon="120.846499">
        <ele>878.0</ele>
      </trkpt>
      <trkpt lat="23.936977" lon="120.846499">
        <ele>879.0</ele>
      </trkpt>
      <trkpt lat="23.936979" lon="120.846545">
        <ele>876.0</ele>
      </trkpt>
      <trkpt lat="23.937054" lon="120.846619">
        <ele>872.0</ele>
      </trkpt>
      <trkpt lat="23.937063" lon="120.84667">
        <ele>870.0</ele>
      </trkpt>
      <trkpt lat="23.937149" lon="120.846756">
        <ele>865.0</ele>
      </trkpt>
      <trkpt lat="23.937192" lon="120.846863">
        <ele>860.0</ele>
      </trkpt>
      <trkpt lat="23.937256" lon="120.84712">
        <ele>847.0</ele>
      </trkpt>
      <trkpt lat="23.937299" lon="120.847206">
        <ele>843.0</ele>
      </trkpt>
      <trkpt lat="23.937364" lon="120.847249">
        <ele>840.0</ele>
      </trkpt>
      <trkpt lat="23.937471" lon="120.847271">
        <ele>837.0</ele>
      </trkpt>
      <trkpt lat="23.937535" lon="120.847249">
        <ele>838.0</ele>
      </trkpt>
      <trkpt lat="23.937678" lon="120.847122">
        <ele>843.0</ele>
      </trkpt>
      <trkpt lat="23.937678" lon="120.847122">
        <ele>843.0</ele>
      </trkpt>
      <trkpt lat="23.937728" lon="120.847077">
        <ele>845.0</ele>
      </trkpt>
      <trkpt lat="23.937814" lon="120.847035">
        <ele>847.0</ele>
      </trkpt>
      <trkpt lat="23.937922" lon="120.847013">
        <ele>847.0</ele>
      </trkpt>
      <trkpt lat="23.938007" lon="120.847035">
        <ele>846.0</ele>
      </trkpt>
      <trkpt lat="23.938522" lon="120.847249">
        <ele>829.0</ele>
      </trkpt>
      <trkpt lat="23.938587" lon="120.847249">
        <ele>828.0</ele>
      </trkpt>
      <trkpt lat="23.938994" lon="120.847142">
        <ele>830.0</ele>
      </trkpt>
      <trkpt lat="23.93981" lon="120.847313">
        <ele>814.0</ele>
      </trkpt>
      <trkpt lat="23.940046" lon="120.847292">
        <ele>814.0</ele>
      </trkpt>
      <trkpt lat="23.940132" lon="120.847313">
        <ele>812.0</ele>
      </trkpt>
      <trkpt lat="23.940625" lon="120.847571">
        <ele>791.0</ele>
      </trkpt>
      <trkpt lat="23.940711" lon="120.847592">
        <ele>789.0</ele>
      </trkpt>
      <trkpt lat="23.940775" lon="120.847571">
        <ele>790.0</ele>
      </trkpt>
      <trkpt lat="23.94099" lon="120.847421">
        <ele>794.0</ele>
      </trkpt>
      <trkpt lat="23.941076" lon="120.847399">
        <ele>794.0</ele>
      </trkpt>
      <trkpt lat="23.94114" lon="120.847399">
        <ele>793.0</ele>
      </trkpt>
      <trkpt lat="23.941441" lon="120.847485">
        <ele>785.0</ele>
      </trkpt>
      <trkpt lat="23.941526" lon="120.847528">
        <ele>782.0</ele>
      </trkpt>
      <trkpt lat="23.941591" lon="120.847592">
        <ele>779.0</ele>
      </trkpt>
      <trkpt lat="23.94172" lon="120.847914">
        <ele>762.0</ele>
      </trkpt>
      <trkpt lat="23.941784" lon="120.847979">
        <ele>757.0</ele>
      </trkpt>
      <trkpt lat="23.941827" lon="120.848">
        <ele>755.0</ele>
      </trkpt>
      <trkpt lat="23.942127" lon="120.847936">
        <ele>748.0</ele>
      </trkpt>
      <trkpt lat="23.942299" lon="120.847807">
        <ele>747.0</ele>
      </trkpt>
      <trkpt lat="23.942363" lon="120.8477">
        <ele>748.0</ele>
      </trkpt>
      <trkpt lat="23.94256" lon="120.847226">
        <ele>753.0</ele>
      </trkpt>
      <trkpt lat="23.942578" lon="120.847185">
        <ele>754.0</ele>
      </trkpt>
      <trkpt lat="23.942685" lon="120.847056">
        <ele>755.0</ele>
      </trkpt>
      <trkpt lat="23.942837" lon="120.846944">
        <ele>755.0</ele>
      </trkpt>
      <trkpt lat="23.9429" lon="120.846906">
        <ele>755.0</ele>
      </trkpt>
      <trkpt lat="23.943029" lon="120.846906">
        <ele>753.0</ele>
      </trkpt>
      <trkpt lat="23.943651" lon="120.846992">
        <ele>743.0</ele>
      </trkpt>
      <trkpt lat="23.943972" lon="120.847056">
        <ele>738.0</ele>
      </trkpt>
      <trkpt lat="23.944136" lon="120.847089">
        <ele>735.0</ele>
      </trkpt>
      <trkpt lat="23.944187" lon="120.847099">
        <ele>734.0</ele>
      </trkpt>
      <trkpt lat="23.944316" lon="120.847163">
        <ele>729.0</ele>
      </trkpt>
      <trkpt lat="23.944573" lon="120.847335">
        <ele>718.0</ele>
      </trkpt>
      <trkpt lat="23.944852" lon="120.847421">
        <ele>712.0</ele>
      </trkpt>
      <trkpt lat="23.945003" lon="120.847421">
        <ele>710.0</ele>
      </trkpt>
      <trkpt lat="23.94496" lon="120.847528">
        <ele>708.0</ele>
      </trkpt>
      <trkpt lat="23.944509" lon="120.847528">
        <ele>713.0</ele>
      </trkpt>
      <trkpt lat="23.944423" lon="120.847549">
        <ele>713.0</ele>
      </trkpt>
      <trkpt lat="23.944402" lon="120.847592">
        <ele>712.0</ele>
      </trkpt>
      <trkpt lat="23.944402" lon="120.847657">
        <ele>711.0</ele>
      </trkpt>
      <trkpt lat="23.944423" lon="120.847721">
        <ele>709.0</ele>
      </trkpt>
      <trkpt lat="23.944466" lon="120.847743">
        <ele>708.0</ele>
      </trkpt>
      <trkpt lat="23.944938" lon="120.847743">
        <ele>702.0</ele>
      </trkpt>
      <trkpt lat="23.945217" lon="120.847828">
        <ele>695.0</ele>
      </trkpt>
      <trkpt lat="23.94526" lon="120.847807">
        <ele>694.0</ele>
      </trkpt>
      <trkpt lat="23.945432" lon="120.847635">
        <ele>695.0</ele>
      </trkpt>
      <trkpt lat="23.945518" lon="120.847592">
        <ele>695.0</ele>
      </trkpt>
      <trkpt lat="23.945775" lon="120.847592">
        <ele>690.0</ele>
      </trkpt>
      <trkpt lat="23.946226" lon="120.847335">
        <ele>684.0</ele>
      </trkpt>
      <trkpt lat="23.946376" lon="120.847313">
        <ele>680.0</ele>
      </trkpt>
      <trkpt lat="23.946741" lon="120.847528">
        <ele>669.0</ele>
      </trkpt>
      <trkpt lat="23.946848" lon="120.847528">
        <ele>665.0</ele>
      </trkpt>
      <trkpt lat="23.946891" lon="120.847507">
        <ele>664.0</ele>
      </trkpt>
      <trkpt lat="23.946977" lon="120.847356">
        <ele>660.0</ele>
      </trkpt>
      <trkpt lat="23.94702" lon="120.847335">
        <ele>659.0</ele>
      </trkpt>
      <trkpt lat="23.947063" lon="120.847335">
        <ele>657.0</ele>
      </trkpt>
      <trkpt lat="23.947105" lon="120.847378">
        <ele>656.0</ele>
      </trkpt>
      <trkpt lat="23.947105" lon="120.847635">
        <ele>654.0</ele>
      </trkpt>
      <trkpt lat="23.947084" lon="120.8477">
        <ele>654.0</ele>
      </trkpt>
      <trkpt lat="23.94702" lon="120.847743">
        <ele>655.0</ele>
      </trkpt>
      <trkpt lat="23.946548" lon="120.847786">
        <ele>667.0</ele>
      </trkpt>
      <trkpt lat="23.946376" lon="120.847871">
        <ele>668.0</ele>
      </trkpt>
      <trkpt lat="23.946247" lon="120.847957">
        <ele>669.0</ele>
      </trkpt>
      <trkpt lat="23.946183" lon="120.848064">
        <ele>667.0</ele>
      </trkpt>
      <trkpt lat="23.94614" lon="120.848215">
        <ele>664.0</ele>
      </trkpt>
      <trkpt lat="23.946118" lon="120.848494">
        <ele>655.0</ele>
      </trkpt>
      <trkpt lat="23.946097" lon="120.848558">
        <ele>653.0</ele>
      </trkpt>
      <trkpt lat="23.946068" lon="120.848656">
        <ele>650.0</ele>
      </trkpt>
      <trkpt lat="23.946033" lon="120.848773">
        <ele>646.0</ele>
      </trkpt>
      <trkpt lat="23.945968" lon="120.84888">
        <ele>643.0</ele>
      </trkpt>
      <trkpt lat="23.945775" lon="120.849009">
        <ele>641.0</ele>
      </trkpt>
      <trkpt lat="23.945603" lon="120.849094">
        <ele>641.0</ele>
      </trkpt>
      <trkpt lat="23.94511" lon="120.849159">
        <ele>650.0</ele>
      </trkpt>
      <trkpt lat="23.945024" lon="120.849137">
        <ele>653.0</ele>
      </trkpt>
      <trkpt lat="23.944831" lon="120.84903">
        <ele>661.0</ele>
      </trkpt>
      <trkpt lat="23.944702" lon="120.848987">
        <ele>665.0</ele>
      </trkpt>
      <trkpt lat="23.944295" lon="120.849052">
        <ele>670.0</ele>
      </trkpt>
      <trkpt lat="23.944273" lon="120.849094">
        <ele>669.0</ele>
      </trkpt>
      <trkpt lat="23.944283" lon="120.849208">
        <ele>666.0</ele>
      </trkpt>
      <trkpt lat="23.94429" lon="120.849296">
        <ele>665.0</ele>
      </trkpt>
      <trkpt lat="23.944295" lon="120.849352">
        <ele>665.0</ele>
      </trkpt>
      <trkpt lat="23.944445" lon="120.849524">
        <ele>660.0</ele>
      </trkpt>
      <trkpt lat="23.944488" lon="120.849609">
        <ele>657.0</ele>
      </trkpt>
      <trkpt lat="23.944573" lon="120.849996">
        <ele>648.0</ele>
      </trkpt>
      <trkpt lat="23.944616" lon="120.850103">
        <ele>648.0</ele>
      </trkpt>
      <trkpt lat="23.944917" lon="120.850425">
        <ele>638.0</ele>
      </trkpt>
      <trkpt lat="23.945067" lon="120.850639">
        <ele>635.0</ele>
      </trkpt>
      <trkpt lat="23.945196" lon="120.850747">
        <ele>632.0</ele>
      </trkpt>
      <trkpt lat="23.945496" lon="120.85079">
        <ele>620.0</ele>
      </trkpt>
      <trkpt lat="23.945561" lon="120.850833">
        <ele>618.0</ele>
      </trkpt>
      <trkpt lat="23.945797" lon="120.851154">
        <ele>616.0</ele>
      </trkpt>
      <trkpt lat="23.94618" lon="120.851538">
        <ele>615.0</ele>
      </trkpt>
      <trkpt lat="23.94624" lon="120.851598">
        <ele>615.0</ele>
      </trkpt>
      <trkpt lat="23.946333" lon="120.851691">
        <ele>615.0</ele>
      </trkpt>
      <trkpt lat="23.946505" lon="120.85197">
        <ele>619.0</ele>
      </trkpt>
      <trkpt lat="23.94659" lon="120.852034">
        <ele>618.0</ele>
      </trkpt>
      <trkpt lat="23.946676" lon="120.852077">
        <ele>617.0</ele>
      </trkpt>
      <trkpt lat="23.946891" lon="120.852141">
        <ele>616.0</ele>
      </trkpt>
      <trkpt lat="23.947148" lon="120.852292">
        <ele>616.0</ele>
      </trkpt>
      <trkpt lat="23.947341" lon="120.852335">
        <ele>613.0</ele>
      </trkpt>
      <trkpt lat="23.947556" lon="120.852442">
        <ele>611.0</ele>
      </trkpt>
      <trkpt lat="23.947685" lon="120.852914">
        <ele>605.0</ele>
      </trkpt>
      <trkpt lat="23.947728" lon="120.853365">
        <ele>600.0</ele>
      </trkpt>
      <trkpt lat="23.947685" lon="120.853429">
        <ele>599.0</ele>
      </trkpt>
      <trkpt lat="23.947384" lon="120.853622">
        <ele>604.0</ele>
      </trkpt>
      <trkpt lat="23.94732" lon="120.853686">
        <ele>604.0</ele>
      </trkpt>
      <trkpt lat="23.947084" lon="120.854137">
        <ele>599.0</ele>
      </trkpt>
      <trkpt lat="23.94702" lon="120.854673">
        <ele>593.0</ele>
      </trkpt>
      <trkpt lat="23.946998" lon="120.854759">
        <ele>592.0</ele>
      </trkpt>
      <trkpt lat="23.946912" lon="120.854845">
        <ele>594.0</ele>
      </trkpt>
      <trkpt lat="23.946655" lon="120.854995">
        <ele>600.0</ele>
      </trkpt>
      <trkpt lat="23.946612" lon="120.855038">
        <ele>602.0</ele>
      </trkpt>
      <trkpt lat="23.946612" lon="120.855124">
        <ele>604.0</ele>
      </trkpt>
      <trkpt lat="23.946655" lon="120.855188">
        <ele>603.0</ele>
      </trkpt>
      <trkpt lat="23.946741" lon="120.855231">
        <ele>602.0</ele>
      </trkpt>
      <trkpt lat="23.946848" lon="120.855253">
        <ele>599.0</ele>
      </trkpt>
      <trkpt lat="23.947277" lon="120.855274">
        <ele>589.0</ele>
      </trkpt>
      <trkpt lat="23.947427" lon="120.855231">
        <ele>583.0</ele>
      </trkpt>
      <trkpt lat="23.947835" lon="120.855038">
        <ele>568.0</ele>
      </trkpt>
      <trkpt lat="23.948007" lon="120.854995">
        <ele>563.0</ele>
      </trkpt>
      <trkpt lat="23.9482" lon="120.854995">
        <ele>560.0</ele>
      </trkpt>
      <trkpt lat="23.949122" lon="120.855167">
        <ele>550.0</ele>
      </trkpt>
      <trkpt lat="23.949187" lon="120.855167">
        <ele>549.0</ele>
      </trkpt>
      <trkpt lat="23.94953" lon="120.855017">
        <ele>537.0</ele>
      </trkpt>
      <trkpt lat="23.949616" lon="120.854995">
        <ele>535.0</ele>
      </trkpt>
      <trkpt lat="23.949702" lon="120.855017">
        <ele>534.0</ele>
      </trkpt>
      <trkpt lat="23.949745" lon="120.85506">
        <ele>533.0</ele>
      </trkpt>
      <trkpt lat="23.949788" lon="120.855146">
        <ele>533.0</ele>
      </trkpt>
      <trkpt lat="23.949766" lon="120.855532">
        <ele>537.0</ele>
      </trkpt>
      <trkpt lat="23.949809" lon="120.855703">
        <ele>536.0</ele>
      </trkpt>
      <trkpt lat="23.949895" lon="120.855875">
        <ele>531.0</ele>
      </trkpt>
      <trkpt lat="23.950024" lon="120.856047">
        <ele>521.0</ele>
      </trkpt>
      <trkpt lat="23.950474" lon="120.85654">
        <ele>497.0</ele>
      </trkpt>
      <trkpt lat="23.950496" lon="120.856605">
        <ele>496.0</ele>
      </trkpt>
      <trkpt lat="23.950496" lon="120.856669">
        <ele>495.0</ele>
      </trkpt>
      <trkpt lat="23.950152" lon="120.856969">
        <ele>496.0</ele>
      </trkpt>
      <trkpt lat="23.950045" lon="120.85712">
        <ele>494.0</ele>
      </trkpt>
      <trkpt lat="23.949916" lon="120.857205">
        <ele>495.0</ele>
      </trkpt>
      <trkpt lat="23.949637" lon="120.857248">
        <ele>503.0</ele>
      </trkpt>
      <trkpt lat="23.949552" lon="120.857291">
        <ele>504.0</ele>
      </trkpt>
      <trkpt lat="23.949487" lon="120.857377">
        <ele>503.0</ele>
      </trkpt>
      <trkpt lat="23.949487" lon="120.85742">
        <ele>500.0</ele>
      </trkpt>
      <trkpt lat="23.94953" lon="120.857484">
        <ele>496.0</ele>
      </trkpt>
      <trkpt lat="23.94968" lon="120.857399">
        <ele>495.0</ele>
      </trkpt>
      <trkpt lat="23.949873" lon="120.857356">
        <ele>490.0</ele>
      </trkpt>
      <trkpt lat="23.950131" lon="120.857399">
        <ele>479.0</ele>
      </trkpt>
      <trkpt lat="23.950238" lon="120.857399">
        <ele>476.0</ele>
      </trkpt>
      <trkpt lat="23.950346" lon="120.857377">
        <ele>473.0</ele>
      </trkpt>
      <trkpt lat="23.950689" lon="120.857205">
        <ele>467.0</ele>
      </trkpt>
      <trkpt lat="23.950989" lon="120.857184">
        <ele>459.0</ele>
      </trkpt>
      <trkpt lat="23.951054" lon="120.857163">
        <ele>459.0</ele>
      </trkpt>
      <trkpt lat="23.951247" lon="120.857034">
        <ele>459.0</ele>
      </trkpt>
      <trkpt lat="23.95144" lon="120.856991">
        <ele>456.0</ele>
      </trkpt>
      <trkpt lat="23.951805" lon="120.857077">
        <ele>449.0</ele>
      </trkpt>
      <trkpt lat="23.951933" lon="120.857034">
        <ele>449.0</ele>
      </trkpt>
      <trkpt lat="23.952062" lon="120.856862">
        <ele>450.0</ele>
      </trkpt>
      <trkpt lat="23.952127" lon="120.856862">
        <ele>449.0</ele>
      </trkpt>
      <trkpt lat="23.952247" lon="120.856982">
        <ele>447.0</ele>
      </trkpt>
      <trkpt lat="23.952109" lon="120.857219">
        <ele>445.0</ele>
      </trkpt>
      <trkpt lat="23.951938" lon="120.857394">
        <ele>443.0</ele>
      </trkpt>
      <trkpt lat="23.951819" lon="120.857852">
        <ele>440.0</ele>
      </trkpt>
      <trkpt lat="23.951783" lon="120.857914">
        <ele>439.0</ele>
      </trkpt>
      <trkpt lat="23.951611" lon="120.858042">
        <ele>437.0</ele>
      </trkpt>
      <trkpt lat="23.951569" lon="120.858107">
        <ele>437.0</ele>
      </trkpt>
      <trkpt lat="23.951547" lon="120.858192">
        <ele>436.0</ele>
      </trkpt>
      <trkpt lat="23.951569" lon="120.858278">
        <ele>435.0</ele>
      </trkpt>
      <trkpt lat="23.951697" lon="120.858364">
        <ele>434.0</ele>
      </trkpt>
      <trkpt lat="23.952084" lon="120.85845">
        <ele>443.0</ele>
      </trkpt>
      <trkpt lat="23.952191" lon="120.858493">
        <ele>445.0</ele>
      </trkpt>
      <trkpt lat="23.95262" lon="120.858986">
        <ele>447.0</ele>
      </trkpt>
      <trkpt lat="23.952727" lon="120.859222">
        <ele>448.0</ele>
      </trkpt>
      <trkpt lat="23.952985" lon="120.859931">
        <ele>445.0</ele>
      </trkpt>
      <trkpt lat="23.953028" lon="120.860102">
        <ele>443.0</ele>
      </trkpt>
      <trkpt lat="23.953028" lon="120.860252">
        <ele>439.0</ele>
      </trkpt>
      <trkpt lat="23.953006" lon="120.860403">
        <ele>434.0</ele>
      </trkpt>
      <trkpt lat="23.95292" lon="120.860574">
        <ele>427.0</ele>
      </trkpt>
      <trkpt lat="23.95292" lon="120.860703">
        <ele>424.0</ele>
      </trkpt>
      <trkpt lat="23.953006" lon="120.861025">
        <ele>420.0</ele>
      </trkpt>
      <trkpt lat="23.953071" lon="120.861111">
        <ele>420.0</ele>
      </trkpt>
      <trkpt lat="23.953693" lon="120.861712">
        <ele>421.0</ele>
      </trkpt>
      <trkpt lat="23.953865" lon="120.861905">
        <ele>420.0</ele>
      </trkpt>
      <trkpt lat="23.954423" lon="120.862656">
        <ele>418.0</ele>
      </trkpt>
      <trkpt lat="23.954452" lon="120.862729">
        <ele>419.0</ele>
      </trkpt>
      <trkpt lat="23.954487" lon="120.862849">
        <ele>420.0</ele>
      </trkpt>
      <trkpt lat="23.954487" lon="120.862913">
        <ele>421.0</ele>
      </trkpt>
      <trkpt lat="23.954444" lon="120.862978">
        <ele>419.0</ele>
      </trkpt>
      <trkpt lat="23.954315" lon="120.863085">
        <ele>415.0</ele>
      </trkpt>
      <trkpt lat="23.954294" lon="120.863128">
        <ele>414.0</ele>
      </trkpt>
      <trkpt lat="23.954294" lon="120.863428">
        <ele>416.0</ele>
      </trkpt>
      <trkpt lat="23.954251" lon="120.8636">
        <ele>417.0</ele>
      </trkpt>
      <trkpt lat="23.954144" lon="120.86375">
        <ele>415.0</ele>
      </trkpt>
      <trkpt lat="23.953435" lon="120.86478">
        <ele>402.0</ele>
      </trkpt>
      <trkpt lat="23.953307" lon="120.864909">
        <ele>399.0</ele>
      </trkpt>
      <trkpt lat="23.953221" lon="120.864973">
        <ele>399.0</ele>
      </trkpt>
      <trkpt lat="23.952363" lon="120.865316">
        <ele>385.0</ele>
      </trkpt>
      <trkpt lat="23.952148" lon="120.865424">
        <ele>386.0</ele>
      </trkpt>
      <trkpt lat="23.951912" lon="120.865467">
        <ele>390.0</ele>
      </trkpt>
      <trkpt lat="23.951805" lon="120.865445">
        <ele>391.0</ele>
      </trkpt>
      <trkpt lat="23.951697" lon="120.865381">
        <ele>392.0</ele>
      </trkpt>
      <trkpt lat="23.95159" lon="120.865231">
        <ele>390.0</ele>
      </trkpt>
      <trkpt lat="23.951397" lon="120.865145">
        <ele>389.0</ele>
      </trkpt>
      <trkpt lat="23.951311" lon="120.865145">
        <ele>389.0</ele>
      </trkpt>
      <trkpt lat="23.951225" lon="120.865188">
        <ele>390.0</ele>
      </trkpt>
      <trkpt lat="23.950946" lon="120.865424">
        <ele>395.0</ele>
      </trkpt>
      <trkpt lat="23.950796" lon="120.865445">
        <ele>395.0</ele>
      </trkpt>
      <trkpt lat="23.95056" lon="120.865424">
        <ele>391.0</ele>
      </trkpt>
      <trkpt lat="23.950474" lon="120.865445">
        <ele>390.0</ele>
      </trkpt>
      <trkpt lat="23.95041" lon="120.865488">
        <ele>389.0</ele>
      </trkpt>
      <trkpt lat="23.95026" lon="120.86566">
        <ele>387.0</ele>
      </trkpt>
      <trkpt lat="23.950095" lon="120.866035">
        <ele>381.0</ele>
      </trkpt>
      <trkpt lat="23.950088" lon="120.866196">
        <ele>380.0</ele>
      </trkpt>
      <trkpt lat="23.950195" lon="120.866604">
        <ele>377.0</ele>
      </trkpt>
      <trkpt lat="23.950195" lon="120.86669">
        <ele>376.0</ele>
      </trkpt>
      <trkpt lat="23.950174" lon="120.866776">
        <ele>375.0</ele>
      </trkpt>
      <trkpt lat="23.950131" lon="120.86684">
        <ele>375.0</ele>
      </trkpt>
      <trkpt lat="23.94953" lon="120.867097">
        <ele>376.0</ele>
      </trkpt>
      <trkpt lat="23.949273" lon="120.867484">
        <ele>381.0</ele>
      </trkpt>
      <trkpt lat="23.949132" lon="120.867653">
        <ele>384.0</ele>
      </trkpt>
      <trkpt lat="23.949852" lon="120.868452">
        <ele>382.0</ele>
      </trkpt>
      <trkpt lat="23.949917" lon="120.868522">
        <ele>382.0</ele>
      </trkpt>
      <trkpt lat="23.950045" lon="120.868664">
        <ele>382.0</ele>
      </trkpt>
      <trkpt lat="23.950428" lon="120.86897">
        <ele>380.0</ele>
      </trkpt>
      <trkpt lat="23.950428" lon="120.86897">
        <ele>380.0</ele>
      </trkpt>
    </trkseg>
  </trk>
</gpx>
