<?xml version="1.0" encoding="UTF-8"?>
<gpx xmlns="http://www.topografix.com/GPX/1/1" xmlns:xsi="http://www.w3.org/2001/XMLSchema-instance" xsi:schemaLocation="http://www.topografix.com/GPX/1/1 http://www.topografix.com/GPX/1/1/gpx.xsd" version="1.1" creator="Martin Schneider">
  <wpt lat="23.888631" lon="120.609341">
    <ele>72.0</ele>
    <name>Start</name>
  </wpt>
  <wpt lat="23.889681" lon="120.60972">
    <ele>71.0</ele>
    <name>End</name>
  </wpt>
  <wpt lat="23.889152" lon="120.631588">
    <ele>432.0</ele>
    <name>Summit Hengshan</name>
  </wpt>
  <trk>
    <name>048_Hengshan</name>
    <trkseg>
      <trkpt lat="23.888631" lon="120.609341">
        <ele>72.0</ele>
      </trkpt>
      <trkpt lat="23.888631" lon="120.609341">
        <ele>72.0</ele>
      </trkpt>
      <trkpt lat="23.888877" lon="120.609445">
        <ele>72.0</ele>
      </trkpt>
      <trkpt lat="23.8887" lon="120.609701">
        <ele>73.0</ele>
      </trkpt>
      <trkpt lat="23.888785" lon="120.609773">
        <ele>73.0</ele>
      </trkpt>
      <trkpt lat="23.888937" lon="120.609901">
        <ele>74.0</ele>
      </trkpt>
      <trkpt lat="23.888975" lon="120.609934">
        <ele>74.0</ele>
      </trkpt>
      <trkpt lat="23.888855" lon="120.610149">
        <ele>76.0</ele>
      </trkpt>
      <trkpt lat="23.88871" lon="120.610398">
        <ele>78.0</ele>
      </trkpt>
      <trkpt lat="23.888477" lon="120.610944">
        <ele>82.0</ele>
      </trkpt>
      <trkpt lat="23.888274" lon="120.611549">
        <ele>86.0</ele>
      </trkpt>
      <trkpt lat="23.888196" lon="120.611691">
        <ele>87.0</ele>
      </trkpt>
      <trkpt lat="23.887984" lon="120.611942">
        <ele>90.0</ele>
      </trkpt>
      <trkpt lat="23.887984" lon="120.611942">
        <ele>90.0</ele>
      </trkpt>
      <trkpt lat="23.887846" lon="120.612106">
        <ele>92.0</ele>
      </trkpt>
      <trkpt lat="23.887779" lon="120.612152">
        <ele>92.0</ele>
      </trkpt>
      <trkpt lat="23.8879" lon="120.612714">
        <ele>97.0</ele>
      </trkpt>
      <trkpt lat="23.887947" lon="120.613638">
        <ele>110.0</ele>
      </trkpt>
      <trkpt lat="23.887929" lon="120.614522">
        <ele>125.0</ele>
      </trkpt>
      <trkpt lat="23.889191" lon="120.615034">
        <ele>129.0</ele>
      </trkpt>
      <trkpt lat="23.889256" lon="120.61512">
        <ele>131.0</ele>
      </trkpt>
      <trkpt lat="23.8894" lon="120.615436">
        <ele>136.0</ele>
      </trkpt>
      <trkpt lat="23.889535" lon="120.615571">
        <ele>139.0</ele>
      </trkpt>
      <trkpt lat="23.889642" lon="120.615614">
        <ele>140.0</ele>
      </trkpt>
      <trkpt lat="23.890092" lon="120.615699">
        <ele>142.0</ele>
      </trkpt>
      <trkpt lat="23.890623" lon="120.615859">
        <ele>143.0</ele>
      </trkpt>
      <trkpt lat="23.890626" lon="120.615938">
        <ele>145.0</ele>
      </trkpt>
      <trkpt lat="23.890662" lon="120.615998">
        <ele>147.0</ele>
      </trkpt>
      <trkpt lat="23.890893" lon="120.616257">
        <ele>151.0</ele>
      </trkpt>
      <trkpt lat="23.890923" lon="120.616408">
        <ele>155.0</ele>
      </trkpt>
      <trkpt lat="23.890966" lon="120.616927">
        <ele>167.0</ele>
      </trkpt>
      <trkpt lat="23.891012" lon="120.617184">
        <ele>172.0</ele>
      </trkpt>
      <trkpt lat="23.891112" lon="120.617342">
        <ele>176.0</ele>
      </trkpt>
      <trkpt lat="23.891219" lon="120.617404">
        <ele>179.0</ele>
      </trkpt>
      <trkpt lat="23.891372" lon="120.617589">
        <ele>185.0</ele>
      </trkpt>
      <trkpt lat="23.891574" lon="120.617891">
        <ele>192.0</ele>
      </trkpt>
      <trkpt lat="23.891688" lon="120.618032">
        <ele>195.0</ele>
      </trkpt>
      <trkpt lat="23.891729" lon="120.618168">
        <ele>197.0</ele>
      </trkpt>
      <trkpt lat="23.891828" lon="120.618338">
        <ele>201.0</ele>
      </trkpt>
      <trkpt lat="23.891842" lon="120.618461">
        <ele>204.0</ele>
      </trkpt>
      <trkpt lat="23.891885" lon="120.618604">
        <ele>207.0</ele>
      </trkpt>
      <trkpt lat="23.891944" lon="120.61862">
        <ele>208.0</ele>
      </trkpt>
      <trkpt lat="23.89198" lon="120.618594">
        <ele>208.0</ele>
      </trkpt>
      <trkpt lat="23.892062" lon="120.618493">
        <ele>207.0</ele>
      </trkpt>
      <trkpt lat="23.892077" lon="120.618427">
        <ele>206.0</ele>
      </trkpt>
      <trkpt lat="23.89234" lon="120.618686">
        <ele>214.0</ele>
      </trkpt>
      <trkpt lat="23.892354" lon="120.618898">
        <ele>218.0</ele>
      </trkpt>
      <trkpt lat="23.892271" lon="120.618996">
        <ele>218.0</ele>
      </trkpt>
      <trkpt lat="23.892223" lon="120.619139">
        <ele>220.0</ele>
      </trkpt>
      <trkpt lat="23.892178" lon="120.619362">
        <ele>224.0</ele>
      </trkpt>
      <trkpt lat="23.892223" lon="120.619795">
        <ele>233.0</ele>
      </trkpt>
      <trkpt lat="23.892266" lon="120.61991">
        <ele>235.0</ele>
      </trkpt>
      <trkpt lat="23.892263" lon="120.620046">
        <ele>238.0</ele>
      </trkpt>
      <trkpt lat="23.892225" lon="120.620132">
        <ele>239.0</ele>
      </trkpt>
      <trkpt lat="23.892207" lon="120.620513">
        <ele>244.0</ele>
      </trkpt>
      <trkpt lat="23.892229" lon="120.62062">
        <ele>246.0</ele>
      </trkpt>
      <trkpt lat="23.892318" lon="120.620673">
        <ele>248.0</ele>
      </trkpt>
      <trkpt lat="23.892311" lon="120.620769">
        <ele>249.0</ele>
      </trkpt>
      <trkpt lat="23.892246" lon="120.620831">
        <ele>249.0</ele>
      </trkpt>
      <trkpt lat="23.892211" lon="120.620956">
        <ele>252.0</ele>
      </trkpt>
      <trkpt lat="23.892254" lon="120.621174">
        <ele>257.0</ele>
      </trkpt>
      <trkpt lat="23.892339" lon="120.621227">
        <ele>259.0</ele>
      </trkpt>
      <trkpt lat="23.892347" lon="120.621263">
        <ele>260.0</ele>
      </trkpt>
      <trkpt lat="23.892299" lon="120.621292">
        <ele>260.0</ele>
      </trkpt>
      <trkpt lat="23.89211" lon="120.62125">
        <ele>256.0</ele>
      </trkpt>
      <trkpt lat="23.892034" lon="120.621295">
        <ele>256.0</ele>
      </trkpt>
      <trkpt lat="23.891962" lon="120.621424">
        <ele>258.0</ele>
      </trkpt>
      <trkpt lat="23.891939" lon="120.62151">
        <ele>259.0</ele>
      </trkpt>
      <trkpt lat="23.891957" lon="120.621573">
        <ele>260.0</ele>
      </trkpt>
      <trkpt lat="23.89206" lon="120.621679">
        <ele>264.0</ele>
      </trkpt>
      <trkpt lat="23.892057" lon="120.621722">
        <ele>265.0</ele>
      </trkpt>
      <trkpt lat="23.892004" lon="120.621762">
        <ele>265.0</ele>
      </trkpt>
      <trkpt lat="23.891774" lon="120.621713">
        <ele>260.0</ele>
      </trkpt>
      <trkpt lat="23.891709" lon="120.621772">
        <ele>260.0</ele>
      </trkpt>
      <trkpt lat="23.891688" lon="120.622163">
        <ele>269.0</ele>
      </trkpt>
      <trkpt lat="23.891772" lon="120.622305">
        <ele>273.0</ele>
      </trkpt>
      <trkpt lat="23.891772" lon="120.622336">
        <ele>274.0</ele>
      </trkpt>
      <trkpt lat="23.89172" lon="120.622379">
        <ele>275.0</ele>
      </trkpt>
      <trkpt lat="23.891613" lon="120.622425">
        <ele>277.0</ele>
      </trkpt>
      <trkpt lat="23.891594" lon="120.622737">
        <ele>284.0</ele>
      </trkpt>
      <trkpt lat="23.891443" lon="120.622954">
        <ele>292.0</ele>
      </trkpt>
      <trkpt lat="23.891329" lon="120.623226">
        <ele>299.0</ele>
      </trkpt>
      <trkpt lat="23.891276" lon="120.623525">
        <ele>304.0</ele>
      </trkpt>
      <trkpt lat="23.891298" lon="120.623704">
        <ele>307.0</ele>
      </trkpt>
      <trkpt lat="23.891289" lon="120.623742">
        <ele>308.0</ele>
      </trkpt>
      <trkpt lat="23.891258" lon="120.623751">
        <ele>308.0</ele>
      </trkpt>
      <trkpt lat="23.891132" lon="120.623631">
        <ele>307.0</ele>
      </trkpt>
      <trkpt lat="23.891083" lon="120.623636">
        <ele>307.0</ele>
      </trkpt>
      <trkpt lat="23.891063" lon="120.623594">
        <ele>306.0</ele>
      </trkpt>
      <trkpt lat="23.891085" lon="120.623518">
        <ele>305.0</ele>
      </trkpt>
      <trkpt lat="23.891124" lon="120.623472">
        <ele>304.0</ele>
      </trkpt>
      <trkpt lat="23.891076" lon="120.623274">
        <ele>302.0</ele>
      </trkpt>
      <trkpt lat="23.891042" lon="120.623237">
        <ele>302.0</ele>
      </trkpt>
      <trkpt lat="23.891039" lon="120.623191">
        <ele>302.0</ele>
      </trkpt>
      <trkpt lat="23.891077" lon="120.623087">
        <ele>300.0</ele>
      </trkpt>
      <trkpt lat="23.891062" lon="120.62287">
        <ele>298.0</ele>
      </trkpt>
      <trkpt lat="23.891077" lon="120.622747">
        <ele>297.0</ele>
      </trkpt>
      <trkpt lat="23.891053" lon="120.622633">
        <ele>296.0</ele>
      </trkpt>
      <trkpt lat="23.891011" lon="120.622555">
        <ele>296.0</ele>
      </trkpt>
      <trkpt lat="23.89091" lon="120.622459">
        <ele>298.0</ele>
      </trkpt>
      <trkpt lat="23.890838" lon="120.622485">
        <ele>300.0</ele>
      </trkpt>
      <trkpt lat="23.890799" lon="120.622548">
        <ele>301.0</ele>
      </trkpt>
      <trkpt lat="23.890814" lon="120.6226">
        <ele>302.0</ele>
      </trkpt>
      <trkpt lat="23.890863" lon="120.622668">
        <ele>301.0</ele>
      </trkpt>
      <trkpt lat="23.890865" lon="120.622726">
        <ele>301.0</ele>
      </trkpt>
      <trkpt lat="23.890841" lon="120.622799">
        <ele>302.0</ele>
      </trkpt>
      <trkpt lat="23.890769" lon="120.622894">
        <ele>304.0</ele>
      </trkpt>
      <trkpt lat="23.890729" lon="120.623042">
        <ele>305.0</ele>
      </trkpt>
      <trkpt lat="23.890721" lon="120.623134">
        <ele>306.0</ele>
      </trkpt>
      <trkpt lat="23.890656" lon="120.623267">
        <ele>309.0</ele>
      </trkpt>
      <trkpt lat="23.890633" lon="120.623362">
        <ele>311.0</ele>
      </trkpt>
      <trkpt lat="23.890642" lon="120.623416">
        <ele>311.0</ele>
      </trkpt>
      <trkpt lat="23.890629" lon="120.623457">
        <ele>312.0</ele>
      </trkpt>
      <trkpt lat="23.890596" lon="120.623469">
        <ele>313.0</ele>
      </trkpt>
      <trkpt lat="23.890567" lon="120.623443">
        <ele>313.0</ele>
      </trkpt>
      <trkpt lat="23.890587" lon="120.623304">
        <ele>311.0</ele>
      </trkpt>
      <trkpt lat="23.890576" lon="120.6232">
        <ele>310.0</ele>
      </trkpt>
      <trkpt lat="23.890536" lon="120.623115">
        <ele>310.0</ele>
      </trkpt>
      <trkpt lat="23.890415" lon="120.622914">
        <ele>308.0</ele>
      </trkpt>
      <trkpt lat="23.890382" lon="120.622887">
        <ele>308.0</ele>
      </trkpt>
      <trkpt lat="23.890332" lon="120.622893">
        <ele>308.0</ele>
      </trkpt>
      <trkpt lat="23.8903" lon="120.622964">
        <ele>310.0</ele>
      </trkpt>
      <trkpt lat="23.890299" lon="120.623018">
        <ele>312.0</ele>
      </trkpt>
      <trkpt lat="23.890363" lon="120.623102">
        <ele>313.0</ele>
      </trkpt>
      <trkpt lat="23.890365" lon="120.62321">
        <ele>315.0</ele>
      </trkpt>
      <trkpt lat="23.890309" lon="120.623309">
        <ele>318.0</ele>
      </trkpt>
      <trkpt lat="23.890272" lon="120.623459">
        <ele>322.0</ele>
      </trkpt>
      <trkpt lat="23.890285" lon="120.623593">
        <ele>323.0</ele>
      </trkpt>
      <trkpt lat="23.890265" lon="120.623697">
        <ele>326.0</ele>
      </trkpt>
      <trkpt lat="23.89019" lon="120.623812">
        <ele>330.0</ele>
      </trkpt>
      <trkpt lat="23.890158" lon="120.62392">
        <ele>332.0</ele>
      </trkpt>
      <trkpt lat="23.890152" lon="120.624054">
        <ele>335.0</ele>
      </trkpt>
      <trkpt lat="23.890189" lon="120.624168">
        <ele>335.0</ele>
      </trkpt>
      <trkpt lat="23.890193" lon="120.624288">
        <ele>337.0</ele>
      </trkpt>
      <trkpt lat="23.890155" lon="120.624466">
        <ele>342.0</ele>
      </trkpt>
      <trkpt lat="23.889961" lon="120.624881">
        <ele>353.0</ele>
      </trkpt>
      <trkpt lat="23.889896" lon="120.625145">
        <ele>358.0</ele>
      </trkpt>
      <trkpt lat="23.889834" lon="120.625545">
        <ele>364.0</ele>
      </trkpt>
      <trkpt lat="23.889816" lon="120.625564">
        <ele>364.0</ele>
      </trkpt>
      <trkpt lat="23.889783" lon="120.625548">
        <ele>364.0</ele>
      </trkpt>
      <trkpt lat="23.889768" lon="120.625481">
        <ele>363.0</ele>
      </trkpt>
      <trkpt lat="23.889841" lon="120.624794">
        <ele>352.0</ele>
      </trkpt>
      <trkpt lat="23.889972" lon="120.624457">
        <ele>346.0</ele>
      </trkpt>
      <trkpt lat="23.889983" lon="120.624243">
        <ele>343.0</ele>
      </trkpt>
      <trkpt lat="23.889973" lon="120.62416">
        <ele>342.0</ele>
      </trkpt>
      <trkpt lat="23.889931" lon="120.624122">
        <ele>341.0</ele>
      </trkpt>
      <trkpt lat="23.889883" lon="120.624117">
        <ele>341.0</ele>
      </trkpt>
      <trkpt lat="23.889831" lon="120.624126">
        <ele>341.0</ele>
      </trkpt>
      <trkpt lat="23.889777" lon="120.624167">
        <ele>341.0</ele>
      </trkpt>
      <trkpt lat="23.889711" lon="120.62425">
        <ele>342.0</ele>
      </trkpt>
      <trkpt lat="23.889402" lon="120.624821">
        <ele>353.0</ele>
      </trkpt>
      <trkpt lat="23.88923" lon="120.625365">
        <ele>361.0</ele>
      </trkpt>
      <trkpt lat="23.889153" lon="120.625505">
        <ele>361.0</ele>
      </trkpt>
      <trkpt lat="23.889118" lon="120.62563">
        <ele>360.0</ele>
      </trkpt>
      <trkpt lat="23.889071" lon="120.626416">
        <ele>378.0</ele>
      </trkpt>
      <trkpt lat="23.88897" lon="120.626777">
        <ele>384.0</ele>
      </trkpt>
      <trkpt lat="23.888994" lon="120.626814">
        <ele>387.0</ele>
      </trkpt>
      <trkpt lat="23.888699" lon="120.627726">
        <ele>399.0</ele>
      </trkpt>
      <trkpt lat="23.88861" lon="120.628032">
        <ele>400.0</ele>
      </trkpt>
      <trkpt lat="23.88861" lon="120.628032">
        <ele>400.0</ele>
      </trkpt>
      <trkpt lat="23.888699" lon="120.627726">
        <ele>399.0</ele>
      </trkpt>
      <trkpt lat="23.888719" lon="120.627785">
        <ele>401.0</ele>
      </trkpt>
      <trkpt lat="23.888727" lon="120.628203">
        <ele>408.0</ele>
      </trkpt>
      <trkpt lat="23.888772" lon="120.628261">
        <ele>410.0</ele>
      </trkpt>
      <trkpt lat="23.888811" lon="120.628222">
        <ele>412.0</ele>
      </trkpt>
      <trkpt lat="23.888807" lon="120.628132">
        <ele>410.0</ele>
      </trkpt>
      <trkpt lat="23.888839" lon="120.627949">
        <ele>409.0</ele>
      </trkpt>
      <trkpt lat="23.888875" lon="120.627848">
        <ele>410.0</ele>
      </trkpt>
      <trkpt lat="23.8889" lon="120.627655">
        <ele>409.0</ele>
      </trkpt>
      <trkpt lat="23.888917" lon="120.627601">
        <ele>409.0</ele>
      </trkpt>
      <trkpt lat="23.888986" lon="120.627497">
        <ele>412.0</ele>
      </trkpt>
      <trkpt lat="23.889039" lon="120.627382">
        <ele>410.0</ele>
      </trkpt>
      <trkpt lat="23.889106" lon="120.627309">
        <ele>412.0</ele>
      </trkpt>
      <trkpt lat="23.889183" lon="120.627033">
        <ele>406.0</ele>
      </trkpt>
      <trkpt lat="23.889249" lon="120.62692">
        <ele>402.0</ele>
      </trkpt>
      <trkpt lat="23.889261" lon="120.62684">
        <ele>399.0</ele>
      </trkpt>
      <trkpt lat="23.889291" lon="120.626795">
        <ele>398.0</ele>
      </trkpt>
      <trkpt lat="23.889329" lon="120.626804">
        <ele>398.0</ele>
      </trkpt>
      <trkpt lat="23.889395" lon="120.626893">
        <ele>401.0</ele>
      </trkpt>
      <trkpt lat="23.889409" lon="120.627064">
        <ele>405.0</ele>
      </trkpt>
      <trkpt lat="23.88938" lon="120.627172">
        <ele>408.0</ele>
      </trkpt>
      <trkpt lat="23.889364" lon="120.627344">
        <ele>414.0</ele>
      </trkpt>
      <trkpt lat="23.889324" lon="120.627451">
        <ele>417.0</ele>
      </trkpt>
      <trkpt lat="23.889319" lon="120.62753">
        <ele>419.0</ele>
      </trkpt>
      <trkpt lat="23.889361" lon="120.627564">
        <ele>418.0</ele>
      </trkpt>
      <trkpt lat="23.889356" lon="120.627633">
        <ele>419.0</ele>
      </trkpt>
      <trkpt lat="23.889246" lon="120.628288">
        <ele>425.0</ele>
      </trkpt>
      <trkpt lat="23.889269" lon="120.629127">
        <ele>429.0</ele>
      </trkpt>
      <trkpt lat="23.889186" lon="120.62955">
        <ele>433.0</ele>
      </trkpt>
      <trkpt lat="23.889179" lon="120.630424">
        <ele>434.0</ele>
      </trkpt>
      <trkpt lat="23.889332" lon="120.630705">
        <ele>431.0</ele>
      </trkpt>
      <trkpt lat="23.889334" lon="120.630839">
        <ele>432.0</ele>
      </trkpt>
      <trkpt lat="23.889289" lon="120.631041">
        <ele>432.0</ele>
      </trkpt>
      <trkpt lat="23.889216" lon="120.631205">
        <ele>433.0</ele>
      </trkpt>
      <trkpt lat="23.889113" lon="120.631386">
        <ele>432.0</ele>
      </trkpt>
      <trkpt lat="23.889096" lon="120.631482">
        <ele>431.0</ele>
      </trkpt>
      <trkpt lat="23.889116" lon="120.63159">
        <ele>431.0</ele>
      </trkpt>
      <trkpt lat="23.889152" lon="120.631588">
        <ele>432.0</ele>
      </trkpt>
      <trkpt lat="23.889152" lon="120.631588">
        <ele>432.0</ele>
      </trkpt>
      <trkpt lat="23.889116" lon="120.63159">
        <ele>431.0</ele>
      </trkpt>
      <trkpt lat="23.889266" lon="120.631957">
        <ele>433.0</ele>
      </trkpt>
      <trkpt lat="23.889305" lon="120.632135">
        <ele>434.0</ele>
      </trkpt>
      <trkpt lat="23.889298" lon="120.63225">
        <ele>435.0</ele>
      </trkpt>
      <trkpt lat="23.889218" lon="120.632504">
        <ele>439.0</ele>
      </trkpt>
      <trkpt lat="23.888841" lon="120.632837">
        <ele>428.0</ele>
      </trkpt>
      <trkpt lat="23.888806" lon="120.632893">
        <ele>427.0</ele>
      </trkpt>
      <trkpt lat="23.888897" lon="120.63358">
        <ele>429.0</ele>
      </trkpt>
      <trkpt lat="23.889012" lon="120.633685">
        <ele>432.0</ele>
      </trkpt>
      <trkpt lat="23.889111" lon="120.633877">
        <ele>434.0</ele>
      </trkpt>
      <trkpt lat="23.889311" lon="120.63407">
        <ele>435.0</ele>
      </trkpt>
      <trkpt lat="23.890221" lon="120.634024">
        <ele>443.0</ele>
      </trkpt>
      <trkpt lat="23.890296" lon="120.634071">
        <ele>442.0</ele>
      </trkpt>
      <trkpt lat="23.891637" lon="120.63441">
        <ele>438.0</ele>
      </trkpt>
      <trkpt lat="23.891723" lon="120.63441">
        <ele>438.0</ele>
      </trkpt>
      <trkpt lat="23.892022" lon="120.634359">
        <ele>437.0</ele>
      </trkpt>
      <trkpt lat="23.89192" lon="120.634244">
        <ele>437.0</ele>
      </trkpt>
      <trkpt lat="23.891877" lon="120.6342">
        <ele>437.0</ele>
      </trkpt>
      <trkpt lat="23.891877" lon="120.6342">
        <ele>437.0</ele>
      </trkpt>
      <trkpt lat="23.891599" lon="120.633916">
        <ele>434.0</ele>
      </trkpt>
      <trkpt lat="23.89136" lon="120.633465">
        <ele>432.0</ele>
      </trkpt>
      <trkpt lat="23.891432" lon="120.633443">
        <ele>431.0</ele>
      </trkpt>
      <trkpt lat="23.891674" lon="120.633741">
        <ele>432.0</ele>
      </trkpt>
      <trkpt lat="23.891714" lon="120.633749">
        <ele>432.0</ele>
      </trkpt>
      <trkpt lat="23.891721" lon="120.6337">
        <ele>432.0</ele>
      </trkpt>
      <trkpt lat="23.891678" lon="120.633485">
        <ele>429.0</ele>
      </trkpt>
      <trkpt lat="23.891642" lon="120.633386">
        <ele>428.0</ele>
      </trkpt>
      <trkpt lat="23.891635" lon="120.632989">
        <ele>423.0</ele>
      </trkpt>
      <trkpt lat="23.891572" lon="120.632594">
        <ele>418.0</ele>
      </trkpt>
      <trkpt lat="23.891311" lon="120.63195">
        <ele>410.0</ele>
      </trkpt>
      <trkpt lat="23.891282" lon="120.631827">
        <ele>408.0</ele>
      </trkpt>
      <trkpt lat="23.891227" lon="120.631648">
        <ele>404.0</ele>
      </trkpt>
      <trkpt lat="23.891245" lon="120.631508">
        <ele>402.0</ele>
      </trkpt>
      <trkpt lat="23.891232" lon="120.631403">
        <ele>400.0</ele>
      </trkpt>
      <trkpt lat="23.891232" lon="120.631403">
        <ele>400.0</ele>
      </trkpt>
      <trkpt lat="23.891221" lon="120.631323">
        <ele>398.0</ele>
      </trkpt>
      <trkpt lat="23.891248" lon="120.631112">
        <ele>395.0</ele>
      </trkpt>
      <trkpt lat="23.891221" lon="120.631025">
        <ele>393.0</ele>
      </trkpt>
      <trkpt lat="23.891262" lon="120.630604">
        <ele>386.0</ele>
      </trkpt>
      <trkpt lat="23.89135" lon="120.630256">
        <ele>381.0</ele>
      </trkpt>
      <trkpt lat="23.89145" lon="120.630104">
        <ele>379.0</ele>
      </trkpt>
      <trkpt lat="23.89148" lon="120.629679">
        <ele>370.0</ele>
      </trkpt>
      <trkpt lat="23.891586" lon="120.629289">
        <ele>360.0</ele>
      </trkpt>
      <trkpt lat="23.891671" lon="120.629188">
        <ele>358.0</ele>
      </trkpt>
      <trkpt lat="23.891684" lon="120.628936">
        <ele>353.0</ele>
      </trkpt>
      <trkpt lat="23.891756" lon="120.628464">
        <ele>345.0</ele>
      </trkpt>
      <trkpt lat="23.891907" lon="120.627792">
        <ele>334.0</ele>
      </trkpt>
      <trkpt lat="23.892028" lon="120.627563">
        <ele>330.0</ele>
      </trkpt>
      <trkpt lat="23.892104" lon="120.627177">
        <ele>325.0</ele>
      </trkpt>
      <trkpt lat="23.892112" lon="120.626989">
        <ele>323.0</ele>
      </trkpt>
      <trkpt lat="23.89251" lon="120.626375">
        <ele>312.0</ele>
      </trkpt>
      <trkpt lat="23.892674" lon="120.626045">
        <ele>304.0</ele>
      </trkpt>
      <trkpt lat="23.892793" lon="120.625878">
        <ele>300.0</ele>
      </trkpt>
      <trkpt lat="23.892793" lon="120.625878">
        <ele>300.0</ele>
      </trkpt>
      <trkpt lat="23.892887" lon="120.625746">
        <ele>297.0</ele>
      </trkpt>
      <trkpt lat="23.893264" lon="120.625296">
        <ele>284.0</ele>
      </trkpt>
      <trkpt lat="23.89331" lon="120.625139">
        <ele>278.0</ele>
      </trkpt>
      <trkpt lat="23.89383" lon="120.624626">
        <ele>274.0</ele>
      </trkpt>
      <trkpt lat="23.893924" lon="120.624534">
        <ele>272.0</ele>
      </trkpt>
      <trkpt lat="23.894006" lon="120.624445">
        <ele>271.0</ele>
      </trkpt>
      <trkpt lat="23.894073" lon="120.624185">
        <ele>266.0</ele>
      </trkpt>
      <trkpt lat="23.894317" lon="120.623665">
        <ele>255.0</ele>
      </trkpt>
      <trkpt lat="23.894506" lon="120.623334">
        <ele>251.0</ele>
      </trkpt>
      <trkpt lat="23.894588" lon="120.623055">
        <ele>249.0</ele>
      </trkpt>
      <trkpt lat="23.894639" lon="120.622638">
        <ele>246.0</ele>
      </trkpt>
      <trkpt lat="23.894611" lon="120.622161">
        <ele>240.0</ele>
      </trkpt>
      <trkpt lat="23.89462" lon="120.62183">
        <ele>235.0</ele>
      </trkpt>
      <trkpt lat="23.894661" lon="120.621763">
        <ele>235.0</ele>
      </trkpt>
      <trkpt lat="23.894711" lon="120.621446">
        <ele>233.0</ele>
      </trkpt>
      <trkpt lat="23.894599" lon="120.620841">
        <ele>225.0</ele>
      </trkpt>
      <trkpt lat="23.894602" lon="120.620786">
        <ele>224.0</ele>
      </trkpt>
      <trkpt lat="23.894626" lon="120.620739">
        <ele>224.0</ele>
      </trkpt>
      <trkpt lat="23.894625" lon="120.620652">
        <ele>222.0</ele>
      </trkpt>
      <trkpt lat="23.894514" lon="120.620379">
        <ele>213.0</ele>
      </trkpt>
      <trkpt lat="23.8945" lon="120.620128">
        <ele>208.0</ele>
      </trkpt>
      <trkpt lat="23.89456" lon="120.619828">
        <ele>203.0</ele>
      </trkpt>
      <trkpt lat="23.894555" lon="120.619726">
        <ele>201.0</ele>
      </trkpt>
      <trkpt lat="23.894506" lon="120.619525">
        <ele>196.0</ele>
      </trkpt>
      <trkpt lat="23.89446" lon="120.618926">
        <ele>184.0</ele>
      </trkpt>
      <trkpt lat="23.894472" lon="120.618807">
        <ele>182.0</ele>
      </trkpt>
      <trkpt lat="23.894466" lon="120.618595">
        <ele>178.0</ele>
      </trkpt>
      <trkpt lat="23.894466" lon="120.618595">
        <ele>178.0</ele>
      </trkpt>
      <trkpt lat="23.894461" lon="120.618453">
        <ele>175.0</ele>
      </trkpt>
      <trkpt lat="23.894611" lon="120.617959">
        <ele>166.0</ele>
      </trkpt>
      <trkpt lat="23.894786" lon="120.617462">
        <ele>156.0</ele>
      </trkpt>
      <trkpt lat="23.894803" lon="120.617362">
        <ele>155.0</ele>
      </trkpt>
      <trkpt lat="23.894307" lon="120.617285">
        <ele>155.0</ele>
      </trkpt>
      <trkpt lat="23.894159" lon="120.617291">
        <ele>156.0</ele>
      </trkpt>
      <trkpt lat="23.89409" lon="120.617292">
        <ele>156.0</ele>
      </trkpt>
      <trkpt lat="23.893569" lon="120.617309">
        <ele>162.0</ele>
      </trkpt>
      <trkpt lat="23.89344" lon="120.617287">
        <ele>162.0</ele>
      </trkpt>
      <trkpt lat="23.893032" lon="120.617158">
        <ele>162.0</ele>
      </trkpt>
      <trkpt lat="23.892732" lon="120.616987">
        <ele>157.0</ele>
      </trkpt>
      <trkpt lat="23.892088" lon="120.616772">
        <ele>155.0</ele>
      </trkpt>
      <trkpt lat="23.891959" lon="120.616686">
        <ele>154.0</ele>
      </trkpt>
      <trkpt lat="23.891659" lon="120.616386">
        <ele>150.0</ele>
      </trkpt>
      <trkpt lat="23.891444" lon="120.616236">
        <ele>147.0</ele>
      </trkpt>
      <trkpt lat="23.891088" lon="120.616062">
        <ele>144.0</ele>
      </trkpt>
      <trkpt lat="23.891088" lon="120.616062">
        <ele>144.0</ele>
      </trkpt>
      <trkpt lat="23.890761" lon="120.615903">
        <ele>143.0</ele>
      </trkpt>
      <trkpt lat="23.890623" lon="120.615859">
        <ele>143.0</ele>
      </trkpt>
      <trkpt lat="23.890092" lon="120.615699">
        <ele>142.0</ele>
      </trkpt>
      <trkpt lat="23.889642" lon="120.615614">
        <ele>140.0</ele>
      </trkpt>
      <trkpt lat="23.889535" lon="120.615571">
        <ele>139.0</ele>
      </trkpt>
      <trkpt lat="23.8894" lon="120.615436">
        <ele>136.0</ele>
      </trkpt>
      <trkpt lat="23.889256" lon="120.61512">
        <ele>131.0</ele>
      </trkpt>
      <trkpt lat="23.889191" lon="120.615034">
        <ele>129.0</ele>
      </trkpt>
      <trkpt lat="23.887929" lon="120.614522">
        <ele>125.0</ele>
      </trkpt>
      <trkpt lat="23.887947" lon="120.613638">
        <ele>110.0</ele>
      </trkpt>
      <trkpt lat="23.887901" lon="120.612737">
        <ele>98.0</ele>
      </trkpt>
      <trkpt lat="23.887901" lon="120.612737">
        <ele>98.0</ele>
      </trkpt>
      <trkpt lat="23.887779" lon="120.612152">
        <ele>92.0</ele>
      </trkpt>
      <trkpt lat="23.887846" lon="120.612106">
        <ele>92.0</ele>
      </trkpt>
      <trkpt lat="23.888196" lon="120.611691">
        <ele>87.0</ele>
      </trkpt>
      <trkpt lat="23.888274" lon="120.611549">
        <ele>86.0</ele>
      </trkpt>
      <trkpt lat="23.888477" lon="120.610944">
        <ele>82.0</ele>
      </trkpt>
      <trkpt lat="23.88871" lon="120.610398">
        <ele>78.0</ele>
      </trkpt>
      <trkpt lat="23.889186" lon="120.609578">
        <ele>72.0</ele>
      </trkpt>
      <trkpt lat="23.889681" lon="120.60972">
        <ele>71.0</ele>
      </trkpt>
    </trkseg>
  </trk>
</gpx>
