<?xml version="1.0" encoding="UTF-8"?>
<gpx xmlns="http://www.topografix.com/GPX/1/1" xmlns:xsi="http://www.w3.org/2001/XMLSchema-instance" xsi:schemaLocation="http://www.topografix.com/GPX/1/1 http://www.topografix.com/GPX/1/1/gpx.xsd" version="1.1" creator="Martin Schneider">
  <wpt lat="23.866917" lon="120.90654">
    <ele>765.0</ele>
    <name>Start</name>
  </wpt>
  <wpt lat="23.866917" lon="120.90654">
    <ele>765.0</ele>
    <name>End</name>
  </wpt>
  <wpt lat="23.881428" lon="120.907987">
    <ele>998.0</ele>
    <name>Summit Maolanshan</name>
  </wpt>
  <trk>
    <name>049_Maolanshan</name>
    <trkseg>
      <trkpt lat="23.866917" lon="120.90654">
        <ele>765.0</ele>
      </trkpt>
      <trkpt lat="23.866917" lon="120.90654">
        <ele>765.0</ele>
      </trkpt>
      <trkpt lat="23.867004" lon="120.90673">
        <ele>765.0</ele>
      </trkpt>
      <trkpt lat="23.867588" lon="120.907647">
        <ele>769.0</ele>
      </trkpt>
      <trkpt lat="23.867733" lon="120.907623">
        <ele>772.0</ele>
      </trkpt>
      <trkpt lat="23.867826" lon="120.907641">
        <ele>774.0</ele>
      </trkpt>
      <trkpt lat="23.8679" lon="120.907741">
        <ele>775.0</ele>
      </trkpt>
      <trkpt lat="23.867979" lon="120.908008">
        <ele>774.0</ele>
      </trkpt>
      <trkpt lat="23.868043" lon="120.908078">
        <ele>774.0</ele>
      </trkpt>
      <trkpt lat="23.868188" lon="120.90818">
        <ele>774.0</ele>
      </trkpt>
      <trkpt lat="23.868251" lon="120.908208">
        <ele>774.0</ele>
      </trkpt>
      <trkpt lat="23.868251" lon="120.908208">
        <ele>774.0</ele>
      </trkpt>
      <trkpt lat="23.868861" lon="120.908425">
        <ele>790.0</ele>
      </trkpt>
      <trkpt lat="23.868976" lon="120.908529">
        <ele>792.0</ele>
      </trkpt>
      <trkpt lat="23.869033" lon="120.908718">
        <ele>789.0</ele>
      </trkpt>
      <trkpt lat="23.869026" lon="120.909082">
        <ele>782.0</ele>
      </trkpt>
      <trkpt lat="23.869098" lon="120.909231">
        <ele>781.0</ele>
      </trkpt>
      <trkpt lat="23.869796" lon="120.909801">
        <ele>792.0</ele>
      </trkpt>
      <trkpt lat="23.869796" lon="120.909801">
        <ele>792.0</ele>
      </trkpt>
      <trkpt lat="23.87003" lon="120.909981">
        <ele>791.0</ele>
      </trkpt>
      <trkpt lat="23.871394" lon="120.91056">
        <ele>804.0</ele>
      </trkpt>
      <trkpt lat="23.871573" lon="120.910688">
        <ele>801.0</ele>
      </trkpt>
      <trkpt lat="23.871573" lon="120.910688">
        <ele>801.0</ele>
      </trkpt>
      <trkpt lat="23.871626" lon="120.910725">
        <ele>800.0</ele>
      </trkpt>
      <trkpt lat="23.872121" lon="120.911112">
        <ele>805.0</ele>
      </trkpt>
      <trkpt lat="23.872732" lon="120.911522">
        <ele>804.0</ele>
      </trkpt>
      <trkpt lat="23.873056" lon="120.911609">
        <ele>805.0</ele>
      </trkpt>
      <trkpt lat="23.873282" lon="120.911631">
        <ele>807.0</ele>
      </trkpt>
      <trkpt lat="23.873282" lon="120.911631">
        <ele>807.0</ele>
      </trkpt>
      <trkpt lat="23.873895" lon="120.911689">
        <ele>819.0</ele>
      </trkpt>
      <trkpt lat="23.874137" lon="120.911782">
        <ele>825.0</ele>
      </trkpt>
      <trkpt lat="23.874712" lon="120.912117">
        <ele>836.0</ele>
      </trkpt>
      <trkpt lat="23.875027" lon="120.912195">
        <ele>839.0</ele>
      </trkpt>
      <trkpt lat="23.875027" lon="120.912195">
        <ele>839.0</ele>
      </trkpt>
      <trkpt lat="23.876069" lon="120.91252">
        <ele>836.0</ele>
      </trkpt>
      <trkpt lat="23.876606" lon="120.912826">
        <ele>841.0</ele>
      </trkpt>
      <trkpt lat="23.876736" lon="120.912847">
        <ele>843.0</ele>
      </trkpt>
      <trkpt lat="23.876865" lon="120.912841">
        <ele>845.0</ele>
      </trkpt>
      <trkpt lat="23.876865" lon="120.912841">
        <ele>845.0</ele>
      </trkpt>
      <trkpt lat="23.876999" lon="120.912835">
        <ele>848.0</ele>
      </trkpt>
      <trkpt lat="23.877102" lon="120.912924">
        <ele>848.0</ele>
      </trkpt>
      <trkpt lat="23.87723" lon="120.912717">
        <ele>854.0</ele>
      </trkpt>
      <trkpt lat="23.877308" lon="120.912709">
        <ele>855.0</ele>
      </trkpt>
      <trkpt lat="23.87736" lon="120.912582">
        <ele>859.0</ele>
      </trkpt>
      <trkpt lat="23.877462" lon="120.912599">
        <ele>860.0</ele>
      </trkpt>
      <trkpt lat="23.877562" lon="120.91248">
        <ele>864.0</ele>
      </trkpt>
      <trkpt lat="23.877641" lon="120.912516">
        <ele>865.0</ele>
      </trkpt>
      <trkpt lat="23.877641" lon="120.912516">
        <ele>865.0</ele>
      </trkpt>
      <trkpt lat="23.877672" lon="120.912529">
        <ele>865.0</ele>
      </trkpt>
      <trkpt lat="23.877525" lon="120.913135">
        <ele>851.0</ele>
      </trkpt>
      <trkpt lat="23.877551" lon="120.913119">
        <ele>852.0</ele>
      </trkpt>
      <trkpt lat="23.877551" lon="120.913119">
        <ele>852.0</ele>
      </trkpt>
      <trkpt lat="23.877895" lon="120.912897">
        <ele>859.0</ele>
      </trkpt>
      <trkpt lat="23.87812" lon="120.912536">
        <ele>870.0</ele>
      </trkpt>
      <trkpt lat="23.87812" lon="120.912536">
        <ele>870.0</ele>
      </trkpt>
      <trkpt lat="23.878128" lon="120.912522">
        <ele>871.0</ele>
      </trkpt>
      <trkpt lat="23.878178" lon="120.912513">
        <ele>872.0</ele>
      </trkpt>
      <trkpt lat="23.878398" lon="120.912588">
        <ele>873.0</ele>
      </trkpt>
      <trkpt lat="23.878818" lon="120.912629">
        <ele>880.0</ele>
      </trkpt>
      <trkpt lat="23.878907" lon="120.912711">
        <ele>879.0</ele>
      </trkpt>
      <trkpt lat="23.879041" lon="120.912783">
        <ele>880.0</ele>
      </trkpt>
      <trkpt lat="23.879259" lon="120.912725">
        <ele>884.0</ele>
      </trkpt>
      <trkpt lat="23.879259" lon="120.912725">
        <ele>884.0</ele>
      </trkpt>
      <trkpt lat="23.87956" lon="120.912548">
        <ele>889.0</ele>
      </trkpt>
      <trkpt lat="23.879737" lon="120.912351">
        <ele>896.0</ele>
      </trkpt>
      <trkpt lat="23.879949" lon="120.912078">
        <ele>906.0</ele>
      </trkpt>
      <trkpt lat="23.879953" lon="120.912024">
        <ele>908.0</ele>
      </trkpt>
      <trkpt lat="23.879911" lon="120.912">
        <ele>909.0</ele>
      </trkpt>
      <trkpt lat="23.879679" lon="120.912057">
        <ele>907.0</ele>
      </trkpt>
      <trkpt lat="23.87956" lon="120.912065">
        <ele>908.0</ele>
      </trkpt>
      <trkpt lat="23.879538" lon="120.91205">
        <ele>908.0</ele>
      </trkpt>
      <trkpt lat="23.879538" lon="120.91205">
        <ele>908.0</ele>
      </trkpt>
      <trkpt lat="23.879114" lon="120.911753">
        <ele>919.0</ele>
      </trkpt>
      <trkpt lat="23.878788" lon="120.91147">
        <ele>917.0</ele>
      </trkpt>
      <trkpt lat="23.878705" lon="120.91135">
        <ele>916.0</ele>
      </trkpt>
      <trkpt lat="23.87867" lon="120.911263">
        <ele>917.0</ele>
      </trkpt>
      <trkpt lat="23.878697" lon="120.911106">
        <ele>920.0</ele>
      </trkpt>
      <trkpt lat="23.878725" lon="120.911074">
        <ele>921.0</ele>
      </trkpt>
      <trkpt lat="23.878794" lon="120.911056">
        <ele>923.0</ele>
      </trkpt>
      <trkpt lat="23.879655" lon="120.911142">
        <ele>936.0</ele>
      </trkpt>
      <trkpt lat="23.879742" lon="120.911121">
        <ele>937.0</ele>
      </trkpt>
      <trkpt lat="23.879742" lon="120.911121">
        <ele>937.0</ele>
      </trkpt>
      <trkpt lat="23.879816" lon="120.911055">
        <ele>939.0</ele>
      </trkpt>
      <trkpt lat="23.87982" lon="120.910695">
        <ele>946.0</ele>
      </trkpt>
      <trkpt lat="23.879847" lon="120.91059">
        <ele>947.0</ele>
      </trkpt>
      <trkpt lat="23.879929" lon="120.910468">
        <ele>950.0</ele>
      </trkpt>
      <trkpt lat="23.880213" lon="120.910146">
        <ele>956.0</ele>
      </trkpt>
      <trkpt lat="23.880438" lon="120.909786">
        <ele>966.0</ele>
      </trkpt>
      <trkpt lat="23.88051" lon="120.909202">
        <ele>975.0</ele>
      </trkpt>
      <trkpt lat="23.88051" lon="120.909202">
        <ele>975.0</ele>
      </trkpt>
      <trkpt lat="23.880539" lon="120.909149">
        <ele>977.0</ele>
      </trkpt>
      <trkpt lat="23.880616" lon="120.909144">
        <ele>980.0</ele>
      </trkpt>
      <trkpt lat="23.880932" lon="120.909248">
        <ele>985.0</ele>
      </trkpt>
      <trkpt lat="23.88102" lon="120.909222">
        <ele>985.0</ele>
      </trkpt>
      <trkpt lat="23.881092" lon="120.909143">
        <ele>987.0</ele>
      </trkpt>
      <trkpt lat="23.881131" lon="120.908995">
        <ele>989.0</ele>
      </trkpt>
      <trkpt lat="23.881135" lon="120.908844">
        <ele>992.0</ele>
      </trkpt>
      <trkpt lat="23.88098" lon="120.908294">
        <ele>999.0</ele>
      </trkpt>
      <trkpt lat="23.880925" lon="120.908167">
        <ele>1000.0</ele>
      </trkpt>
      <trkpt lat="23.880901" lon="120.908026">
        <ele>1000.0</ele>
      </trkpt>
      <trkpt lat="23.880911" lon="120.907947">
        <ele>1001.0</ele>
      </trkpt>
      <trkpt lat="23.880896" lon="120.907923">
        <ele>1001.0</ele>
      </trkpt>
      <trkpt lat="23.880896" lon="120.907923">
        <ele>1001.0</ele>
      </trkpt>
      <trkpt lat="23.880911" lon="120.907947">
        <ele>1001.0</ele>
      </trkpt>
      <trkpt lat="23.880946" lon="120.907905">
        <ele>1001.0</ele>
      </trkpt>
      <trkpt lat="23.881068" lon="120.9081">
        <ele>1000.0</ele>
      </trkpt>
      <trkpt lat="23.881172" lon="120.908">
        <ele>999.0</ele>
      </trkpt>
      <trkpt lat="23.881172" lon="120.908">
        <ele>999.0</ele>
      </trkpt>
      <trkpt lat="23.881182" lon="120.90799">
        <ele>999.0</ele>
      </trkpt>
      <trkpt lat="23.881267" lon="120.908128">
        <ele>1000.0</ele>
      </trkpt>
      <trkpt lat="23.881363" lon="120.908067">
        <ele>999.0</ele>
      </trkpt>
      <trkpt lat="23.88142" lon="120.908119">
        <ele>999.0</ele>
      </trkpt>
      <trkpt lat="23.881459" lon="120.908124">
        <ele>1000.0</ele>
      </trkpt>
      <trkpt lat="23.881479" lon="120.9081">
        <ele>999.0</ele>
      </trkpt>
      <trkpt lat="23.881479" lon="120.9081">
        <ele>999.0</ele>
      </trkpt>
      <trkpt lat="23.881493" lon="120.908085">
        <ele>999.0</ele>
      </trkpt>
      <trkpt lat="23.881428" lon="120.907987">
        <ele>998.0</ele>
      </trkpt>
      <trkpt lat="23.881419" lon="120.907924">
        <ele>997.0</ele>
      </trkpt>
      <trkpt lat="23.881391" lon="120.907891">
        <ele>997.0</ele>
      </trkpt>
      <trkpt lat="23.881318" lon="120.907865">
        <ele>997.0</ele>
      </trkpt>
      <trkpt lat="23.881291" lon="120.907884">
        <ele>998.0</ele>
      </trkpt>
      <trkpt lat="23.881278" lon="120.907869">
        <ele>998.0</ele>
      </trkpt>
      <trkpt lat="23.881234" lon="120.907914">
        <ele>998.0</ele>
      </trkpt>
      <trkpt lat="23.881105" lon="120.907741">
        <ele>999.0</ele>
      </trkpt>
      <trkpt lat="23.881098" lon="120.907748">
        <ele>999.0</ele>
      </trkpt>
      <trkpt lat="23.881098" lon="120.907748">
        <ele>999.0</ele>
      </trkpt>
      <trkpt lat="23.880946" lon="120.907905">
        <ele>1001.0</ele>
      </trkpt>
      <trkpt lat="23.880911" lon="120.907947">
        <ele>1001.0</ele>
      </trkpt>
      <trkpt lat="23.880862" lon="120.907872">
        <ele>1002.0</ele>
      </trkpt>
      <trkpt lat="23.880862" lon="120.907872">
        <ele>1002.0</ele>
      </trkpt>
      <trkpt lat="23.880911" lon="120.907947">
        <ele>1001.0</ele>
      </trkpt>
      <trkpt lat="23.880901" lon="120.908026">
        <ele>1000.0</ele>
      </trkpt>
      <trkpt lat="23.880925" lon="120.908167">
        <ele>1000.0</ele>
      </trkpt>
      <trkpt lat="23.88098" lon="120.908294">
        <ele>999.0</ele>
      </trkpt>
      <trkpt lat="23.881135" lon="120.908844">
        <ele>992.0</ele>
      </trkpt>
      <trkpt lat="23.881131" lon="120.908995">
        <ele>989.0</ele>
      </trkpt>
      <trkpt lat="23.881092" lon="120.909143">
        <ele>987.0</ele>
      </trkpt>
      <trkpt lat="23.88102" lon="120.909222">
        <ele>985.0</ele>
      </trkpt>
      <trkpt lat="23.880932" lon="120.909248">
        <ele>985.0</ele>
      </trkpt>
      <trkpt lat="23.880616" lon="120.909144">
        <ele>980.0</ele>
      </trkpt>
      <trkpt lat="23.880539" lon="120.909149">
        <ele>977.0</ele>
      </trkpt>
      <trkpt lat="23.880509" lon="120.909205">
        <ele>975.0</ele>
      </trkpt>
      <trkpt lat="23.880492" lon="120.909283">
        <ele>974.0</ele>
      </trkpt>
      <trkpt lat="23.880466" lon="120.909618">
        <ele>968.0</ele>
      </trkpt>
      <trkpt lat="23.880438" lon="120.909786">
        <ele>966.0</ele>
      </trkpt>
      <trkpt lat="23.880213" lon="120.910146">
        <ele>956.0</ele>
      </trkpt>
      <trkpt lat="23.879929" lon="120.910468">
        <ele>950.0</ele>
      </trkpt>
      <trkpt lat="23.879847" lon="120.91059">
        <ele>947.0</ele>
      </trkpt>
      <trkpt lat="23.87982" lon="120.910695">
        <ele>946.0</ele>
      </trkpt>
      <trkpt lat="23.879816" lon="120.911055">
        <ele>939.0</ele>
      </trkpt>
      <trkpt lat="23.87975" lon="120.911119">
        <ele>937.0</ele>
      </trkpt>
      <trkpt lat="23.879655" lon="120.911142">
        <ele>936.0</ele>
      </trkpt>
      <trkpt lat="23.878794" lon="120.911056">
        <ele>923.0</ele>
      </trkpt>
      <trkpt lat="23.878725" lon="120.911074">
        <ele>921.0</ele>
      </trkpt>
      <trkpt lat="23.878697" lon="120.911106">
        <ele>920.0</ele>
      </trkpt>
      <trkpt lat="23.87867" lon="120.911263">
        <ele>917.0</ele>
      </trkpt>
      <trkpt lat="23.878705" lon="120.91135">
        <ele>916.0</ele>
      </trkpt>
      <trkpt lat="23.878788" lon="120.91147">
        <ele>917.0</ele>
      </trkpt>
      <trkpt lat="23.879114" lon="120.911753">
        <ele>919.0</ele>
      </trkpt>
      <trkpt lat="23.87956" lon="120.912065">
        <ele>908.0</ele>
      </trkpt>
      <trkpt lat="23.879679" lon="120.912057">
        <ele>907.0</ele>
      </trkpt>
      <trkpt lat="23.879911" lon="120.912">
        <ele>909.0</ele>
      </trkpt>
      <trkpt lat="23.879953" lon="120.912024">
        <ele>908.0</ele>
      </trkpt>
      <trkpt lat="23.879949" lon="120.912078">
        <ele>906.0</ele>
      </trkpt>
      <trkpt lat="23.879737" lon="120.912351">
        <ele>896.0</ele>
      </trkpt>
      <trkpt lat="23.87956" lon="120.912548">
        <ele>889.0</ele>
      </trkpt>
      <trkpt lat="23.879228" lon="120.912743">
        <ele>883.0</ele>
      </trkpt>
      <trkpt lat="23.879041" lon="120.912783">
        <ele>880.0</ele>
      </trkpt>
      <trkpt lat="23.878907" lon="120.912711">
        <ele>879.0</ele>
      </trkpt>
      <trkpt lat="23.878818" lon="120.912629">
        <ele>880.0</ele>
      </trkpt>
      <trkpt lat="23.878398" lon="120.912588">
        <ele>873.0</ele>
      </trkpt>
      <trkpt lat="23.878178" lon="120.912513">
        <ele>872.0</ele>
      </trkpt>
      <trkpt lat="23.878128" lon="120.912522">
        <ele>871.0</ele>
      </trkpt>
      <trkpt lat="23.877895" lon="120.912897">
        <ele>859.0</ele>
      </trkpt>
      <trkpt lat="23.877525" lon="120.913135">
        <ele>851.0</ele>
      </trkpt>
      <trkpt lat="23.877672" lon="120.912529">
        <ele>865.0</ele>
      </trkpt>
      <trkpt lat="23.877562" lon="120.91248">
        <ele>864.0</ele>
      </trkpt>
      <trkpt lat="23.877462" lon="120.912599">
        <ele>860.0</ele>
      </trkpt>
      <trkpt lat="23.87736" lon="120.912582">
        <ele>859.0</ele>
      </trkpt>
      <trkpt lat="23.877308" lon="120.912709">
        <ele>855.0</ele>
      </trkpt>
      <trkpt lat="23.87723" lon="120.912717">
        <ele>854.0</ele>
      </trkpt>
      <trkpt lat="23.877102" lon="120.912924">
        <ele>848.0</ele>
      </trkpt>
      <trkpt lat="23.876999" lon="120.912835">
        <ele>848.0</ele>
      </trkpt>
      <trkpt lat="23.876736" lon="120.912847">
        <ele>843.0</ele>
      </trkpt>
      <trkpt lat="23.876606" lon="120.912826">
        <ele>841.0</ele>
      </trkpt>
      <trkpt lat="23.876069" lon="120.91252">
        <ele>836.0</ele>
      </trkpt>
      <trkpt lat="23.875162" lon="120.912229">
        <ele>839.0</ele>
      </trkpt>
      <trkpt lat="23.874712" lon="120.912117">
        <ele>836.0</ele>
      </trkpt>
      <trkpt lat="23.874137" lon="120.911782">
        <ele>825.0</ele>
      </trkpt>
      <trkpt lat="23.873895" lon="120.911689">
        <ele>819.0</ele>
      </trkpt>
      <trkpt lat="23.873056" lon="120.911609">
        <ele>805.0</ele>
      </trkpt>
      <trkpt lat="23.872732" lon="120.911522">
        <ele>804.0</ele>
      </trkpt>
      <trkpt lat="23.872121" lon="120.911112">
        <ele>805.0</ele>
      </trkpt>
      <trkpt lat="23.871394" lon="120.91056">
        <ele>804.0</ele>
      </trkpt>
      <trkpt lat="23.87003" lon="120.909981">
        <ele>791.0</ele>
      </trkpt>
      <trkpt lat="23.869529" lon="120.909594">
        <ele>790.0</ele>
      </trkpt>
      <trkpt lat="23.869098" lon="120.909231">
        <ele>781.0</ele>
      </trkpt>
      <trkpt lat="23.869026" lon="120.909082">
        <ele>782.0</ele>
      </trkpt>
      <trkpt lat="23.869033" lon="120.908718">
        <ele>789.0</ele>
      </trkpt>
      <trkpt lat="23.868976" lon="120.908529">
        <ele>792.0</ele>
      </trkpt>
      <trkpt lat="23.868861" lon="120.908425">
        <ele>790.0</ele>
      </trkpt>
      <trkpt lat="23.868362" lon="120.908256">
        <ele>775.0</ele>
      </trkpt>
      <trkpt lat="23.868188" lon="120.90818">
        <ele>774.0</ele>
      </trkpt>
      <trkpt lat="23.868043" lon="120.908078">
        <ele>774.0</ele>
      </trkpt>
      <trkpt lat="23.867979" lon="120.908008">
        <ele>774.0</ele>
      </trkpt>
      <trkpt lat="23.8679" lon="120.907741">
        <ele>775.0</ele>
      </trkpt>
      <trkpt lat="23.867826" lon="120.907641">
        <ele>774.0</ele>
      </trkpt>
      <trkpt lat="23.867733" lon="120.907623">
        <ele>772.0</ele>
      </trkpt>
      <trkpt lat="23.867588" lon="120.907647">
        <ele>769.0</ele>
      </trkpt>
      <trkpt lat="23.867004" lon="120.90673">
        <ele>765.0</ele>
      </trkpt>
      <trkpt lat="23.866917" lon="120.90654">
        <ele>765.0</ele>
      </trkpt>
    </trkseg>
  </trk>
</gpx>
