<?xml version="1.0" encoding="UTF-8"?>
<gpx xmlns="http://www.topografix.com/GPX/1/1" xmlns:xsi="http://www.w3.org/2001/XMLSchema-instance" xsi:schemaLocation="http://www.topografix.com/GPX/1/1 http://www.topografix.com/GPX/1/1/gpx.xsd" version="1.1" creator="Martin Schneider">
  <wpt lat="23.847289" lon="120.862359">
    <ele>456.0</ele>
    <name>Start</name>
  </wpt>
  <wpt lat="23.825082" lon="120.818637">
    <ele>364.0</ele>
    <name>End</name>
  </wpt>
  <wpt lat="23.861502" lon="120.847694">
    <name>1</name>
    <desc>Trailhead</desc>
  </wpt>
  <wpt lat="23.855249" lon="120.837605">
    <ele>1373.0</ele>
    <name>Summit Jijidashan</name>
  </wpt>
  <trk>
    <name>050_Jijidashan</name>
    <trkseg>
      <trkpt lat="23.847289" lon="120.862359">
        <ele>456.0</ele>
      </trkpt>
      <trkpt lat="23.84744" lon="120.862068">
        <ele>458.0</ele>
      </trkpt>
      <trkpt lat="23.84744" lon="120.862068">
        <ele>458.0</ele>
      </trkpt>
      <trkpt lat="23.847522" lon="120.861909">
        <ele>458.0</ele>
      </trkpt>
      <trkpt lat="23.8476001" lon="120.8618368">
        <ele>459.0</ele>
      </trkpt>
      <trkpt lat="23.84776" lon="120.861689">
        <ele>461.0</ele>
      </trkpt>
      <trkpt lat="23.848154" lon="120.86167">
        <ele>466.0</ele>
      </trkpt>
      <trkpt lat="23.848296" lon="120.861234">
        <ele>469.0</ele>
      </trkpt>
      <trkpt lat="23.848489" lon="120.860961">
        <ele>477.0</ele>
      </trkpt>
      <trkpt lat="23.8485116" lon="120.8609152">
        <ele>478.0</ele>
      </trkpt>
      <trkpt lat="23.848684" lon="120.860565">
        <ele>486.0</ele>
      </trkpt>
      <trkpt lat="23.848944" lon="120.860176">
        <ele>493.0</ele>
      </trkpt>
      <trkpt lat="23.848998" lon="120.860131">
        <ele>494.0</ele>
      </trkpt>
      <trkpt lat="23.849336" lon="120.859854">
        <ele>504.0</ele>
      </trkpt>
      <trkpt lat="23.849128" lon="120.859656">
        <ele>498.0</ele>
      </trkpt>
      <trkpt lat="23.849096" lon="120.859487">
        <ele>498.0</ele>
      </trkpt>
      <trkpt lat="23.849166" lon="120.859401">
        <ele>499.0</ele>
      </trkpt>
      <trkpt lat="23.849422" lon="120.859339">
        <ele>508.0</ele>
      </trkpt>
      <trkpt lat="23.849585" lon="120.859084">
        <ele>515.0</ele>
      </trkpt>
      <trkpt lat="23.849811" lon="120.858897">
        <ele>525.0</ele>
      </trkpt>
      <trkpt lat="23.850036" lon="120.859406">
        <ele>529.0</ele>
      </trkpt>
      <trkpt lat="23.850258" lon="120.859664">
        <ele>537.0</ele>
      </trkpt>
      <trkpt lat="23.850272" lon="120.859819">
        <ele>538.0</ele>
      </trkpt>
      <trkpt lat="23.850088" lon="120.860112">
        <ele>534.0</ele>
      </trkpt>
      <trkpt lat="23.850985" lon="120.859915">
        <ele>555.0</ele>
      </trkpt>
      <trkpt lat="23.851211" lon="120.859979">
        <ele>560.0</ele>
      </trkpt>
      <trkpt lat="23.851387" lon="120.859872">
        <ele>565.0</ele>
      </trkpt>
      <trkpt lat="23.851397" lon="120.859679">
        <ele>567.0</ele>
      </trkpt>
      <trkpt lat="23.851603" lon="120.859636">
        <ele>573.0</ele>
      </trkpt>
      <trkpt lat="23.851662" lon="120.85984">
        <ele>571.0</ele>
      </trkpt>
      <trkpt lat="23.85179" lon="120.859969">
        <ele>573.0</ele>
      </trkpt>
      <trkpt lat="23.852153" lon="120.860012">
        <ele>582.0</ele>
      </trkpt>
      <trkpt lat="23.852642" lon="120.859892">
        <ele>598.0</ele>
      </trkpt>
      <trkpt lat="23.852889" lon="120.86013">
        <ele>601.0</ele>
      </trkpt>
      <trkpt lat="23.853389" lon="120.860484">
        <ele>608.0</ele>
      </trkpt>
      <trkpt lat="23.853527" lon="120.860462">
        <ele>608.0</ele>
      </trkpt>
      <trkpt lat="23.853634" lon="120.860376">
        <ele>609.0</ele>
      </trkpt>
      <trkpt lat="23.853674" lon="120.860087">
        <ele>616.0</ele>
      </trkpt>
      <trkpt lat="23.853733" lon="120.859904">
        <ele>621.0</ele>
      </trkpt>
      <trkpt lat="23.85385" lon="120.859754">
        <ele>626.0</ele>
      </trkpt>
      <trkpt lat="23.854155" lon="120.859582">
        <ele>635.0</ele>
      </trkpt>
      <trkpt lat="23.8544" lon="120.859518">
        <ele>636.0</ele>
      </trkpt>
      <trkpt lat="23.854547" lon="120.859346">
        <ele>640.0</ele>
      </trkpt>
      <trkpt lat="23.854704" lon="120.859046">
        <ele>649.0</ele>
      </trkpt>
      <trkpt lat="23.854851" lon="120.858853">
        <ele>655.0</ele>
      </trkpt>
      <trkpt lat="23.855185" lon="120.858542">
        <ele>666.0</ele>
      </trkpt>
      <trkpt lat="23.85545" lon="120.858531">
        <ele>667.0</ele>
      </trkpt>
      <trkpt lat="23.855568" lon="120.858434">
        <ele>671.0</ele>
      </trkpt>
      <trkpt lat="23.85544" lon="120.858284">
        <ele>678.0</ele>
      </trkpt>
      <trkpt lat="23.855205" lon="120.858188">
        <ele>682.0</ele>
      </trkpt>
      <trkpt lat="23.854596" lon="120.858198">
        <ele>678.0</ele>
      </trkpt>
      <trkpt lat="23.854498" lon="120.858134">
        <ele>680.0</ele>
      </trkpt>
      <trkpt lat="23.854213" lon="120.857844">
        <ele>690.0</ele>
      </trkpt>
      <trkpt lat="23.853997" lon="120.857705">
        <ele>691.0</ele>
      </trkpt>
      <trkpt lat="23.853674" lon="120.857544">
        <ele>690.0</ele>
      </trkpt>
      <trkpt lat="23.853507" lon="120.85749">
        <ele>688.0</ele>
      </trkpt>
      <trkpt lat="23.853576" lon="120.857383">
        <ele>694.0</ele>
      </trkpt>
      <trkpt lat="23.853772" lon="120.857372">
        <ele>700.0</ele>
      </trkpt>
      <trkpt lat="23.853939" lon="120.857383">
        <ele>703.0</ele>
      </trkpt>
      <trkpt lat="23.854272" lon="120.857329">
        <ele>713.0</ele>
      </trkpt>
      <trkpt lat="23.854459" lon="120.857415">
        <ele>711.0</ele>
      </trkpt>
      <trkpt lat="23.854675" lon="120.857404">
        <ele>714.0</ele>
      </trkpt>
      <trkpt lat="23.854743" lon="120.857297">
        <ele>719.0</ele>
      </trkpt>
      <trkpt lat="23.854645" lon="120.857201">
        <ele>722.0</ele>
      </trkpt>
      <trkpt lat="23.854478" lon="120.857201">
        <ele>721.0</ele>
      </trkpt>
      <trkpt lat="23.854361" lon="120.857179">
        <ele>720.0</ele>
      </trkpt>
      <trkpt lat="23.854213" lon="120.857126">
        <ele>721.0</ele>
      </trkpt>
      <trkpt lat="23.854191" lon="120.85696">
        <ele>728.0</ele>
      </trkpt>
      <trkpt lat="23.854458" lon="120.857011">
        <ele>729.0</ele>
      </trkpt>
      <trkpt lat="23.854674" lon="120.856858">
        <ele>738.0</ele>
      </trkpt>
      <trkpt lat="23.854814" lon="120.856791">
        <ele>742.0</ele>
      </trkpt>
      <trkpt lat="23.855453" lon="120.856697">
        <ele>753.0</ele>
      </trkpt>
      <trkpt lat="23.85585" lon="120.856544">
        <ele>762.0</ele>
      </trkpt>
      <trkpt lat="23.856142" lon="120.856483">
        <ele>765.0</ele>
      </trkpt>
      <trkpt lat="23.856451" lon="120.856424">
        <ele>768.0</ele>
      </trkpt>
      <trkpt lat="23.856694" lon="120.856349">
        <ele>772.0</ele>
      </trkpt>
      <trkpt lat="23.856838" lon="120.856209">
        <ele>779.0</ele>
      </trkpt>
      <trkpt lat="23.857003" lon="120.856108">
        <ele>785.0</ele>
      </trkpt>
      <trkpt lat="23.85715" lon="120.85604">
        <ele>791.0</ele>
      </trkpt>
      <trkpt lat="23.857383" lon="120.856">
        <ele>797.0</ele>
      </trkpt>
      <trkpt lat="23.857562" lon="120.856019">
        <ele>796.0</ele>
      </trkpt>
      <trkpt lat="23.857806" lon="120.856113">
        <ele>787.0</ele>
      </trkpt>
      <trkpt lat="23.857956" lon="120.856094">
        <ele>785.0</ele>
      </trkpt>
      <trkpt lat="23.858079" lon="120.856051">
        <ele>785.0</ele>
      </trkpt>
      <trkpt lat="23.858209" lon="120.855831">
        <ele>793.0</ele>
      </trkpt>
      <trkpt lat="23.858238" lon="120.855274">
        <ele>805.0</ele>
      </trkpt>
      <trkpt lat="23.858223" lon="120.854955">
        <ele>815.0</ele>
      </trkpt>
      <trkpt lat="23.858258" lon="120.854751">
        <ele>822.0</ele>
      </trkpt>
      <trkpt lat="23.858378" lon="120.854501">
        <ele>829.0</ele>
      </trkpt>
      <trkpt lat="23.858427" lon="120.854206">
        <ele>842.0</ele>
      </trkpt>
      <trkpt lat="23.858432" lon="120.854005">
        <ele>851.0</ele>
      </trkpt>
      <trkpt lat="23.858572" lon="120.853895">
        <ele>853.0</ele>
      </trkpt>
      <trkpt lat="23.858927" lon="120.853911">
        <ele>847.0</ele>
      </trkpt>
      <trkpt lat="23.859239" lon="120.853782">
        <ele>853.0</ele>
      </trkpt>
      <trkpt lat="23.859496" lon="120.853896">
        <ele>856.0</ele>
      </trkpt>
      <trkpt lat="23.859815" lon="120.854252">
        <ele>852.0</ele>
      </trkpt>
      <trkpt lat="23.85996" lon="120.85448">
        <ele>841.0</ele>
      </trkpt>
      <trkpt lat="23.860238" lon="120.854548">
        <ele>838.0</ele>
      </trkpt>
      <trkpt lat="23.860529" lon="120.854305">
        <ele>852.0</ele>
      </trkpt>
      <trkpt lat="23.860481" lon="120.854002">
        <ele>864.0</ele>
      </trkpt>
      <trkpt lat="23.860377" lon="120.853577">
        <ele>875.0</ele>
      </trkpt>
      <trkpt lat="23.860536" lon="120.853144">
        <ele>884.0</ele>
      </trkpt>
      <trkpt lat="23.860529" lon="120.852742">
        <ele>900.0</ele>
      </trkpt>
      <trkpt lat="23.860857" lon="120.852545">
        <ele>899.0</ele>
      </trkpt>
      <trkpt lat="23.860878" lon="120.852287">
        <ele>908.0</ele>
      </trkpt>
      <trkpt lat="23.86119" lon="120.852196">
        <ele>914.0</ele>
      </trkpt>
      <trkpt lat="23.861287" lon="120.851976">
        <ele>918.0</ele>
      </trkpt>
      <trkpt lat="23.861516" lon="120.851893">
        <ele>919.0</ele>
      </trkpt>
      <trkpt lat="23.861786" lon="120.851657">
        <ele>924.0</ele>
      </trkpt>
      <trkpt lat="23.862057" lon="120.851688">
        <ele>931.0</ele>
      </trkpt>
      <trkpt lat="23.86255" lon="120.851316">
        <ele>952.0</ele>
      </trkpt>
      <trkpt lat="23.863327" lon="120.851073">
        <ele>965.0</ele>
      </trkpt>
      <trkpt lat="23.863979" lon="120.850815">
        <ele>964.0</ele>
      </trkpt>
      <trkpt lat="23.86418" lon="120.850686">
        <ele>967.0</ele>
      </trkpt>
      <trkpt lat="23.864548" lon="120.850588">
        <ele>975.0</ele>
      </trkpt>
      <trkpt lat="23.865093" lon="120.850262">
        <ele>991.0</ele>
      </trkpt>
      <trkpt lat="23.865613" lon="120.850527">
        <ele>998.0</ele>
      </trkpt>
      <trkpt lat="23.866009" lon="120.850451">
        <ele>1010.0</ele>
      </trkpt>
      <trkpt lat="23.865695" lon="120.85034">
        <ele>1004.0</ele>
      </trkpt>
      <trkpt lat="23.865605" lon="120.850082">
        <ele>1006.0</ele>
      </trkpt>
      <trkpt lat="23.865508" lon="120.849657">
        <ele>1016.0</ele>
      </trkpt>
      <trkpt lat="23.865147" lon="120.849718">
        <ele>1008.0</ele>
      </trkpt>
      <trkpt lat="23.864932" lon="120.849566">
        <ele>1011.0</ele>
      </trkpt>
      <trkpt lat="23.864717" lon="120.849247">
        <ele>1022.0</ele>
      </trkpt>
      <trkpt lat="23.864307" lon="120.849156">
        <ele>1022.0</ele>
      </trkpt>
      <trkpt lat="23.864347" lon="120.84893">
        <ele>1028.0</ele>
      </trkpt>
      <trkpt lat="23.864347" lon="120.84893">
        <ele>1028.0</ele>
      </trkpt>
      <trkpt lat="23.864363" lon="120.848838">
        <ele>1030.0</ele>
      </trkpt>
      <trkpt lat="23.864071" lon="120.848693">
        <ele>1035.0</ele>
      </trkpt>
      <trkpt lat="23.86354" lon="120.848656">
        <ele>1043.0</ele>
      </trkpt>
      <trkpt lat="23.862693" lon="120.848989">
        <ele>1035.0</ele>
      </trkpt>
      <trkpt lat="23.861986" lon="120.848322">
        <ele>1058.0</ele>
      </trkpt>
      <trkpt lat="23.862423" lon="120.847988">
        <ele>1061.0</ele>
      </trkpt>
      <trkpt lat="23.862367" lon="120.847867">
        <ele>1064.0</ele>
      </trkpt>
      <trkpt lat="23.862111" lon="120.847859">
        <ele>1065.0</ele>
      </trkpt>
      <trkpt lat="23.861477" lon="120.847707">
        <ele>1070.0</ele>
      </trkpt>
      <trkpt lat="23.861063" lon="120.847837">
        <ele>1075.0</ele>
      </trkpt>
      <trkpt lat="23.861063" lon="120.847837">
        <ele>1075.0</ele>
      </trkpt>
      <trkpt lat="23.860798" lon="120.84792">
        <ele>1079.0</ele>
      </trkpt>
      <trkpt lat="23.860567" lon="120.848154">
        <ele>1086.0</ele>
      </trkpt>
      <trkpt lat="23.860331" lon="120.848245">
        <ele>1092.0</ele>
      </trkpt>
      <trkpt lat="23.859977" lon="120.848218">
        <ele>1099.0</ele>
      </trkpt>
      <trkpt lat="23.859665" lon="120.848332">
        <ele>1104.0</ele>
      </trkpt>
      <trkpt lat="23.859478" lon="120.848624">
        <ele>1107.0</ele>
      </trkpt>
      <trkpt lat="23.859454" lon="120.848814">
        <ele>1108.0</ele>
      </trkpt>
      <trkpt lat="23.85937" lon="120.848821">
        <ele>1110.0</ele>
      </trkpt>
      <trkpt lat="23.859235" lon="120.848165">
        <ele>1111.0</ele>
      </trkpt>
      <trkpt lat="23.859218" lon="120.8479">
        <ele>1113.0</ele>
      </trkpt>
      <trkpt lat="23.858954" lon="120.847668">
        <ele>1116.0</ele>
      </trkpt>
      <trkpt lat="23.858121" lon="120.846468">
        <ele>1135.0</ele>
      </trkpt>
      <trkpt lat="23.857846" lon="120.846103">
        <ele>1127.0</ele>
      </trkpt>
      <trkpt lat="23.857766" lon="120.845356">
        <ele>1133.0</ele>
      </trkpt>
      <trkpt lat="23.857833" lon="120.844649">
        <ele>1157.0</ele>
      </trkpt>
      <trkpt lat="23.857774" lon="120.844263">
        <ele>1181.0</ele>
      </trkpt>
      <trkpt lat="23.857604" lon="120.844001">
        <ele>1199.0</ele>
      </trkpt>
      <trkpt lat="23.857541" lon="120.843709">
        <ele>1205.0</ele>
      </trkpt>
      <trkpt lat="23.857059" lon="120.843489">
        <ele>1225.0</ele>
      </trkpt>
      <trkpt lat="23.856403" lon="120.843398">
        <ele>1242.0</ele>
      </trkpt>
      <trkpt lat="23.856205" lon="120.843083">
        <ele>1251.0</ele>
      </trkpt>
      <trkpt lat="23.856143" lon="120.842365">
        <ele>1270.0</ele>
      </trkpt>
      <trkpt lat="23.855907" lon="120.84197">
        <ele>1286.0</ele>
      </trkpt>
      <trkpt lat="23.855914" lon="120.841644">
        <ele>1288.0</ele>
      </trkpt>
      <trkpt lat="23.856011" lon="120.841348">
        <ele>1284.0</ele>
      </trkpt>
      <trkpt lat="23.856233" lon="120.840869">
        <ele>1278.0</ele>
      </trkpt>
      <trkpt lat="23.856233" lon="120.840869">
        <ele>1278.0</ele>
      </trkpt>
      <trkpt lat="23.856276" lon="120.840776">
        <ele>1279.0</ele>
      </trkpt>
      <trkpt lat="23.856093" lon="120.840788">
        <ele>1284.0</ele>
      </trkpt>
      <trkpt lat="23.856032" lon="120.840702">
        <ele>1288.0</ele>
      </trkpt>
      <trkpt lat="23.856039" lon="120.840617">
        <ele>1291.0</ele>
      </trkpt>
      <trkpt lat="23.85623" lon="120.840628">
        <ele>1284.0</ele>
      </trkpt>
      <trkpt lat="23.85624" lon="120.840529">
        <ele>1286.0</ele>
      </trkpt>
      <trkpt lat="23.856096" lon="120.840312">
        <ele>1298.0</ele>
      </trkpt>
      <trkpt lat="23.855978" lon="120.839958">
        <ele>1314.0</ele>
      </trkpt>
      <trkpt lat="23.855647" lon="120.839207">
        <ele>1344.0</ele>
      </trkpt>
      <trkpt lat="23.855578" lon="120.839139">
        <ele>1346.0</ele>
      </trkpt>
      <trkpt lat="23.855543" lon="120.839031">
        <ele>1350.0</ele>
      </trkpt>
      <trkpt lat="23.855542" lon="120.838743">
        <ele>1359.0</ele>
      </trkpt>
      <trkpt lat="23.855391" lon="120.838546">
        <ele>1367.0</ele>
      </trkpt>
      <trkpt lat="23.855271" lon="120.838348">
        <ele>1376.0</ele>
      </trkpt>
      <trkpt lat="23.85523" lon="120.838225">
        <ele>1377.0</ele>
      </trkpt>
      <trkpt lat="23.8553" lon="120.837996">
        <ele>1375.0</ele>
      </trkpt>
      <trkpt lat="23.855278" lon="120.837741">
        <ele>1374.0</ele>
      </trkpt>
      <trkpt lat="23.855249" lon="120.837605">
        <ele>1373.0</ele>
      </trkpt>
      <trkpt lat="23.855329" lon="120.837541">
        <ele>1373.0</ele>
      </trkpt>
      <trkpt lat="23.855626" lon="120.837383">
        <ele>1368.0</ele>
      </trkpt>
      <trkpt lat="23.855697" lon="120.83738">
        <ele>1369.0</ele>
      </trkpt>
      <trkpt lat="23.855697" lon="120.83738">
        <ele>1369.0</ele>
      </trkpt>
      <trkpt lat="23.855626" lon="120.837383">
        <ele>1368.0</ele>
      </trkpt>
      <trkpt lat="23.855329" lon="120.837541">
        <ele>1373.0</ele>
      </trkpt>
      <trkpt lat="23.855249" lon="120.837605">
        <ele>1373.0</ele>
      </trkpt>
      <trkpt lat="23.855278" lon="120.837741">
        <ele>1374.0</ele>
      </trkpt>
      <trkpt lat="23.8553" lon="120.837996">
        <ele>1375.0</ele>
      </trkpt>
      <trkpt lat="23.85523" lon="120.838225">
        <ele>1377.0</ele>
      </trkpt>
      <trkpt lat="23.855271" lon="120.838348">
        <ele>1376.0</ele>
      </trkpt>
      <trkpt lat="23.855391" lon="120.838546">
        <ele>1367.0</ele>
      </trkpt>
      <trkpt lat="23.855542" lon="120.838743">
        <ele>1359.0</ele>
      </trkpt>
      <trkpt lat="23.855543" lon="120.839031">
        <ele>1350.0</ele>
      </trkpt>
      <trkpt lat="23.855578" lon="120.839139">
        <ele>1346.0</ele>
      </trkpt>
      <trkpt lat="23.855647" lon="120.839207">
        <ele>1344.0</ele>
      </trkpt>
      <trkpt lat="23.855694" lon="120.839214">
        <ele>1343.0</ele>
      </trkpt>
      <trkpt lat="23.855738" lon="120.839183">
        <ele>1343.0</ele>
      </trkpt>
      <trkpt lat="23.855779" lon="120.839098">
        <ele>1345.0</ele>
      </trkpt>
      <trkpt lat="23.855801" lon="120.839002">
        <ele>1348.0</ele>
      </trkpt>
      <trkpt lat="23.855807" lon="120.838871">
        <ele>1351.0</ele>
      </trkpt>
      <trkpt lat="23.855722" lon="120.838678">
        <ele>1358.0</ele>
      </trkpt>
      <trkpt lat="23.855561" lon="120.838506">
        <ele>1365.0</ele>
      </trkpt>
      <trkpt lat="23.855535" lon="120.838421">
        <ele>1368.0</ele>
      </trkpt>
      <trkpt lat="23.855532" lon="120.838336">
        <ele>1371.0</ele>
      </trkpt>
      <trkpt lat="23.855579" lon="120.838253">
        <ele>1371.0</ele>
      </trkpt>
      <trkpt lat="23.855815" lon="120.838087">
        <ele>1368.0</ele>
      </trkpt>
      <trkpt lat="23.856086" lon="120.838001">
        <ele>1353.0</ele>
      </trkpt>
      <trkpt lat="23.85634" lon="120.837806">
        <ele>1342.0</ele>
      </trkpt>
      <trkpt lat="23.856347" lon="120.837724">
        <ele>1343.0</ele>
      </trkpt>
      <trkpt lat="23.856289" lon="120.837322">
        <ele>1346.0</ele>
      </trkpt>
      <trkpt lat="23.856237" lon="120.837116">
        <ele>1342.0</ele>
      </trkpt>
      <trkpt lat="23.856204" lon="120.836896">
        <ele>1336.0</ele>
      </trkpt>
      <trkpt lat="23.85617" lon="120.836807">
        <ele>1334.0</ele>
      </trkpt>
      <trkpt lat="23.855976" lon="120.836505">
        <ele>1328.0</ele>
      </trkpt>
      <trkpt lat="23.855905" lon="120.8365">
        <ele>1329.0</ele>
      </trkpt>
      <trkpt lat="23.855647" lon="120.836645">
        <ele>1331.0</ele>
      </trkpt>
      <trkpt lat="23.855206" lon="120.836991">
        <ele>1339.0</ele>
      </trkpt>
      <trkpt lat="23.855043" lon="120.837034">
        <ele>1338.0</ele>
      </trkpt>
      <trkpt lat="23.8548" lon="120.837216">
        <ele>1340.0</ele>
      </trkpt>
      <trkpt lat="23.854683" lon="120.837248">
        <ele>1335.0</ele>
      </trkpt>
      <trkpt lat="23.854683" lon="120.837248">
        <ele>1335.0</ele>
      </trkpt>
      <trkpt lat="23.854274" lon="120.83736">
        <ele>1320.0</ele>
      </trkpt>
      <trkpt lat="23.854207" lon="120.8374">
        <ele>1319.0</ele>
      </trkpt>
      <trkpt lat="23.854174" lon="120.837466">
        <ele>1321.0</ele>
      </trkpt>
      <trkpt lat="23.854183" lon="120.837732">
        <ele>1330.0</ele>
      </trkpt>
      <trkpt lat="23.854156" lon="120.83786">
        <ele>1332.0</ele>
      </trkpt>
      <trkpt lat="23.854102" lon="120.837961">
        <ele>1330.0</ele>
      </trkpt>
      <trkpt lat="23.853946" lon="120.838121">
        <ele>1320.0</ele>
      </trkpt>
      <trkpt lat="23.853726" lon="120.8384">
        <ele>1306.0</ele>
      </trkpt>
      <trkpt lat="23.853667" lon="120.838514">
        <ele>1301.0</ele>
      </trkpt>
      <trkpt lat="23.853644" lon="120.838632">
        <ele>1300.0</ele>
      </trkpt>
      <trkpt lat="23.853648" lon="120.838764">
        <ele>1300.0</ele>
      </trkpt>
      <trkpt lat="23.853966" lon="120.838985">
        <ele>1322.0</ele>
      </trkpt>
      <trkpt lat="23.854007" lon="120.839104">
        <ele>1324.0</ele>
      </trkpt>
      <trkpt lat="23.853984" lon="120.839247">
        <ele>1320.0</ele>
      </trkpt>
      <trkpt lat="23.853924" lon="120.839371">
        <ele>1314.0</ele>
      </trkpt>
      <trkpt lat="23.853856" lon="120.839464">
        <ele>1309.0</ele>
      </trkpt>
      <trkpt lat="23.853736" lon="120.839557">
        <ele>1301.0</ele>
      </trkpt>
      <trkpt lat="23.853683" lon="120.839649">
        <ele>1297.0</ele>
      </trkpt>
      <trkpt lat="23.85368" lon="120.839712">
        <ele>1296.0</ele>
      </trkpt>
      <trkpt lat="23.853755" lon="120.839991">
        <ele>1296.0</ele>
      </trkpt>
      <trkpt lat="23.853856" lon="120.840205">
        <ele>1296.0</ele>
      </trkpt>
      <trkpt lat="23.853947" lon="120.840273">
        <ele>1297.0</ele>
      </trkpt>
      <trkpt lat="23.854103" lon="120.840299">
        <ele>1302.0</ele>
      </trkpt>
      <trkpt lat="23.854251" lon="120.840286">
        <ele>1304.0</ele>
      </trkpt>
      <trkpt lat="23.854762" lon="120.840135">
        <ele>1310.0</ele>
      </trkpt>
      <trkpt lat="23.85486" lon="120.840126">
        <ele>1310.0</ele>
      </trkpt>
      <trkpt lat="23.854935" lon="120.840143">
        <ele>1309.0</ele>
      </trkpt>
      <trkpt lat="23.855046" lon="120.84024">
        <ele>1307.0</ele>
      </trkpt>
      <trkpt lat="23.855046" lon="120.84024">
        <ele>1307.0</ele>
      </trkpt>
      <trkpt lat="23.855135" lon="120.840349">
        <ele>1304.0</ele>
      </trkpt>
      <trkpt lat="23.855265" lon="120.840401">
        <ele>1303.0</ele>
      </trkpt>
      <trkpt lat="23.855452" lon="120.840411">
        <ele>1304.0</ele>
      </trkpt>
      <trkpt lat="23.85574" lon="120.840507">
        <ele>1302.0</ele>
      </trkpt>
      <trkpt lat="23.856032" lon="120.840702">
        <ele>1288.0</ele>
      </trkpt>
      <trkpt lat="23.856093" lon="120.840788">
        <ele>1284.0</ele>
      </trkpt>
      <trkpt lat="23.856078" lon="120.840915">
        <ele>1283.0</ele>
      </trkpt>
      <trkpt lat="23.856008" lon="120.840988">
        <ele>1285.0</ele>
      </trkpt>
      <trkpt lat="23.855653" lon="120.84106">
        <ele>1291.0</ele>
      </trkpt>
      <trkpt lat="23.855386" lon="120.84106">
        <ele>1291.0</ele>
      </trkpt>
      <trkpt lat="23.85496" lon="120.841148">
        <ele>1292.0</ele>
      </trkpt>
      <trkpt lat="23.85484" lon="120.841187">
        <ele>1291.0</ele>
      </trkpt>
      <trkpt lat="23.854784" lon="120.841228">
        <ele>1290.0</ele>
      </trkpt>
      <trkpt lat="23.85477" lon="120.841467">
        <ele>1291.0</ele>
      </trkpt>
      <trkpt lat="23.854753" lon="120.841547">
        <ele>1291.0</ele>
      </trkpt>
      <trkpt lat="23.85471" lon="120.841586">
        <ele>1291.0</ele>
      </trkpt>
      <trkpt lat="23.854661" lon="120.8416">
        <ele>1291.0</ele>
      </trkpt>
      <trkpt lat="23.854613" lon="120.841588">
        <ele>1290.0</ele>
      </trkpt>
      <trkpt lat="23.854536" lon="120.841505">
        <ele>1289.0</ele>
      </trkpt>
      <trkpt lat="23.854467" lon="120.841398">
        <ele>1288.0</ele>
      </trkpt>
      <trkpt lat="23.854452" lon="120.841304">
        <ele>1288.0</ele>
      </trkpt>
      <trkpt lat="23.854419" lon="120.841224">
        <ele>1287.0</ele>
      </trkpt>
      <trkpt lat="23.854102" lon="120.84117">
        <ele>1284.0</ele>
      </trkpt>
      <trkpt lat="23.853826" lon="120.841186">
        <ele>1283.0</ele>
      </trkpt>
      <trkpt lat="23.853677" lon="120.84116">
        <ele>1282.0</ele>
      </trkpt>
      <trkpt lat="23.853572" lon="120.84118">
        <ele>1282.0</ele>
      </trkpt>
      <trkpt lat="23.853449" lon="120.841245">
        <ele>1282.0</ele>
      </trkpt>
      <trkpt lat="23.853347" lon="120.841275">
        <ele>1282.0</ele>
      </trkpt>
      <trkpt lat="23.853164" lon="120.841265">
        <ele>1280.0</ele>
      </trkpt>
      <trkpt lat="23.852927" lon="120.841179">
        <ele>1277.0</ele>
      </trkpt>
      <trkpt lat="23.852776" lon="120.841097">
        <ele>1274.0</ele>
      </trkpt>
      <trkpt lat="23.852643" lon="120.840949">
        <ele>1269.0</ele>
      </trkpt>
      <trkpt lat="23.852509" lon="120.840879">
        <ele>1265.0</ele>
      </trkpt>
      <trkpt lat="23.852456" lon="120.840893">
        <ele>1265.0</ele>
      </trkpt>
      <trkpt lat="23.852428" lon="120.840942">
        <ele>1266.0</ele>
      </trkpt>
      <trkpt lat="23.852438" lon="120.841022">
        <ele>1268.0</ele>
      </trkpt>
      <trkpt lat="23.852504" lon="120.841185">
        <ele>1273.0</ele>
      </trkpt>
      <trkpt lat="23.85251" lon="120.841274">
        <ele>1276.0</ele>
      </trkpt>
      <trkpt lat="23.85247" lon="120.841313">
        <ele>1276.0</ele>
      </trkpt>
      <trkpt lat="23.852381" lon="120.841315">
        <ele>1273.0</ele>
      </trkpt>
      <trkpt lat="23.852183" lon="120.841169">
        <ele>1265.0</ele>
      </trkpt>
      <trkpt lat="23.851648" lon="120.840933">
        <ele>1251.0</ele>
      </trkpt>
      <trkpt lat="23.851282" lon="120.840604">
        <ele>1239.0</ele>
      </trkpt>
      <trkpt lat="23.851194" lon="120.84047">
        <ele>1236.0</ele>
      </trkpt>
      <trkpt lat="23.851132" lon="120.840425">
        <ele>1234.0</ele>
      </trkpt>
      <trkpt lat="23.851037" lon="120.840427">
        <ele>1231.0</ele>
      </trkpt>
      <trkpt lat="23.850952" lon="120.840452">
        <ele>1229.0</ele>
      </trkpt>
      <trkpt lat="23.850741" lon="120.840578">
        <ele>1224.0</ele>
      </trkpt>
      <trkpt lat="23.850731" lon="120.840621">
        <ele>1224.0</ele>
      </trkpt>
      <trkpt lat="23.850754" lon="120.84069">
        <ele>1226.0</ele>
      </trkpt>
      <trkpt lat="23.85081" lon="120.840713">
        <ele>1228.0</ele>
      </trkpt>
      <trkpt lat="23.851057" lon="120.840708">
        <ele>1235.0</ele>
      </trkpt>
      <trkpt lat="23.851209" lon="120.840786">
        <ele>1240.0</ele>
      </trkpt>
      <trkpt lat="23.851319" lon="120.840883">
        <ele>1243.0</ele>
      </trkpt>
      <trkpt lat="23.851437" lon="120.841027">
        <ele>1246.0</ele>
      </trkpt>
      <trkpt lat="23.851468" lon="120.841095">
        <ele>1247.0</ele>
      </trkpt>
      <trkpt lat="23.851453" lon="120.841166">
        <ele>1247.0</ele>
      </trkpt>
      <trkpt lat="23.851412" lon="120.841187">
        <ele>1246.0</ele>
      </trkpt>
      <trkpt lat="23.851288" lon="120.841189">
        <ele>1243.0</ele>
      </trkpt>
      <trkpt lat="23.851119" lon="120.841116">
        <ele>1238.0</ele>
      </trkpt>
      <trkpt lat="23.850625" lon="120.84112">
        <ele>1223.0</ele>
      </trkpt>
      <trkpt lat="23.850477" lon="120.841143">
        <ele>1218.0</ele>
      </trkpt>
      <trkpt lat="23.850401" lon="120.841187">
        <ele>1216.0</ele>
      </trkpt>
      <trkpt lat="23.850355" lon="120.841264">
        <ele>1215.0</ele>
      </trkpt>
      <trkpt lat="23.850356" lon="120.841383">
        <ele>1216.0</ele>
      </trkpt>
      <trkpt lat="23.850341" lon="120.841437">
        <ele>1216.0</ele>
      </trkpt>
      <trkpt lat="23.850278" lon="120.841504">
        <ele>1215.0</ele>
      </trkpt>
      <trkpt lat="23.850225" lon="120.841506">
        <ele>1214.0</ele>
      </trkpt>
      <trkpt lat="23.850201" lon="120.841408">
        <ele>1212.0</ele>
      </trkpt>
      <trkpt lat="23.850446" lon="120.84094">
        <ele>1216.0</ele>
      </trkpt>
      <trkpt lat="23.850532" lon="120.840696">
        <ele>1216.0</ele>
      </trkpt>
      <trkpt lat="23.850531" lon="120.840642">
        <ele>1216.0</ele>
      </trkpt>
      <trkpt lat="23.850513" lon="120.840614">
        <ele>1214.0</ele>
      </trkpt>
      <trkpt lat="23.850458" lon="120.840631">
        <ele>1212.0</ele>
      </trkpt>
      <trkpt lat="23.850413" lon="120.840846">
        <ele>1213.0</ele>
      </trkpt>
      <trkpt lat="23.850065" lon="120.841435">
        <ele>1208.0</ele>
      </trkpt>
      <trkpt lat="23.850022" lon="120.841641">
        <ele>1210.0</ele>
      </trkpt>
      <trkpt lat="23.849983" lon="120.84166">
        <ele>1209.0</ele>
      </trkpt>
      <trkpt lat="23.849955" lon="120.841643">
        <ele>1208.0</ele>
      </trkpt>
      <trkpt lat="23.849949" lon="120.841572">
        <ele>1206.0</ele>
      </trkpt>
      <trkpt lat="23.850002" lon="120.841416">
        <ele>1206.0</ele>
      </trkpt>
      <trkpt lat="23.850153" lon="120.841157">
        <ele>1207.0</ele>
      </trkpt>
      <trkpt lat="23.850285" lon="120.840861">
        <ele>1208.0</ele>
      </trkpt>
      <trkpt lat="23.850288" lon="120.840661">
        <ele>1205.0</ele>
      </trkpt>
      <trkpt lat="23.850267" lon="120.840584">
        <ele>1203.0</ele>
      </trkpt>
      <trkpt lat="23.850228" lon="120.840581">
        <ele>1202.0</ele>
      </trkpt>
      <trkpt lat="23.850195" lon="120.840599">
        <ele>1200.0</ele>
      </trkpt>
      <trkpt lat="23.850184" lon="120.840644">
        <ele>1201.0</ele>
      </trkpt>
      <trkpt lat="23.85021" lon="120.840846">
        <ele>1205.0</ele>
      </trkpt>
      <trkpt lat="23.850179" lon="120.840934">
        <ele>1205.0</ele>
      </trkpt>
      <trkpt lat="23.850053" lon="120.841122">
        <ele>1203.0</ele>
      </trkpt>
      <trkpt lat="23.849736" lon="120.841572">
        <ele>1196.0</ele>
      </trkpt>
      <trkpt lat="23.8491" lon="120.842199">
        <ele>1173.0</ele>
      </trkpt>
      <trkpt lat="23.849097" lon="120.84226">
        <ele>1173.0</ele>
      </trkpt>
      <trkpt lat="23.849123" lon="120.84233">
        <ele>1175.0</ele>
      </trkpt>
      <trkpt lat="23.849176" lon="120.842357">
        <ele>1178.0</ele>
      </trkpt>
      <trkpt lat="23.849361" lon="120.842364">
        <ele>1176.0</ele>
      </trkpt>
      <trkpt lat="23.849427" lon="120.842333">
        <ele>1175.0</ele>
      </trkpt>
      <trkpt lat="23.849506" lon="120.84234">
        <ele>1174.0</ele>
      </trkpt>
      <trkpt lat="23.849524" lon="120.842399">
        <ele>1173.0</ele>
      </trkpt>
      <trkpt lat="23.849499" lon="120.842461">
        <ele>1172.0</ele>
      </trkpt>
      <trkpt lat="23.849453" lon="120.842487">
        <ele>1173.0</ele>
      </trkpt>
      <trkpt lat="23.849364" lon="120.842504">
        <ele>1174.0</ele>
      </trkpt>
      <trkpt lat="23.849044" lon="120.842494">
        <ele>1173.0</ele>
      </trkpt>
      <trkpt lat="23.849013" lon="120.842449">
        <ele>1171.0</ele>
      </trkpt>
      <trkpt lat="23.848949" lon="120.842147">
        <ele>1165.0</ele>
      </trkpt>
      <trkpt lat="23.848978" lon="120.842086">
        <ele>1166.0</ele>
      </trkpt>
      <trkpt lat="23.849068" lon="120.841981">
        <ele>1169.0</ele>
      </trkpt>
      <trkpt lat="23.849513" lon="120.841504">
        <ele>1185.0</ele>
      </trkpt>
      <trkpt lat="23.849675" lon="120.841249">
        <ele>1188.0</ele>
      </trkpt>
      <trkpt lat="23.849717" lon="120.841092">
        <ele>1187.0</ele>
      </trkpt>
      <trkpt lat="23.849701" lon="120.841029">
        <ele>1185.0</ele>
      </trkpt>
      <trkpt lat="23.849644" lon="120.841014">
        <ele>1182.0</ele>
      </trkpt>
      <trkpt lat="23.849605" lon="120.84104">
        <ele>1180.0</ele>
      </trkpt>
      <trkpt lat="23.849547" lon="120.841251">
        <ele>1182.0</ele>
      </trkpt>
      <trkpt lat="23.849508" lon="120.841325">
        <ele>1181.0</ele>
      </trkpt>
      <trkpt lat="23.848997" lon="120.841722">
        <ele>1163.0</ele>
      </trkpt>
      <trkpt lat="23.848712" lon="120.841874">
        <ele>1149.0</ele>
      </trkpt>
      <trkpt lat="23.848701" lon="120.841952">
        <ele>1149.0</ele>
      </trkpt>
      <trkpt lat="23.848708" lon="120.842235">
        <ele>1154.0</ele>
      </trkpt>
      <trkpt lat="23.848678" lon="120.842475">
        <ele>1155.0</ele>
      </trkpt>
      <trkpt lat="23.848521" lon="120.842921">
        <ele>1140.0</ele>
      </trkpt>
      <trkpt lat="23.84851" lon="120.843054">
        <ele>1137.0</ele>
      </trkpt>
      <trkpt lat="23.848552" lon="120.843157">
        <ele>1136.0</ele>
      </trkpt>
      <trkpt lat="23.84857" lon="120.843252">
        <ele>1135.0</ele>
      </trkpt>
      <trkpt lat="23.848548" lon="120.843298">
        <ele>1133.0</ele>
      </trkpt>
      <trkpt lat="23.848491" lon="120.843323">
        <ele>1132.0</ele>
      </trkpt>
      <trkpt lat="23.848442" lon="120.84331">
        <ele>1132.0</ele>
      </trkpt>
      <trkpt lat="23.848394" lon="120.843271">
        <ele>1132.0</ele>
      </trkpt>
      <trkpt lat="23.848368" lon="120.843182">
        <ele>1132.0</ele>
      </trkpt>
      <trkpt lat="23.848486" lon="120.842631">
        <ele>1144.0</ele>
      </trkpt>
      <trkpt lat="23.848414" lon="120.841652">
        <ele>1129.0</ele>
      </trkpt>
      <trkpt lat="23.848333" lon="120.84132">
        <ele>1118.0</ele>
      </trkpt>
      <trkpt lat="23.848408" lon="120.841125">
        <ele>1118.0</ele>
      </trkpt>
      <trkpt lat="23.848593" lon="120.840982">
        <ele>1126.0</ele>
      </trkpt>
      <trkpt lat="23.848623" lon="120.840913">
        <ele>1126.0</ele>
      </trkpt>
      <trkpt lat="23.848652" lon="120.840615">
        <ele>1122.0</ele>
      </trkpt>
      <trkpt lat="23.848748" lon="120.840449">
        <ele>1125.0</ele>
      </trkpt>
      <trkpt lat="23.848816" lon="120.84016">
        <ele>1124.0</ele>
      </trkpt>
      <trkpt lat="23.848894" lon="120.839972">
        <ele>1125.0</ele>
      </trkpt>
      <trkpt lat="23.848888" lon="120.83992">
        <ele>1123.0</ele>
      </trkpt>
      <trkpt lat="23.848867" lon="120.839902">
        <ele>1122.0</ele>
      </trkpt>
      <trkpt lat="23.84881" lon="120.839908">
        <ele>1119.0</ele>
      </trkpt>
      <trkpt lat="23.848785" lon="120.839943">
        <ele>1118.0</ele>
      </trkpt>
      <trkpt lat="23.848667" lon="120.840388">
        <ele>1120.0</ele>
      </trkpt>
      <trkpt lat="23.848509" lon="120.840535">
        <ele>1113.0</ele>
      </trkpt>
      <trkpt lat="23.84846" lon="120.840765">
        <ele>1114.0</ele>
      </trkpt>
      <trkpt lat="23.848268" lon="120.841036">
        <ele>1108.0</ele>
      </trkpt>
      <trkpt lat="23.848193" lon="120.841287">
        <ele>1108.0</ele>
      </trkpt>
      <trkpt lat="23.848193" lon="120.841508">
        <ele>1113.0</ele>
      </trkpt>
      <trkpt lat="23.848179" lon="120.841575">
        <ele>1113.0</ele>
      </trkpt>
      <trkpt lat="23.848107" lon="120.841696">
        <ele>1111.0</ele>
      </trkpt>
      <trkpt lat="23.848043" lon="120.841757">
        <ele>1108.0</ele>
      </trkpt>
      <trkpt lat="23.847942" lon="120.841977">
        <ele>1104.0</ele>
      </trkpt>
      <trkpt lat="23.847843" lon="120.842484">
        <ele>1104.0</ele>
      </trkpt>
      <trkpt lat="23.847878" lon="120.842791">
        <ele>1106.0</ele>
      </trkpt>
      <trkpt lat="23.847833" lon="120.842946">
        <ele>1103.0</ele>
      </trkpt>
      <trkpt lat="23.847847" lon="120.843103">
        <ele>1104.0</ele>
      </trkpt>
      <trkpt lat="23.847827" lon="120.843234">
        <ele>1103.0</ele>
      </trkpt>
      <trkpt lat="23.847724" lon="120.843621">
        <ele>1090.0</ele>
      </trkpt>
      <trkpt lat="23.847685" lon="120.843675">
        <ele>1087.0</ele>
      </trkpt>
      <trkpt lat="23.847637" lon="120.843693">
        <ele>1084.0</ele>
      </trkpt>
      <trkpt lat="23.847605" lon="120.843678">
        <ele>1083.0</ele>
      </trkpt>
      <trkpt lat="23.847609" lon="120.843614">
        <ele>1085.0</ele>
      </trkpt>
      <trkpt lat="23.847722" lon="120.843232">
        <ele>1097.0</ele>
      </trkpt>
      <trkpt lat="23.847646" lon="120.842323">
        <ele>1088.0</ele>
      </trkpt>
      <trkpt lat="23.847646" lon="120.841859">
        <ele>1083.0</ele>
      </trkpt>
      <trkpt lat="23.84778" lon="120.84148">
        <ele>1086.0</ele>
      </trkpt>
      <trkpt lat="23.847814" lon="120.841243">
        <ele>1084.0</ele>
      </trkpt>
      <trkpt lat="23.847826" lon="120.841044">
        <ele>1081.0</ele>
      </trkpt>
      <trkpt lat="23.847865" lon="120.840879">
        <ele>1081.0</ele>
      </trkpt>
      <trkpt lat="23.847909" lon="120.840776">
        <ele>1082.0</ele>
      </trkpt>
      <trkpt lat="23.847924" lon="120.840617">
        <ele>1081.0</ele>
      </trkpt>
      <trkpt lat="23.847869" lon="120.840509">
        <ele>1076.0</ele>
      </trkpt>
      <trkpt lat="23.84771" lon="120.840369">
        <ele>1066.0</ele>
      </trkpt>
      <trkpt lat="23.847698" lon="120.840299">
        <ele>1064.0</ele>
      </trkpt>
      <trkpt lat="23.847793" lon="120.840092">
        <ele>1067.0</ele>
      </trkpt>
      <trkpt lat="23.84777" lon="120.840056">
        <ele>1066.0</ele>
      </trkpt>
      <trkpt lat="23.847725" lon="120.840048">
        <ele>1063.0</ele>
      </trkpt>
      <trkpt lat="23.847675" lon="120.840078">
        <ele>1061.0</ele>
      </trkpt>
      <trkpt lat="23.847639" lon="120.840152">
        <ele>1060.0</ele>
      </trkpt>
      <trkpt lat="23.847605" lon="120.840362">
        <ele>1060.0</ele>
      </trkpt>
      <trkpt lat="23.847718" lon="120.840582">
        <ele>1068.0</ele>
      </trkpt>
      <trkpt lat="23.847733" lon="120.840666">
        <ele>1070.0</ele>
      </trkpt>
      <trkpt lat="23.847698" lon="120.840856">
        <ele>1070.0</ele>
      </trkpt>
      <trkpt lat="23.847637" lon="120.841072">
        <ele>1070.0</ele>
      </trkpt>
      <trkpt lat="23.847482" lon="120.841396">
        <ele>1066.0</ele>
      </trkpt>
      <trkpt lat="23.847415" lon="120.841586">
        <ele>1067.0</ele>
      </trkpt>
      <trkpt lat="23.847253" lon="120.84184">
        <ele>1064.0</ele>
      </trkpt>
      <trkpt lat="23.847131" lon="120.842102">
        <ele>1061.0</ele>
      </trkpt>
      <trkpt lat="23.84705" lon="120.842541">
        <ele>1061.0</ele>
      </trkpt>
      <trkpt lat="23.846901" lon="120.842686">
        <ele>1056.0</ele>
      </trkpt>
      <trkpt lat="23.846845" lon="120.842272">
        <ele>1051.0</ele>
      </trkpt>
      <trkpt lat="23.846851" lon="120.842026">
        <ele>1050.0</ele>
      </trkpt>
      <trkpt lat="23.846902" lon="120.841877">
        <ele>1051.0</ele>
      </trkpt>
      <trkpt lat="23.846952" lon="120.841787">
        <ele>1052.0</ele>
      </trkpt>
      <trkpt lat="23.84697" lon="120.841706">
        <ele>1052.0</ele>
      </trkpt>
      <trkpt lat="23.846829" lon="120.841746">
        <ele>1047.0</ele>
      </trkpt>
      <trkpt lat="23.84663" lon="120.841716">
        <ele>1040.0</ele>
      </trkpt>
      <trkpt lat="23.846534" lon="120.841767">
        <ele>1038.0</ele>
      </trkpt>
      <trkpt lat="23.84628" lon="120.842007">
        <ele>1032.0</ele>
      </trkpt>
      <trkpt lat="23.846234" lon="120.842091">
        <ele>1030.0</ele>
      </trkpt>
      <trkpt lat="23.846212" lon="120.842208">
        <ele>1030.0</ele>
      </trkpt>
      <trkpt lat="23.846182" lon="120.842261">
        <ele>1029.0</ele>
      </trkpt>
      <trkpt lat="23.846088" lon="120.842309">
        <ele>1026.0</ele>
      </trkpt>
      <trkpt lat="23.845906" lon="120.8425">
        <ele>1019.0</ele>
      </trkpt>
      <trkpt lat="23.845835" lon="120.842554">
        <ele>1017.0</ele>
      </trkpt>
      <trkpt lat="23.845894" lon="120.842412">
        <ele>1019.0</ele>
      </trkpt>
      <trkpt lat="23.845979" lon="120.84228">
        <ele>1022.0</ele>
      </trkpt>
      <trkpt lat="23.845998" lon="120.842198">
        <ele>1023.0</ele>
      </trkpt>
      <trkpt lat="23.845975" lon="120.842132">
        <ele>1023.0</ele>
      </trkpt>
      <trkpt lat="23.845901" lon="120.842059">
        <ele>1021.0</ele>
      </trkpt>
      <trkpt lat="23.845893" lon="120.841826">
        <ele>1021.0</ele>
      </trkpt>
      <trkpt lat="23.84589" lon="120.841749">
        <ele>1021.0</ele>
      </trkpt>
      <trkpt lat="23.845943" lon="120.841598">
        <ele>1022.0</ele>
      </trkpt>
      <trkpt lat="23.845897" lon="120.841568">
        <ele>1021.0</ele>
      </trkpt>
      <trkpt lat="23.845842" lon="120.841567">
        <ele>1019.0</ele>
      </trkpt>
      <trkpt lat="23.845788" lon="120.8416">
        <ele>1018.0</ele>
      </trkpt>
      <trkpt lat="23.845759" lon="120.84165">
        <ele>1018.0</ele>
      </trkpt>
      <trkpt lat="23.84569" lon="120.841861">
        <ele>1016.0</ele>
      </trkpt>
      <trkpt lat="23.845635" lon="120.841946">
        <ele>1014.0</ele>
      </trkpt>
      <trkpt lat="23.845568" lon="120.842019">
        <ele>1013.0</ele>
      </trkpt>
      <trkpt lat="23.845472" lon="120.842068">
        <ele>1010.0</ele>
      </trkpt>
      <trkpt lat="23.845375" lon="120.842074">
        <ele>1008.0</ele>
      </trkpt>
      <trkpt lat="23.845343" lon="120.842051">
        <ele>1007.0</ele>
      </trkpt>
      <trkpt lat="23.845318" lon="120.842">
        <ele>1007.0</ele>
      </trkpt>
      <trkpt lat="23.845289" lon="120.841893">
        <ele>1006.0</ele>
      </trkpt>
      <trkpt lat="23.845287" lon="120.841661">
        <ele>1006.0</ele>
      </trkpt>
      <trkpt lat="23.845274" lon="120.841586">
        <ele>1004.0</ele>
      </trkpt>
      <trkpt lat="23.845112" lon="120.841375">
        <ele>998.0</ele>
      </trkpt>
      <trkpt lat="23.845036" lon="120.841313">
        <ele>996.0</ele>
      </trkpt>
      <trkpt lat="23.844907" lon="120.841168">
        <ele>991.0</ele>
      </trkpt>
      <trkpt lat="23.844338" lon="120.840987">
        <ele>978.0</ele>
      </trkpt>
      <trkpt lat="23.844258" lon="120.841099">
        <ele>977.0</ele>
      </trkpt>
      <trkpt lat="23.844109" lon="120.841391">
        <ele>976.0</ele>
      </trkpt>
      <trkpt lat="23.843995" lon="120.841531">
        <ele>973.0</ele>
      </trkpt>
      <trkpt lat="23.843846" lon="120.841885">
        <ele>970.0</ele>
      </trkpt>
      <trkpt lat="23.843847" lon="120.84197">
        <ele>970.0</ele>
      </trkpt>
      <trkpt lat="23.843954" lon="120.842217">
        <ele>973.0</ele>
      </trkpt>
      <trkpt lat="23.843947" lon="120.842286">
        <ele>973.0</ele>
      </trkpt>
      <trkpt lat="23.843704" lon="120.842451">
        <ele>967.0</ele>
      </trkpt>
      <trkpt lat="23.843613" lon="120.842569">
        <ele>966.0</ele>
      </trkpt>
      <trkpt lat="23.843556" lon="120.842765">
        <ele>967.0</ele>
      </trkpt>
      <trkpt lat="23.843545" lon="120.843224">
        <ele>974.0</ele>
      </trkpt>
      <trkpt lat="23.84348" lon="120.843268">
        <ele>974.0</ele>
      </trkpt>
      <trkpt lat="23.843154" lon="120.843349">
        <ele>970.0</ele>
      </trkpt>
      <trkpt lat="23.842901" lon="120.843294">
        <ele>964.0</ele>
      </trkpt>
      <trkpt lat="23.842796" lon="120.84331">
        <ele>963.0</ele>
      </trkpt>
      <trkpt lat="23.842524" lon="120.843243">
        <ele>956.0</ele>
      </trkpt>
      <trkpt lat="23.842407" lon="120.843278">
        <ele>954.0</ele>
      </trkpt>
      <trkpt lat="23.842314" lon="120.843368">
        <ele>954.0</ele>
      </trkpt>
      <trkpt lat="23.842264" lon="120.843597">
        <ele>961.0</ele>
      </trkpt>
      <trkpt lat="23.842137" lon="120.843714">
        <ele>961.0</ele>
      </trkpt>
      <trkpt lat="23.842063" lon="120.843731">
        <ele>960.0</ele>
      </trkpt>
      <trkpt lat="23.841807" lon="120.843719">
        <ele>953.0</ele>
      </trkpt>
      <trkpt lat="23.841593" lon="120.843683">
        <ele>947.0</ele>
      </trkpt>
      <trkpt lat="23.841509" lon="120.843699">
        <ele>945.0</ele>
      </trkpt>
      <trkpt lat="23.841425" lon="120.843734">
        <ele>944.0</ele>
      </trkpt>
      <trkpt lat="23.841368" lon="120.843801">
        <ele>945.0</ele>
      </trkpt>
      <trkpt lat="23.84126" lon="120.843982">
        <ele>948.0</ele>
      </trkpt>
      <trkpt lat="23.84115" lon="120.844004">
        <ele>946.0</ele>
      </trkpt>
      <trkpt lat="23.840734" lon="120.843976">
        <ele>936.0</ele>
      </trkpt>
      <trkpt lat="23.840598" lon="120.843992">
        <ele>935.0</ele>
      </trkpt>
      <trkpt lat="23.840502" lon="120.844051">
        <ele>936.0</ele>
      </trkpt>
      <trkpt lat="23.840464" lon="120.844124">
        <ele>939.0</ele>
      </trkpt>
      <trkpt lat="23.840456" lon="120.844296">
        <ele>943.0</ele>
      </trkpt>
      <trkpt lat="23.840406" lon="120.84435">
        <ele>944.0</ele>
      </trkpt>
      <trkpt lat="23.840336" lon="120.844337">
        <ele>943.0</ele>
      </trkpt>
      <trkpt lat="23.840273" lon="120.844289">
        <ele>942.0</ele>
      </trkpt>
      <trkpt lat="23.840178" lon="120.844173">
        <ele>938.0</ele>
      </trkpt>
      <trkpt lat="23.840113" lon="120.844127">
        <ele>936.0</ele>
      </trkpt>
      <trkpt lat="23.839905" lon="120.844091">
        <ele>933.0</ele>
      </trkpt>
      <trkpt lat="23.839835" lon="120.844106">
        <ele>934.0</ele>
      </trkpt>
      <trkpt lat="23.839802" lon="120.844075">
        <ele>933.0</ele>
      </trkpt>
      <trkpt lat="23.839809" lon="120.844001">
        <ele>930.0</ele>
      </trkpt>
      <trkpt lat="23.839847" lon="120.843947">
        <ele>928.0</ele>
      </trkpt>
      <trkpt lat="23.83991" lon="120.843935">
        <ele>928.0</ele>
      </trkpt>
      <trkpt lat="23.840137" lon="120.843995">
        <ele>931.0</ele>
      </trkpt>
      <trkpt lat="23.840282" lon="120.844099">
        <ele>936.0</ele>
      </trkpt>
      <trkpt lat="23.840339" lon="120.844085">
        <ele>936.0</ele>
      </trkpt>
      <trkpt lat="23.840372" lon="120.844044">
        <ele>935.0</ele>
      </trkpt>
      <trkpt lat="23.840396" lon="120.843925">
        <ele>931.0</ele>
      </trkpt>
      <trkpt lat="23.840716" lon="120.843658">
        <ele>924.0</ele>
      </trkpt>
      <trkpt lat="23.840976" lon="120.843668">
        <ele>929.0</ele>
      </trkpt>
      <trkpt lat="23.841049" lon="120.843652">
        <ele>930.0</ele>
      </trkpt>
      <trkpt lat="23.841244" lon="120.843516">
        <ele>931.0</ele>
      </trkpt>
      <trkpt lat="23.84135" lon="120.843368">
        <ele>929.0</ele>
      </trkpt>
      <trkpt lat="23.841457" lon="120.843256">
        <ele>929.0</ele>
      </trkpt>
      <trkpt lat="23.841498" lon="120.843157">
        <ele>928.0</ele>
      </trkpt>
      <trkpt lat="23.841514" lon="120.843024">
        <ele>925.0</ele>
      </trkpt>
      <trkpt lat="23.841509" lon="120.842888">
        <ele>921.0</ele>
      </trkpt>
      <trkpt lat="23.841457" lon="120.842743">
        <ele>916.0</ele>
      </trkpt>
      <trkpt lat="23.841434" lon="120.842576">
        <ele>911.0</ele>
      </trkpt>
      <trkpt lat="23.841441" lon="120.842441">
        <ele>909.0</ele>
      </trkpt>
      <trkpt lat="23.841649" lon="120.842174">
        <ele>913.0</ele>
      </trkpt>
      <trkpt lat="23.841708" lon="120.842072">
        <ele>913.0</ele>
      </trkpt>
      <trkpt lat="23.84172" lon="120.841903">
        <ele>911.0</ele>
      </trkpt>
      <trkpt lat="23.841637" lon="120.841743">
        <ele>907.0</ele>
      </trkpt>
      <trkpt lat="23.841589" lon="120.84172">
        <ele>906.0</ele>
      </trkpt>
      <trkpt lat="23.841533" lon="120.84173">
        <ele>905.0</ele>
      </trkpt>
      <trkpt lat="23.84147" lon="120.841789">
        <ele>904.0</ele>
      </trkpt>
      <trkpt lat="23.841394" lon="120.841985">
        <ele>903.0</ele>
      </trkpt>
      <trkpt lat="23.841256" lon="120.842248">
        <ele>901.0</ele>
      </trkpt>
      <trkpt lat="23.841169" lon="120.842571">
        <ele>902.0</ele>
      </trkpt>
      <trkpt lat="23.841148" lon="120.842606">
        <ele>902.0</ele>
      </trkpt>
      <trkpt lat="23.841099" lon="120.842606">
        <ele>900.0</ele>
      </trkpt>
      <trkpt lat="23.841065" lon="120.842573">
        <ele>898.0</ele>
      </trkpt>
      <trkpt lat="23.840974" lon="120.842115">
        <ele>892.0</ele>
      </trkpt>
      <trkpt lat="23.840929" lon="120.841791">
        <ele>890.0</ele>
      </trkpt>
      <trkpt lat="23.840929" lon="120.841654">
        <ele>890.0</ele>
      </trkpt>
      <trkpt lat="23.841113" lon="120.841372">
        <ele>894.0</ele>
      </trkpt>
      <trkpt lat="23.841213" lon="120.841258">
        <ele>895.0</ele>
      </trkpt>
      <trkpt lat="23.841238" lon="120.841203">
        <ele>895.0</ele>
      </trkpt>
      <trkpt lat="23.84123" lon="120.841127">
        <ele>894.0</ele>
      </trkpt>
      <trkpt lat="23.841174" lon="120.841064">
        <ele>893.0</ele>
      </trkpt>
      <trkpt lat="23.841079" lon="120.841021">
        <ele>892.0</ele>
      </trkpt>
      <trkpt lat="23.84088" lon="120.841034">
        <ele>890.0</ele>
      </trkpt>
      <trkpt lat="23.840787" lon="120.841074">
        <ele>889.0</ele>
      </trkpt>
      <trkpt lat="23.840692" lon="120.841162">
        <ele>887.0</ele>
      </trkpt>
      <trkpt lat="23.84041" lon="120.841509">
        <ele>882.0</ele>
      </trkpt>
      <trkpt lat="23.840294" lon="120.841567">
        <ele>880.0</ele>
      </trkpt>
      <trkpt lat="23.840137" lon="120.8416">
        <ele>878.0</ele>
      </trkpt>
      <trkpt lat="23.840017" lon="120.841578">
        <ele>876.0</ele>
      </trkpt>
      <trkpt lat="23.839982" lon="120.841529">
        <ele>876.0</ele>
      </trkpt>
      <trkpt lat="23.839887" lon="120.841174">
        <ele>876.0</ele>
      </trkpt>
      <trkpt lat="23.839869" lon="120.840869">
        <ele>877.0</ele>
      </trkpt>
      <trkpt lat="23.839819" lon="120.840599">
        <ele>870.0</ele>
      </trkpt>
      <trkpt lat="23.839955" lon="120.840141">
        <ele>863.0</ele>
      </trkpt>
      <trkpt lat="23.839989" lon="120.840064">
        <ele>863.0</ele>
      </trkpt>
      <trkpt lat="23.839989" lon="120.840064">
        <ele>863.0</ele>
      </trkpt>
      <trkpt lat="23.84004" lon="120.840001">
        <ele>862.0</ele>
      </trkpt>
      <trkpt lat="23.840152" lon="120.839984">
        <ele>862.0</ele>
      </trkpt>
      <trkpt lat="23.840343" lon="120.84001">
        <ele>865.0</ele>
      </trkpt>
      <trkpt lat="23.840755" lon="120.839974">
        <ele>867.0</ele>
      </trkpt>
      <trkpt lat="23.841024" lon="120.84">
        <ele>871.0</ele>
      </trkpt>
      <trkpt lat="23.841227" lon="120.839881">
        <ele>868.0</ele>
      </trkpt>
      <trkpt lat="23.841506" lon="120.839808">
        <ele>868.0</ele>
      </trkpt>
      <trkpt lat="23.841656" lon="120.839669">
        <ele>866.0</ele>
      </trkpt>
      <trkpt lat="23.841882" lon="120.839601">
        <ele>869.0</ele>
      </trkpt>
      <trkpt lat="23.841963" lon="120.839539">
        <ele>869.0</ele>
      </trkpt>
      <trkpt lat="23.842019" lon="120.83927">
        <ele>862.0</ele>
      </trkpt>
      <trkpt lat="23.842053" lon="120.839199">
        <ele>861.0</ele>
      </trkpt>
      <trkpt lat="23.842317" lon="120.838996">
        <ele>865.0</ele>
      </trkpt>
      <trkpt lat="23.842359" lon="120.838945">
        <ele>865.0</ele>
      </trkpt>
      <trkpt lat="23.842385" lon="120.838854">
        <ele>864.0</ele>
      </trkpt>
      <trkpt lat="23.842348" lon="120.838506">
        <ele>858.0</ele>
      </trkpt>
      <trkpt lat="23.842373" lon="120.838434">
        <ele>858.0</ele>
      </trkpt>
      <trkpt lat="23.842491" lon="120.838292">
        <ele>859.0</ele>
      </trkpt>
      <trkpt lat="23.842539" lon="120.838204">
        <ele>859.0</ele>
      </trkpt>
      <trkpt lat="23.842555" lon="120.837995">
        <ele>856.0</ele>
      </trkpt>
      <trkpt lat="23.842583" lon="120.837875">
        <ele>855.0</ele>
      </trkpt>
      <trkpt lat="23.842681" lon="120.837743">
        <ele>854.0</ele>
      </trkpt>
      <trkpt lat="23.842823" lon="120.837618">
        <ele>853.0</ele>
      </trkpt>
      <trkpt lat="23.842899" lon="120.837583">
        <ele>853.0</ele>
      </trkpt>
      <trkpt lat="23.842969" lon="120.837592">
        <ele>854.0</ele>
      </trkpt>
      <trkpt lat="23.843061" lon="120.837639">
        <ele>856.0</ele>
      </trkpt>
      <trkpt lat="23.843162" lon="120.837801">
        <ele>861.0</ele>
      </trkpt>
      <trkpt lat="23.843506" lon="120.83792">
        <ele>867.0</ele>
      </trkpt>
      <trkpt lat="23.84364" lon="120.837931">
        <ele>867.0</ele>
      </trkpt>
      <trkpt lat="23.843769" lon="120.837906">
        <ele>866.0</ele>
      </trkpt>
      <trkpt lat="23.843839" lon="120.837865">
        <ele>865.0</ele>
      </trkpt>
      <trkpt lat="23.843863" lon="120.837787">
        <ele>862.0</ele>
      </trkpt>
      <trkpt lat="23.843813" lon="120.837458">
        <ele>853.0</ele>
      </trkpt>
      <trkpt lat="23.843767" lon="120.837356">
        <ele>852.0</ele>
      </trkpt>
      <trkpt lat="23.843756" lon="120.837099">
        <ele>849.0</ele>
      </trkpt>
      <trkpt lat="23.843783" lon="120.836947">
        <ele>847.0</ele>
      </trkpt>
      <trkpt lat="23.843808" lon="120.836618">
        <ele>841.0</ele>
      </trkpt>
      <trkpt lat="23.843643" lon="120.836446">
        <ele>839.0</ele>
      </trkpt>
      <trkpt lat="23.843584" lon="120.836358">
        <ele>838.0</ele>
      </trkpt>
      <trkpt lat="23.843489" lon="120.836052">
        <ele>832.0</ele>
      </trkpt>
      <trkpt lat="23.843213" lon="120.835702">
        <ele>826.0</ele>
      </trkpt>
      <trkpt lat="23.843152" lon="120.835682">
        <ele>826.0</ele>
      </trkpt>
      <trkpt lat="23.842916" lon="120.835694">
        <ele>828.0</ele>
      </trkpt>
      <trkpt lat="23.842763" lon="120.835634">
        <ele>826.0</ele>
      </trkpt>
      <trkpt lat="23.842635" lon="120.835544">
        <ele>823.0</ele>
      </trkpt>
      <trkpt lat="23.842465" lon="120.835331">
        <ele>812.0</ele>
      </trkpt>
      <trkpt lat="23.842429" lon="120.835302">
        <ele>810.0</ele>
      </trkpt>
      <trkpt lat="23.842364" lon="120.835291">
        <ele>808.0</ele>
      </trkpt>
      <trkpt lat="23.842291" lon="120.835335">
        <ele>807.0</ele>
      </trkpt>
      <trkpt lat="23.841741" lon="120.836275">
        <ele>809.0</ele>
      </trkpt>
      <trkpt lat="23.841616" lon="120.836432">
        <ele>806.0</ele>
      </trkpt>
      <trkpt lat="23.841584" lon="120.836503">
        <ele>806.0</ele>
      </trkpt>
      <trkpt lat="23.841654" lon="120.837059">
        <ele>818.0</ele>
      </trkpt>
      <trkpt lat="23.84156" lon="120.837188">
        <ele>816.0</ele>
      </trkpt>
      <trkpt lat="23.841367" lon="120.837351">
        <ele>809.0</ele>
      </trkpt>
      <trkpt lat="23.841224" lon="120.83765">
        <ele>807.0</ele>
      </trkpt>
      <trkpt lat="23.841144" lon="120.837733">
        <ele>806.0</ele>
      </trkpt>
      <trkpt lat="23.841094" lon="120.837733">
        <ele>804.0</ele>
      </trkpt>
      <trkpt lat="23.841057" lon="120.837693">
        <ele>801.0</ele>
      </trkpt>
      <trkpt lat="23.840998" lon="120.837448">
        <ele>794.0</ele>
      </trkpt>
      <trkpt lat="23.841013" lon="120.837201">
        <ele>792.0</ele>
      </trkpt>
      <trkpt lat="23.841049" lon="120.83713">
        <ele>792.0</ele>
      </trkpt>
      <trkpt lat="23.841226" lon="120.837007">
        <ele>799.0</ele>
      </trkpt>
      <trkpt lat="23.841294" lon="120.836932">
        <ele>801.0</ele>
      </trkpt>
      <trkpt lat="23.841317" lon="120.836876">
        <ele>801.0</ele>
      </trkpt>
      <trkpt lat="23.841314" lon="120.836776">
        <ele>800.0</ele>
      </trkpt>
      <trkpt lat="23.841241" lon="120.836469">
        <ele>790.0</ele>
      </trkpt>
      <trkpt lat="23.84126" lon="120.836386">
        <ele>788.0</ele>
      </trkpt>
      <trkpt lat="23.841594" lon="120.835589">
        <ele>788.0</ele>
      </trkpt>
      <trkpt lat="23.841652" lon="120.835315">
        <ele>786.0</ele>
      </trkpt>
      <trkpt lat="23.841734" lon="120.8351">
        <ele>785.0</ele>
      </trkpt>
      <trkpt lat="23.841965" lon="120.834727">
        <ele>778.0</ele>
      </trkpt>
      <trkpt lat="23.841972" lon="120.834687">
        <ele>777.0</ele>
      </trkpt>
      <trkpt lat="23.841963" lon="120.834644">
        <ele>775.0</ele>
      </trkpt>
      <trkpt lat="23.841919" lon="120.834616">
        <ele>773.0</ele>
      </trkpt>
      <trkpt lat="23.841876" lon="120.834609">
        <ele>773.0</ele>
      </trkpt>
      <trkpt lat="23.84182" lon="120.83464">
        <ele>773.0</ele>
      </trkpt>
      <trkpt lat="23.841661" lon="120.834824">
        <ele>776.0</ele>
      </trkpt>
      <trkpt lat="23.841455" lon="120.83515">
        <ele>770.0</ele>
      </trkpt>
      <trkpt lat="23.841137" lon="120.835791">
        <ele>765.0</ele>
      </trkpt>
      <trkpt lat="23.84081" lon="120.836258">
        <ele>763.0</ele>
      </trkpt>
      <trkpt lat="23.840732" lon="120.836413">
        <ele>764.0</ele>
      </trkpt>
      <trkpt lat="23.840676" lon="120.836457">
        <ele>762.0</ele>
      </trkpt>
      <trkpt lat="23.840611" lon="120.836463">
        <ele>759.0</ele>
      </trkpt>
      <trkpt lat="23.840573" lon="120.83644">
        <ele>756.0</ele>
      </trkpt>
      <trkpt lat="23.840561" lon="120.83636">
        <ele>753.0</ele>
      </trkpt>
      <trkpt lat="23.840585" lon="120.836293">
        <ele>752.0</ele>
      </trkpt>
      <trkpt lat="23.840829" lon="120.836024">
        <ele>755.0</ele>
      </trkpt>
      <trkpt lat="23.840976" lon="120.835718">
        <ele>754.0</ele>
      </trkpt>
      <trkpt lat="23.841104" lon="120.834929">
        <ele>742.0</ele>
      </trkpt>
      <trkpt lat="23.841132" lon="120.834535">
        <ele>738.0</ele>
      </trkpt>
      <trkpt lat="23.841253" lon="120.833935">
        <ele>731.0</ele>
      </trkpt>
      <trkpt lat="23.841293" lon="120.833838">
        <ele>729.0</ele>
      </trkpt>
      <trkpt lat="23.841367" lon="120.833758">
        <ele>729.0</ele>
      </trkpt>
      <trkpt lat="23.841617" lon="120.833627">
        <ele>732.0</ele>
      </trkpt>
      <trkpt lat="23.841644" lon="120.833571">
        <ele>731.0</ele>
      </trkpt>
      <trkpt lat="23.841609" lon="120.833518">
        <ele>727.0</ele>
      </trkpt>
      <trkpt lat="23.841412" lon="120.83349">
        <ele>721.0</ele>
      </trkpt>
      <trkpt lat="23.841264" lon="120.833527">
        <ele>719.0</ele>
      </trkpt>
      <trkpt lat="23.84117" lon="120.833701">
        <ele>721.0</ele>
      </trkpt>
      <trkpt lat="23.841073" lon="120.834111">
        <ele>728.0</ele>
      </trkpt>
      <trkpt lat="23.840821" lon="120.834626">
        <ele>721.0</ele>
      </trkpt>
      <trkpt lat="23.840601" lon="120.83515">
        <ele>717.0</ele>
      </trkpt>
      <trkpt lat="23.840475" lon="120.835597">
        <ele>722.0</ele>
      </trkpt>
      <trkpt lat="23.840393" lon="120.835732">
        <ele>722.0</ele>
      </trkpt>
      <trkpt lat="23.840238" lon="120.835888">
        <ele>718.0</ele>
      </trkpt>
      <trkpt lat="23.840143" lon="120.835891">
        <ele>712.0</ele>
      </trkpt>
      <trkpt lat="23.840128" lon="120.835822">
        <ele>709.0</ele>
      </trkpt>
      <trkpt lat="23.840152" lon="120.83577">
        <ele>709.0</ele>
      </trkpt>
      <trkpt lat="23.840324" lon="120.835627">
        <ele>715.0</ele>
      </trkpt>
      <trkpt lat="23.840356" lon="120.835546">
        <ele>715.0</ele>
      </trkpt>
      <trkpt lat="23.840356" lon="120.835439">
        <ele>712.0</ele>
      </trkpt>
      <trkpt lat="23.840388" lon="120.835305">
        <ele>710.0</ele>
      </trkpt>
      <trkpt lat="23.840451" lon="120.835161">
        <ele>710.0</ele>
      </trkpt>
      <trkpt lat="23.840493" lon="120.835014">
        <ele>708.0</ele>
      </trkpt>
      <trkpt lat="23.840516" lon="120.834797">
        <ele>706.0</ele>
      </trkpt>
      <trkpt lat="23.840471" lon="120.834563">
        <ele>701.0</ele>
      </trkpt>
      <trkpt lat="23.840464" lon="120.834376">
        <ele>698.0</ele>
      </trkpt>
      <trkpt lat="23.840537" lon="120.834068">
        <ele>699.0</ele>
      </trkpt>
      <trkpt lat="23.84051" lon="120.833967">
        <ele>696.0</ele>
      </trkpt>
      <trkpt lat="23.8404" lon="120.833789">
        <ele>687.0</ele>
      </trkpt>
      <trkpt lat="23.840353" lon="120.833603">
        <ele>683.0</ele>
      </trkpt>
      <trkpt lat="23.840321" lon="120.832903">
        <ele>673.0</ele>
      </trkpt>
      <trkpt lat="23.840365" lon="120.832852">
        <ele>673.0</ele>
      </trkpt>
      <trkpt lat="23.84046" lon="120.832809">
        <ele>676.0</ele>
      </trkpt>
      <trkpt lat="23.840623" lon="120.832797">
        <ele>681.0</ele>
      </trkpt>
      <trkpt lat="23.840908" lon="120.832898">
        <ele>691.0</ele>
      </trkpt>
      <trkpt lat="23.841532" lon="120.832872">
        <ele>694.0</ele>
      </trkpt>
      <trkpt lat="23.841984" lon="120.832893">
        <ele>690.0</ele>
      </trkpt>
      <trkpt lat="23.842449" lon="120.83309">
        <ele>692.0</ele>
      </trkpt>
      <trkpt lat="23.842608" lon="120.833117">
        <ele>693.0</ele>
      </trkpt>
      <trkpt lat="23.842703" lon="120.833061">
        <ele>691.0</ele>
      </trkpt>
      <trkpt lat="23.842768" lon="120.832895">
        <ele>683.0</ele>
      </trkpt>
      <trkpt lat="23.842853" lon="120.832783">
        <ele>678.0</ele>
      </trkpt>
      <trkpt lat="23.843118" lon="120.832649">
        <ele>675.0</ele>
      </trkpt>
      <trkpt lat="23.843457" lon="120.832558">
        <ele>673.0</ele>
      </trkpt>
      <trkpt lat="23.843583" lon="120.83249">
        <ele>671.0</ele>
      </trkpt>
      <trkpt lat="23.843811" lon="120.832239">
        <ele>674.0</ele>
      </trkpt>
      <trkpt lat="23.843878" lon="120.832137">
        <ele>675.0</ele>
      </trkpt>
      <trkpt lat="23.843882" lon="120.832113">
        <ele>675.0</ele>
      </trkpt>
      <trkpt lat="23.843822" lon="120.831934">
        <ele>675.0</ele>
      </trkpt>
      <trkpt lat="23.843684" lon="120.831871">
        <ele>673.0</ele>
      </trkpt>
      <trkpt lat="23.843558" lon="120.831751">
        <ele>671.0</ele>
      </trkpt>
      <trkpt lat="23.843414" lon="120.831656">
        <ele>668.0</ele>
      </trkpt>
      <trkpt lat="23.842849" lon="120.831504">
        <ele>658.0</ele>
      </trkpt>
      <trkpt lat="23.842258" lon="120.831463">
        <ele>642.0</ele>
      </trkpt>
      <trkpt lat="23.842119" lon="120.831396">
        <ele>640.0</ele>
      </trkpt>
      <trkpt lat="23.842035" lon="120.831316">
        <ele>639.0</ele>
      </trkpt>
      <trkpt lat="23.841909" lon="120.831126">
        <ele>641.0</ele>
      </trkpt>
      <trkpt lat="23.841841" lon="120.831063">
        <ele>640.0</ele>
      </trkpt>
      <trkpt lat="23.841698" lon="120.830942">
        <ele>639.0</ele>
      </trkpt>
      <trkpt lat="23.841612" lon="120.830827">
        <ele>640.0</ele>
      </trkpt>
      <trkpt lat="23.841567" lon="120.83073">
        <ele>640.0</ele>
      </trkpt>
      <trkpt lat="23.841493" lon="120.830663">
        <ele>640.0</ele>
      </trkpt>
      <trkpt lat="23.841431" lon="120.830627">
        <ele>639.0</ele>
      </trkpt>
      <trkpt lat="23.841344" lon="120.830631">
        <ele>636.0</ele>
      </trkpt>
      <trkpt lat="23.841118" lon="120.830692">
        <ele>628.0</ele>
      </trkpt>
      <trkpt lat="23.840903" lon="120.830653">
        <ele>623.0</ele>
      </trkpt>
      <trkpt lat="23.840772" lon="120.830585">
        <ele>620.0</ele>
      </trkpt>
      <trkpt lat="23.840535" lon="120.830406">
        <ele>617.0</ele>
      </trkpt>
      <trkpt lat="23.840493" lon="120.83026">
        <ele>619.0</ele>
      </trkpt>
      <trkpt lat="23.840416" lon="120.830171">
        <ele>618.0</ele>
      </trkpt>
      <trkpt lat="23.840314" lon="120.83011">
        <ele>616.0</ele>
      </trkpt>
      <trkpt lat="23.840109" lon="120.830082">
        <ele>611.0</ele>
      </trkpt>
      <trkpt lat="23.840012" lon="120.829984">
        <ele>610.0</ele>
      </trkpt>
      <trkpt lat="23.839902" lon="120.829964">
        <ele>607.0</ele>
      </trkpt>
      <trkpt lat="23.83983" lon="120.829989">
        <ele>605.0</ele>
      </trkpt>
      <trkpt lat="23.839549" lon="120.829975">
        <ele>599.0</ele>
      </trkpt>
      <trkpt lat="23.839301" lon="120.830118">
        <ele>589.0</ele>
      </trkpt>
      <trkpt lat="23.839168" lon="120.830178">
        <ele>584.0</ele>
      </trkpt>
      <trkpt lat="23.839049" lon="120.830206">
        <ele>579.0</ele>
      </trkpt>
      <trkpt lat="23.838967" lon="120.830174">
        <ele>577.0</ele>
      </trkpt>
      <trkpt lat="23.838868" lon="120.830048">
        <ele>576.0</ele>
      </trkpt>
      <trkpt lat="23.838772" lon="120.829813">
        <ele>575.0</ele>
      </trkpt>
      <trkpt lat="23.838629" lon="120.829547">
        <ele>573.0</ele>
      </trkpt>
      <trkpt lat="23.83858" lon="120.829492">
        <ele>572.0</ele>
      </trkpt>
      <trkpt lat="23.838526" lon="120.829565">
        <ele>569.0</ele>
      </trkpt>
      <trkpt lat="23.83851" lon="120.82964">
        <ele>567.0</ele>
      </trkpt>
      <trkpt lat="23.838527" lon="120.830021">
        <ele>563.0</ele>
      </trkpt>
      <trkpt lat="23.838661" lon="120.830512">
        <ele>563.0</ele>
      </trkpt>
      <trkpt lat="23.838658" lon="120.830586">
        <ele>562.0</ele>
      </trkpt>
      <trkpt lat="23.838597" lon="120.830597">
        <ele>560.0</ele>
      </trkpt>
      <trkpt lat="23.838273" lon="120.830491">
        <ele>554.0</ele>
      </trkpt>
      <trkpt lat="23.838002" lon="120.830315">
        <ele>550.0</ele>
      </trkpt>
      <trkpt lat="23.83769" lon="120.83021">
        <ele>543.0</ele>
      </trkpt>
      <trkpt lat="23.837399" lon="120.829995">
        <ele>533.0</ele>
      </trkpt>
      <trkpt lat="23.836957" lon="120.829773">
        <ele>528.0</ele>
      </trkpt>
      <trkpt lat="23.836867" lon="120.829649">
        <ele>527.0</ele>
      </trkpt>
      <trkpt lat="23.836696" lon="120.829569">
        <ele>524.0</ele>
      </trkpt>
      <trkpt lat="23.836528" lon="120.829515">
        <ele>521.0</ele>
      </trkpt>
      <trkpt lat="23.836315" lon="120.829371">
        <ele>517.0</ele>
      </trkpt>
      <trkpt lat="23.835847" lon="120.829246">
        <ele>508.0</ele>
      </trkpt>
      <trkpt lat="23.835613" lon="120.828999">
        <ele>504.0</ele>
      </trkpt>
      <trkpt lat="23.835482" lon="120.82895">
        <ele>502.0</ele>
      </trkpt>
      <trkpt lat="23.835323" lon="120.828985">
        <ele>501.0</ele>
      </trkpt>
      <trkpt lat="23.835058" lon="120.828986">
        <ele>498.0</ele>
      </trkpt>
      <trkpt lat="23.834934" lon="120.829028">
        <ele>497.0</ele>
      </trkpt>
      <trkpt lat="23.8348" lon="120.82911">
        <ele>499.0</ele>
      </trkpt>
      <trkpt lat="23.834738" lon="120.829132">
        <ele>499.0</ele>
      </trkpt>
      <trkpt lat="23.834661" lon="120.829118">
        <ele>499.0</ele>
      </trkpt>
      <trkpt lat="23.834198" lon="120.82869">
        <ele>493.0</ele>
      </trkpt>
      <trkpt lat="23.833858" lon="120.828471">
        <ele>491.0</ele>
      </trkpt>
      <trkpt lat="23.833858" lon="120.828471">
        <ele>491.0</ele>
      </trkpt>
      <trkpt lat="23.833816" lon="120.828444">
        <ele>491.0</ele>
      </trkpt>
      <trkpt lat="23.83373" lon="120.828341">
        <ele>491.0</ele>
      </trkpt>
      <trkpt lat="23.833597" lon="120.828094">
        <ele>489.0</ele>
      </trkpt>
      <trkpt lat="23.833408" lon="120.827789">
        <ele>488.0</ele>
      </trkpt>
      <trkpt lat="23.833124" lon="120.827405">
        <ele>481.0</ele>
      </trkpt>
      <trkpt lat="23.832998" lon="120.827288">
        <ele>479.0</ele>
      </trkpt>
      <trkpt lat="23.832871" lon="120.827131">
        <ele>477.0</ele>
      </trkpt>
      <trkpt lat="23.832802" lon="120.826946">
        <ele>478.0</ele>
      </trkpt>
      <trkpt lat="23.832756" lon="120.826564">
        <ele>480.0</ele>
      </trkpt>
      <trkpt lat="23.83283" lon="120.825727">
        <ele>481.0</ele>
      </trkpt>
      <trkpt lat="23.832901" lon="120.825416">
        <ele>473.0</ele>
      </trkpt>
      <trkpt lat="23.832885" lon="120.825177">
        <ele>470.0</ele>
      </trkpt>
      <trkpt lat="23.832742" lon="120.824945">
        <ele>472.0</ele>
      </trkpt>
      <trkpt lat="23.832677" lon="120.824383">
        <ele>462.0</ele>
      </trkpt>
      <trkpt lat="23.832644" lon="120.824347">
        <ele>462.0</ele>
      </trkpt>
      <trkpt lat="23.832549" lon="120.82435">
        <ele>466.0</ele>
      </trkpt>
      <trkpt lat="23.832401" lon="120.824226">
        <ele>466.0</ele>
      </trkpt>
      <trkpt lat="23.832315" lon="120.824108">
        <ele>465.0</ele>
      </trkpt>
      <trkpt lat="23.832191" lon="120.823846">
        <ele>462.0</ele>
      </trkpt>
      <trkpt lat="23.832144" lon="120.823681">
        <ele>460.0</ele>
      </trkpt>
      <trkpt lat="23.832173" lon="120.823266">
        <ele>452.0</ele>
      </trkpt>
      <trkpt lat="23.832055" lon="120.822947">
        <ele>450.0</ele>
      </trkpt>
      <trkpt lat="23.831833" lon="120.822429">
        <ele>448.0</ele>
      </trkpt>
      <trkpt lat="23.831779" lon="120.822313">
        <ele>447.0</ele>
      </trkpt>
      <trkpt lat="23.831717" lon="120.822179">
        <ele>446.0</ele>
      </trkpt>
      <trkpt lat="23.831609" lon="120.822124">
        <ele>447.0</ele>
      </trkpt>
      <trkpt lat="23.831452" lon="120.822169">
        <ele>448.0</ele>
      </trkpt>
      <trkpt lat="23.831376" lon="120.822166">
        <ele>448.0</ele>
      </trkpt>
      <trkpt lat="23.830903" lon="120.821863">
        <ele>445.0</ele>
      </trkpt>
      <trkpt lat="23.830856" lon="120.821854">
        <ele>445.0</ele>
      </trkpt>
      <trkpt lat="23.830779" lon="120.821867">
        <ele>445.0</ele>
      </trkpt>
      <trkpt lat="23.830542" lon="120.822079">
        <ele>444.0</ele>
      </trkpt>
      <trkpt lat="23.830446" lon="120.822199">
        <ele>445.0</ele>
      </trkpt>
      <trkpt lat="23.830324" lon="120.822259">
        <ele>444.0</ele>
      </trkpt>
      <trkpt lat="23.830229" lon="120.822275">
        <ele>443.0</ele>
      </trkpt>
      <trkpt lat="23.829851" lon="120.822144">
        <ele>438.0</ele>
      </trkpt>
      <trkpt lat="23.829678" lon="120.822152">
        <ele>437.0</ele>
      </trkpt>
      <trkpt lat="23.829516" lon="120.822216">
        <ele>436.0</ele>
      </trkpt>
      <trkpt lat="23.829458" lon="120.82226">
        <ele>435.0</ele>
      </trkpt>
      <trkpt lat="23.829341" lon="120.82248">
        <ele>436.0</ele>
      </trkpt>
      <trkpt lat="23.829226" lon="120.822467">
        <ele>434.0</ele>
      </trkpt>
      <trkpt lat="23.828757" lon="120.822323">
        <ele>427.0</ele>
      </trkpt>
      <trkpt lat="23.828604" lon="120.822295">
        <ele>425.0</ele>
      </trkpt>
      <trkpt lat="23.828215" lon="120.822342">
        <ele>420.0</ele>
      </trkpt>
      <trkpt lat="23.827812" lon="120.822162">
        <ele>414.0</ele>
      </trkpt>
      <trkpt lat="23.827651" lon="120.822162">
        <ele>411.0</ele>
      </trkpt>
      <trkpt lat="23.827489" lon="120.822244">
        <ele>410.0</ele>
      </trkpt>
      <trkpt lat="23.827422" lon="120.822273">
        <ele>409.0</ele>
      </trkpt>
      <trkpt lat="23.827345" lon="120.822282">
        <ele>408.0</ele>
      </trkpt>
      <trkpt lat="23.827275" lon="120.822204">
        <ele>407.0</ele>
      </trkpt>
      <trkpt lat="23.827268" lon="120.822086">
        <ele>406.0</ele>
      </trkpt>
      <trkpt lat="23.827283" lon="120.821992">
        <ele>405.0</ele>
      </trkpt>
      <trkpt lat="23.826843" lon="120.821626">
        <ele>397.0</ele>
      </trkpt>
      <trkpt lat="23.826528" lon="120.821518">
        <ele>393.0</ele>
      </trkpt>
      <trkpt lat="23.826365" lon="120.821428">
        <ele>390.0</ele>
      </trkpt>
      <trkpt lat="23.826291" lon="120.821092">
        <ele>388.0</ele>
      </trkpt>
      <trkpt lat="23.826299" lon="120.820829">
        <ele>386.0</ele>
      </trkpt>
      <trkpt lat="23.826226" lon="120.820536">
        <ele>383.0</ele>
      </trkpt>
      <trkpt lat="23.826159" lon="120.820379">
        <ele>382.0</ele>
      </trkpt>
      <trkpt lat="23.826077" lon="120.820243">
        <ele>380.0</ele>
      </trkpt>
      <trkpt lat="23.826007" lon="120.82018">
        <ele>379.0</ele>
      </trkpt>
      <trkpt lat="23.825923" lon="120.820149">
        <ele>378.0</ele>
      </trkpt>
      <trkpt lat="23.825606" lon="120.820175">
        <ele>375.0</ele>
      </trkpt>
      <trkpt lat="23.825514" lon="120.820155">
        <ele>374.0</ele>
      </trkpt>
      <trkpt lat="23.825339" lon="120.819996">
        <ele>371.0</ele>
      </trkpt>
      <trkpt lat="23.825108" lon="120.819819">
        <ele>368.0</ele>
      </trkpt>
      <trkpt lat="23.824922" lon="120.819699">
        <ele>365.0</ele>
      </trkpt>
      <trkpt lat="23.824959" lon="120.819627">
        <ele>366.0</ele>
      </trkpt>
      <trkpt lat="23.824959" lon="120.819627">
        <ele>366.0</ele>
      </trkpt>
      <trkpt lat="23.825106" lon="120.819368">
        <ele>367.0</ele>
      </trkpt>
      <trkpt lat="23.825341" lon="120.819148">
        <ele>369.0</ele>
      </trkpt>
      <trkpt lat="23.825391" lon="120.81903">
        <ele>369.0</ele>
      </trkpt>
      <trkpt lat="23.825383" lon="120.818927">
        <ele>368.0</ele>
      </trkpt>
      <trkpt lat="23.825338" lon="120.818834">
        <ele>367.0</ele>
      </trkpt>
      <trkpt lat="23.825082" lon="120.818637">
        <ele>364.0</ele>
      </trkpt>
    </trkseg>
  </trk>
</gpx>
