<?xml version="1.0" encoding="UTF-8"?>
<gpx xmlns="http://www.topografix.com/GPX/1/1" xmlns:xsi="http://www.w3.org/2001/XMLSchema-instance" xsi:schemaLocation="http://www.topografix.com/GPX/1/1 http://www.topografix.com/GPX/1/1/gpx.xsd" version="1.1" creator="Martin Schneider">
  <wpt lat="23.878896" lon="120.942395">
    <ele>699.0</ele>
    <name>Start</name>
  </wpt>
  <wpt lat="23.846695" lon="120.931994">
    <ele>769.0</ele>
    <name>End</name>
  </wpt>
  <wpt lat="23.869753" lon="120.950144">
    <name>1</name>
    <desc>Trailhead</desc>
  </wpt>
  <wpt lat="23.8499906" lon="120.9436097">
    <name>2</name>
    <desc>Fork</desc>
  </wpt>
  <wpt lat="23.842133" lon="120.967699">
    <ele>2049.0</ele>
    <name>Summit Shuishedashan</name>
  </wpt>
  <trk>
    <name>053a_Shuishedashan</name>
    <trkseg>
      <trkpt lat="23.878896" lon="120.942395">
        <ele>699.0</ele>
      </trkpt>
      <trkpt lat="23.87821" lon="120.942816">
        <ele>703.0</ele>
      </trkpt>
      <trkpt lat="23.877812" lon="120.942933">
        <ele>705.0</ele>
      </trkpt>
      <trkpt lat="23.877261" lon="120.943021">
        <ele>708.0</ele>
      </trkpt>
      <trkpt lat="23.876124" lon="120.943008">
        <ele>713.0</ele>
      </trkpt>
      <trkpt lat="23.876124" lon="120.943008">
        <ele>713.0</ele>
      </trkpt>
      <trkpt lat="23.876209" lon="120.943015">
        <ele>713.0</ele>
      </trkpt>
      <trkpt lat="23.876166" lon="120.943101">
        <ele>713.0</ele>
      </trkpt>
      <trkpt lat="23.876123" lon="120.943422">
        <ele>714.0</ele>
      </trkpt>
      <trkpt lat="23.876145" lon="120.944173">
        <ele>715.0</ele>
      </trkpt>
      <trkpt lat="23.876231" lon="120.945246">
        <ele>714.0</ele>
      </trkpt>
      <trkpt lat="23.876295" lon="120.94559">
        <ele>713.0</ele>
      </trkpt>
      <trkpt lat="23.876402" lon="120.947156">
        <ele>712.0</ele>
      </trkpt>
      <trkpt lat="23.876433" lon="120.948478">
        <ele>711.0</ele>
      </trkpt>
      <trkpt lat="23.876485" lon="120.949709">
        <ele>711.0</ele>
      </trkpt>
      <trkpt lat="23.876485" lon="120.949709">
        <ele>711.0</ele>
      </trkpt>
      <trkpt lat="23.876488" lon="120.949795">
        <ele>711.0</ele>
      </trkpt>
      <trkpt lat="23.875437" lon="120.949473">
        <ele>716.0</ele>
      </trkpt>
      <trkpt lat="23.874621" lon="120.950396">
        <ele>722.0</ele>
      </trkpt>
      <trkpt lat="23.874493" lon="120.950568">
        <ele>723.0</ele>
      </trkpt>
      <trkpt lat="23.874192" lon="120.951147">
        <ele>724.0</ele>
      </trkpt>
      <trkpt lat="23.874063" lon="120.951276">
        <ele>725.0</ele>
      </trkpt>
      <trkpt lat="23.873935" lon="120.951319">
        <ele>726.0</ele>
      </trkpt>
      <trkpt lat="23.873591" lon="120.951362">
        <ele>728.0</ele>
      </trkpt>
      <trkpt lat="23.87269" lon="120.951598">
        <ele>732.0</ele>
      </trkpt>
      <trkpt lat="23.872111" lon="120.951512">
        <ele>735.0</ele>
      </trkpt>
      <trkpt lat="23.870609" lon="120.951941">
        <ele>745.0</ele>
      </trkpt>
      <trkpt lat="23.870544" lon="120.951941">
        <ele>746.0</ele>
      </trkpt>
      <trkpt lat="23.87048" lon="120.95192">
        <ele>747.0</ele>
      </trkpt>
      <trkpt lat="23.870266" lon="120.951705">
        <ele>749.0</ele>
      </trkpt>
      <trkpt lat="23.870051" lon="120.951362">
        <ele>754.0</ele>
      </trkpt>
      <trkpt lat="23.869793" lon="120.950868">
        <ele>769.0</ele>
      </trkpt>
      <trkpt lat="23.869751" lon="120.950632">
        <ele>771.0</ele>
      </trkpt>
      <trkpt lat="23.869751" lon="120.950139">
        <ele>768.0</ele>
      </trkpt>
      <trkpt lat="23.869666" lon="120.950169">
        <ele>771.0</ele>
      </trkpt>
      <trkpt lat="23.869666" lon="120.950168">
        <ele>771.0</ele>
      </trkpt>
      <trkpt lat="23.869419" lon="120.950237">
        <ele>779.0</ele>
      </trkpt>
      <trkpt lat="23.869081" lon="120.950372">
        <ele>793.0</ele>
      </trkpt>
      <trkpt lat="23.868518" lon="120.95089">
        <ele>825.0</ele>
      </trkpt>
      <trkpt lat="23.868191" lon="120.951223">
        <ele>836.0</ele>
      </trkpt>
      <trkpt lat="23.867932" lon="120.951716">
        <ele>853.0</ele>
      </trkpt>
      <trkpt lat="23.867661" lon="120.952073">
        <ele>871.0</ele>
      </trkpt>
      <trkpt lat="23.867413" lon="120.952566">
        <ele>897.0</ele>
      </trkpt>
      <trkpt lat="23.867098" lon="120.952948">
        <ele>910.0</ele>
      </trkpt>
      <trkpt lat="23.866816" lon="120.953478">
        <ele>940.0</ele>
      </trkpt>
      <trkpt lat="23.866782" lon="120.953848">
        <ele>955.0</ele>
      </trkpt>
      <trkpt lat="23.866827" lon="120.954193">
        <ele>966.0</ele>
      </trkpt>
      <trkpt lat="23.866895" lon="120.954513">
        <ele>983.0</ele>
      </trkpt>
      <trkpt lat="23.866909" lon="120.954729">
        <ele>995.0</ele>
      </trkpt>
      <trkpt lat="23.866909" lon="120.954729">
        <ele>995.0</ele>
      </trkpt>
      <trkpt lat="23.866917" lon="120.954846">
        <ele>1001.0</ele>
      </trkpt>
      <trkpt lat="23.866861" lon="120.955253">
        <ele>1016.0</ele>
      </trkpt>
      <trkpt lat="23.86676" lon="120.955462">
        <ele>1023.0</ele>
      </trkpt>
      <trkpt lat="23.866331" lon="120.955696">
        <ele>1036.0</ele>
      </trkpt>
      <trkpt lat="23.865881" lon="120.956214">
        <ele>1072.0</ele>
      </trkpt>
      <trkpt lat="23.8657" lon="120.956325">
        <ele>1081.0</ele>
      </trkpt>
      <trkpt lat="23.865576" lon="120.956584">
        <ele>1096.0</ele>
      </trkpt>
      <trkpt lat="23.865475" lon="120.957077">
        <ele>1113.0</ele>
      </trkpt>
      <trkpt lat="23.865249" lon="120.957508">
        <ele>1141.0</ele>
      </trkpt>
      <trkpt lat="23.865035" lon="120.957705">
        <ele>1160.0</ele>
      </trkpt>
      <trkpt lat="23.864787" lon="120.957989">
        <ele>1171.0</ele>
      </trkpt>
      <trkpt lat="23.864483" lon="120.958223">
        <ele>1187.0</ele>
      </trkpt>
      <trkpt lat="23.863976" lon="120.959172">
        <ele>1235.0</ele>
      </trkpt>
      <trkpt lat="23.863762" lon="120.959505">
        <ele>1249.0</ele>
      </trkpt>
      <trkpt lat="23.863548" lon="120.959874">
        <ele>1269.0</ele>
      </trkpt>
      <trkpt lat="23.863412" lon="120.960281">
        <ele>1289.0</ele>
      </trkpt>
      <trkpt lat="23.863333" lon="120.960688">
        <ele>1307.0</ele>
      </trkpt>
      <trkpt lat="23.863108" lon="120.960897">
        <ele>1314.0</ele>
      </trkpt>
      <trkpt lat="23.862792" lon="120.960947">
        <ele>1317.0</ele>
      </trkpt>
      <trkpt lat="23.862049" lon="120.96123">
        <ele>1324.0</ele>
      </trkpt>
      <trkpt lat="23.861801" lon="120.96139">
        <ele>1329.0</ele>
      </trkpt>
      <trkpt lat="23.860696" lon="120.961735">
        <ele>1354.0</ele>
      </trkpt>
      <trkpt lat="23.860459" lon="120.961945">
        <ele>1359.0</ele>
      </trkpt>
      <trkpt lat="23.860268" lon="120.962228">
        <ele>1370.0</ele>
      </trkpt>
      <trkpt lat="23.860155" lon="120.962499">
        <ele>1384.0</ele>
      </trkpt>
      <trkpt lat="23.859882" lon="120.962781">
        <ele>1402.0</ele>
      </trkpt>
      <trkpt lat="23.859882" lon="120.962781">
        <ele>1402.0</ele>
      </trkpt>
      <trkpt lat="23.859197" lon="120.963633">
        <ele>1452.0</ele>
      </trkpt>
      <trkpt lat="23.858983" lon="120.963855">
        <ele>1458.0</ele>
      </trkpt>
      <trkpt lat="23.858679" lon="120.963991">
        <ele>1462.0</ele>
      </trkpt>
      <trkpt lat="23.858313" lon="120.964051">
        <ele>1466.0</ele>
      </trkpt>
      <trkpt lat="23.857851" lon="120.963957">
        <ele>1469.0</ele>
      </trkpt>
      <trkpt lat="23.85756" lon="120.963949">
        <ele>1471.0</ele>
      </trkpt>
      <trkpt lat="23.857168" lon="120.963818">
        <ele>1478.0</ele>
      </trkpt>
      <trkpt lat="23.856613" lon="120.963478">
        <ele>1496.0</ele>
      </trkpt>
      <trkpt lat="23.856052" lon="120.96319">
        <ele>1518.0</ele>
      </trkpt>
      <trkpt lat="23.855399" lon="120.963079">
        <ele>1544.0</ele>
      </trkpt>
      <trkpt lat="23.855207" lon="120.96314">
        <ele>1555.0</ele>
      </trkpt>
      <trkpt lat="23.854959" lon="120.96335">
        <ele>1576.0</ele>
      </trkpt>
      <trkpt lat="23.854689" lon="120.963337">
        <ele>1589.0</ele>
      </trkpt>
      <trkpt lat="23.85426" lon="120.96335">
        <ele>1609.0</ele>
      </trkpt>
      <trkpt lat="23.854024" lon="120.963461">
        <ele>1616.0</ele>
      </trkpt>
      <trkpt lat="23.853516" lon="120.96388">
        <ele>1635.0</ele>
      </trkpt>
      <trkpt lat="23.853253" lon="120.964183">
        <ele>1649.0</ele>
      </trkpt>
      <trkpt lat="23.853253" lon="120.964183">
        <ele>1649.0</ele>
      </trkpt>
      <trkpt lat="23.853077" lon="120.964385">
        <ele>1645.0</ele>
      </trkpt>
      <trkpt lat="23.85231" lon="120.965161">
        <ele>1668.0</ele>
      </trkpt>
      <trkpt lat="23.851904" lon="120.965445">
        <ele>1680.0</ele>
      </trkpt>
      <trkpt lat="23.851409" lon="120.96558">
        <ele>1707.0</ele>
      </trkpt>
      <trkpt lat="23.850856" lon="120.965531">
        <ele>1741.0</ele>
      </trkpt>
      <trkpt lat="23.850439" lon="120.965605">
        <ele>1752.0</ele>
      </trkpt>
      <trkpt lat="23.849539" lon="120.966152">
        <ele>1781.0</ele>
      </trkpt>
      <trkpt lat="23.849394" lon="120.966302">
        <ele>1785.0</ele>
      </trkpt>
      <trkpt lat="23.849243" lon="120.966384">
        <ele>1792.0</ele>
      </trkpt>
      <trkpt lat="23.848963" lon="120.966431">
        <ele>1799.0</ele>
      </trkpt>
      <trkpt lat="23.848557" lon="120.96632">
        <ele>1806.0</ele>
      </trkpt>
      <trkpt lat="23.848128" lon="120.966258">
        <ele>1818.0</ele>
      </trkpt>
      <trkpt lat="23.847632" lon="120.96616">
        <ele>1838.0</ele>
      </trkpt>
      <trkpt lat="23.847193" lon="120.96616">
        <ele>1856.0</ele>
      </trkpt>
      <trkpt lat="23.846731" lon="120.966308">
        <ele>1878.0</ele>
      </trkpt>
      <trkpt lat="23.846257" lon="120.96648">
        <ele>1892.0</ele>
      </trkpt>
      <trkpt lat="23.846122" lon="120.966776">
        <ele>1898.0</ele>
      </trkpt>
      <trkpt lat="23.845806" lon="120.967072">
        <ele>1908.0</ele>
      </trkpt>
      <trkpt lat="23.845468" lon="120.967127">
        <ele>1920.0</ele>
      </trkpt>
      <trkpt lat="23.845084" lon="120.967018">
        <ele>1933.0</ele>
      </trkpt>
      <trkpt lat="23.844819" lon="120.967059">
        <ele>1945.0</ele>
      </trkpt>
      <trkpt lat="23.844375" lon="120.967294">
        <ele>1969.0</ele>
      </trkpt>
      <trkpt lat="23.844025" lon="120.967318">
        <ele>1985.0</ele>
      </trkpt>
      <trkpt lat="23.84371" lon="120.967515">
        <ele>2000.0</ele>
      </trkpt>
      <trkpt lat="23.843541" lon="120.96754">
        <ele>2005.0</ele>
      </trkpt>
      <trkpt lat="23.843236" lon="120.967688">
        <ele>2016.0</ele>
      </trkpt>
      <trkpt lat="23.842988" lon="120.967774">
        <ele>2026.0</ele>
      </trkpt>
      <trkpt lat="23.842673" lon="120.967786">
        <ele>2039.0</ele>
      </trkpt>
      <trkpt lat="23.842323" lon="120.967725">
        <ele>2048.0</ele>
      </trkpt>
      <trkpt lat="23.842233" lon="120.967685">
        <ele>2048.0</ele>
      </trkpt>
      <trkpt lat="23.842145" lon="120.967671">
        <ele>2049.0</ele>
      </trkpt>
      <trkpt lat="23.842075" lon="120.96784">
        <ele>2051.0</ele>
      </trkpt>
      <trkpt lat="23.842022" lon="120.96788">
        <ele>2052.0</ele>
      </trkpt>
      <trkpt lat="23.841805" lon="120.968176">
        <ele>2059.0</ele>
      </trkpt>
      <trkpt lat="23.841731" lon="120.968231">
        <ele>2060.0</ele>
      </trkpt>
      <trkpt lat="23.84162" lon="120.968457">
        <ele>2060.0</ele>
      </trkpt>
      <trkpt lat="23.84143" lon="120.96862">
        <ele>2055.0</ele>
      </trkpt>
      <trkpt lat="23.841369" lon="120.968706">
        <ele>2054.0</ele>
      </trkpt>
      <trkpt lat="23.841223" lon="120.969006">
        <ele>2056.0</ele>
      </trkpt>
      <trkpt lat="23.841138" lon="120.96913">
        <ele>2058.0</ele>
      </trkpt>
      <trkpt lat="23.841009" lon="120.969234">
        <ele>2060.0</ele>
      </trkpt>
      <trkpt lat="23.840773" lon="120.969341">
        <ele>2061.0</ele>
      </trkpt>
      <trkpt lat="23.840735" lon="120.969393">
        <ele>2060.0</ele>
      </trkpt>
      <trkpt lat="23.840577" lon="120.969523">
        <ele>2056.0</ele>
      </trkpt>
      <trkpt lat="23.840548" lon="120.969565">
        <ele>2056.0</ele>
      </trkpt>
      <trkpt lat="23.840479" lon="120.969781">
        <ele>2058.0</ele>
      </trkpt>
      <trkpt lat="23.840392" lon="120.969916">
        <ele>2058.0</ele>
      </trkpt>
      <trkpt lat="23.840332" lon="120.96995">
        <ele>2058.0</ele>
      </trkpt>
      <trkpt lat="23.840286" lon="120.970059">
        <ele>2059.0</ele>
      </trkpt>
      <trkpt lat="23.840275" lon="120.970121">
        <ele>2060.0</ele>
      </trkpt>
      <trkpt lat="23.840297" lon="120.970265">
        <ele>2064.0</ele>
      </trkpt>
      <trkpt lat="23.840279" lon="120.970357">
        <ele>2066.0</ele>
      </trkpt>
      <trkpt lat="23.840199" lon="120.970536">
        <ele>2071.0</ele>
      </trkpt>
      <trkpt lat="23.840194" lon="120.970701">
        <ele>2075.0</ele>
      </trkpt>
      <trkpt lat="23.840133" lon="120.970873">
        <ele>2081.0</ele>
      </trkpt>
      <trkpt lat="23.840005" lon="120.971058">
        <ele>2087.0</ele>
      </trkpt>
      <trkpt lat="23.83992" lon="120.971156">
        <ele>2087.0</ele>
      </trkpt>
      <trkpt lat="23.839798" lon="120.971405">
        <ele>2091.0</ele>
      </trkpt>
      <trkpt lat="23.839638" lon="120.971598">
        <ele>2098.0</ele>
      </trkpt>
      <trkpt lat="23.83939" lon="120.971826">
        <ele>2105.0</ele>
      </trkpt>
      <trkpt lat="23.839369" lon="120.971925">
        <ele>2106.0</ele>
      </trkpt>
      <trkpt lat="23.839324" lon="120.972011">
        <ele>2107.0</ele>
      </trkpt>
      <trkpt lat="23.839295" lon="120.972088">
        <ele>2108.0</ele>
      </trkpt>
      <trkpt lat="23.839316" lon="120.972239">
        <ele>2109.0</ele>
      </trkpt>
      <trkpt lat="23.839316" lon="120.972239">
        <ele>2109.0</ele>
      </trkpt>
      <trkpt lat="23.839295" lon="120.972088">
        <ele>2108.0</ele>
      </trkpt>
      <trkpt lat="23.839324" lon="120.972011">
        <ele>2107.0</ele>
      </trkpt>
      <trkpt lat="23.839369" lon="120.971925">
        <ele>2106.0</ele>
      </trkpt>
      <trkpt lat="23.83939" lon="120.971826">
        <ele>2105.0</ele>
      </trkpt>
      <trkpt lat="23.839638" lon="120.971598">
        <ele>2098.0</ele>
      </trkpt>
      <trkpt lat="23.839798" lon="120.971405">
        <ele>2091.0</ele>
      </trkpt>
      <trkpt lat="23.83992" lon="120.971156">
        <ele>2087.0</ele>
      </trkpt>
      <trkpt lat="23.840005" lon="120.971058">
        <ele>2087.0</ele>
      </trkpt>
      <trkpt lat="23.840133" lon="120.970873">
        <ele>2081.0</ele>
      </trkpt>
      <trkpt lat="23.840194" lon="120.970701">
        <ele>2075.0</ele>
      </trkpt>
      <trkpt lat="23.840199" lon="120.970536">
        <ele>2071.0</ele>
      </trkpt>
      <trkpt lat="23.840279" lon="120.970357">
        <ele>2066.0</ele>
      </trkpt>
      <trkpt lat="23.840297" lon="120.970265">
        <ele>2064.0</ele>
      </trkpt>
      <trkpt lat="23.840275" lon="120.970121">
        <ele>2060.0</ele>
      </trkpt>
      <trkpt lat="23.840286" lon="120.970059">
        <ele>2059.0</ele>
      </trkpt>
      <trkpt lat="23.840332" lon="120.96995">
        <ele>2058.0</ele>
      </trkpt>
      <trkpt lat="23.840392" lon="120.969916">
        <ele>2058.0</ele>
      </trkpt>
      <trkpt lat="23.840479" lon="120.969781">
        <ele>2058.0</ele>
      </trkpt>
      <trkpt lat="23.840548" lon="120.969565">
        <ele>2056.0</ele>
      </trkpt>
      <trkpt lat="23.840577" lon="120.969523">
        <ele>2056.0</ele>
      </trkpt>
      <trkpt lat="23.840735" lon="120.969393">
        <ele>2060.0</ele>
      </trkpt>
      <trkpt lat="23.840773" lon="120.969341">
        <ele>2061.0</ele>
      </trkpt>
      <trkpt lat="23.841009" lon="120.969234">
        <ele>2060.0</ele>
      </trkpt>
      <trkpt lat="23.841138" lon="120.96913">
        <ele>2058.0</ele>
      </trkpt>
      <trkpt lat="23.841223" lon="120.969006">
        <ele>2056.0</ele>
      </trkpt>
      <trkpt lat="23.841369" lon="120.968706">
        <ele>2054.0</ele>
      </trkpt>
      <trkpt lat="23.84143" lon="120.96862">
        <ele>2055.0</ele>
      </trkpt>
      <trkpt lat="23.84162" lon="120.968457">
        <ele>2060.0</ele>
      </trkpt>
      <trkpt lat="23.841731" lon="120.968231">
        <ele>2060.0</ele>
      </trkpt>
      <trkpt lat="23.841805" lon="120.968176">
        <ele>2059.0</ele>
      </trkpt>
      <trkpt lat="23.842022" lon="120.96788">
        <ele>2052.0</ele>
      </trkpt>
      <trkpt lat="23.842075" lon="120.96784">
        <ele>2051.0</ele>
      </trkpt>
      <trkpt lat="23.842133" lon="120.967699">
        <ele>2049.0</ele>
      </trkpt>
      <trkpt lat="23.842133" lon="120.967699">
        <ele>2049.0</ele>
      </trkpt>
      <trkpt lat="23.842142" lon="120.967656">
        <ele>2049.0</ele>
      </trkpt>
      <trkpt lat="23.841919" lon="120.967411">
        <ele>2046.0</ele>
      </trkpt>
      <trkpt lat="23.841835" lon="120.967265">
        <ele>2041.0</ele>
      </trkpt>
      <trkpt lat="23.841663" lon="120.967042">
        <ele>2034.0</ele>
      </trkpt>
      <trkpt lat="23.841489" lon="120.966716">
        <ele>2016.0</ele>
      </trkpt>
      <trkpt lat="23.841396" lon="120.966415">
        <ele>2003.0</ele>
      </trkpt>
      <trkpt lat="23.841245" lon="120.966279">
        <ele>1994.0</ele>
      </trkpt>
      <trkpt lat="23.840907" lon="120.966206">
        <ele>1983.0</ele>
      </trkpt>
      <trkpt lat="23.840334" lon="120.96571">
        <ele>1936.0</ele>
      </trkpt>
      <trkpt lat="23.839872" lon="120.965458">
        <ele>1907.0</ele>
      </trkpt>
      <trkpt lat="23.839614" lon="120.965166">
        <ele>1893.0</ele>
      </trkpt>
      <trkpt lat="23.839347" lon="120.965061">
        <ele>1886.0</ele>
      </trkpt>
      <trkpt lat="23.839209" lon="120.964923">
        <ele>1881.0</ele>
      </trkpt>
      <trkpt lat="23.838895" lon="120.964896">
        <ele>1866.0</ele>
      </trkpt>
      <trkpt lat="23.838606" lon="120.964415">
        <ele>1853.0</ele>
      </trkpt>
      <trkpt lat="23.83843" lon="120.964044">
        <ele>1853.0</ele>
      </trkpt>
      <trkpt lat="23.838229" lon="120.963536">
        <ele>1847.0</ele>
      </trkpt>
      <trkpt lat="23.838291" lon="120.963068">
        <ele>1841.0</ele>
      </trkpt>
      <trkpt lat="23.838668" lon="120.962038">
        <ele>1814.0</ele>
      </trkpt>
      <trkpt lat="23.838681" lon="120.96157">
        <ele>1810.0</ele>
      </trkpt>
      <trkpt lat="23.838744" lon="120.961158">
        <ele>1804.0</ele>
      </trkpt>
      <trkpt lat="23.838768" lon="120.961116">
        <ele>1803.0</ele>
      </trkpt>
      <trkpt lat="23.838768" lon="120.961116">
        <ele>1803.0</ele>
      </trkpt>
      <trkpt lat="23.838932" lon="120.960828">
        <ele>1802.0</ele>
      </trkpt>
      <trkpt lat="23.838844" lon="120.960526">
        <ele>1794.0</ele>
      </trkpt>
      <trkpt lat="23.838958" lon="120.960334">
        <ele>1792.0</ele>
      </trkpt>
      <trkpt lat="23.838958" lon="120.960127">
        <ele>1787.0</ele>
      </trkpt>
      <trkpt lat="23.839259" lon="120.960155">
        <ele>1785.0</ele>
      </trkpt>
      <trkpt lat="23.83936" lon="120.960031">
        <ele>1776.0</ele>
      </trkpt>
      <trkpt lat="23.839661" lon="120.959839">
        <ele>1751.0</ele>
      </trkpt>
      <trkpt lat="23.839837" lon="120.959097">
        <ele>1718.0</ele>
      </trkpt>
      <trkpt lat="23.839888" lon="120.958231">
        <ele>1687.0</ele>
      </trkpt>
      <trkpt lat="23.840001" lon="120.957352">
        <ele>1661.0</ele>
      </trkpt>
      <trkpt lat="23.840189" lon="120.957187">
        <ele>1646.0</ele>
      </trkpt>
      <trkpt lat="23.840416" lon="120.957269">
        <ele>1642.0</ele>
      </trkpt>
      <trkpt lat="23.840818" lon="120.957929">
        <ele>1639.0</ele>
      </trkpt>
      <trkpt lat="23.841044" lon="120.958135">
        <ele>1625.0</ele>
      </trkpt>
      <trkpt lat="23.841647" lon="120.958107">
        <ele>1580.0</ele>
      </trkpt>
      <trkpt lat="23.842376" lon="120.957846">
        <ele>1537.0</ele>
      </trkpt>
      <trkpt lat="23.842666" lon="120.957228">
        <ele>1505.0</ele>
      </trkpt>
      <trkpt lat="23.842829" lon="120.95675">
        <ele>1481.0</ele>
      </trkpt>
      <trkpt lat="23.842829" lon="120.95675">
        <ele>1481.0</ele>
      </trkpt>
      <trkpt lat="23.842854" lon="120.956678">
        <ele>1478.0</ele>
      </trkpt>
      <trkpt lat="23.843017" lon="120.956472">
        <ele>1467.0</ele>
      </trkpt>
      <trkpt lat="23.843407" lon="120.956458">
        <ele>1454.0</ele>
      </trkpt>
      <trkpt lat="23.843822" lon="120.956417">
        <ele>1426.0</ele>
      </trkpt>
      <trkpt lat="23.84401" lon="120.956293">
        <ele>1412.0</ele>
      </trkpt>
      <trkpt lat="23.84401" lon="120.955812">
        <ele>1401.0</ele>
      </trkpt>
      <trkpt lat="23.844123" lon="120.95562">
        <ele>1386.0</ele>
      </trkpt>
      <trkpt lat="23.844476" lon="120.955538">
        <ele>1364.0</ele>
      </trkpt>
      <trkpt lat="23.844614" lon="120.955414">
        <ele>1353.0</ele>
      </trkpt>
      <trkpt lat="23.844815" lon="120.954864">
        <ele>1328.0</ele>
      </trkpt>
      <trkpt lat="23.844978" lon="120.954644">
        <ele>1317.0</ele>
      </trkpt>
      <trkpt lat="23.845079" lon="120.953724">
        <ele>1291.0</ele>
      </trkpt>
      <trkpt lat="23.845318" lon="120.953298">
        <ele>1277.0</ele>
      </trkpt>
      <trkpt lat="23.845594" lon="120.952404">
        <ele>1267.0</ele>
      </trkpt>
      <trkpt lat="23.846122" lon="120.95213">
        <ele>1256.0</ele>
      </trkpt>
      <trkpt lat="23.846452" lon="120.951899">
        <ele>1251.0</ele>
      </trkpt>
      <trkpt lat="23.846751" lon="120.951181">
        <ele>1266.0</ele>
      </trkpt>
      <trkpt lat="23.846889" lon="120.950563">
        <ele>1284.0</ele>
      </trkpt>
      <trkpt lat="23.847392" lon="120.949738">
        <ele>1292.0</ele>
      </trkpt>
      <trkpt lat="23.84746" lon="120.949727">
        <ele>1291.0</ele>
      </trkpt>
      <trkpt lat="23.84746" lon="120.949727">
        <ele>1291.0</ele>
      </trkpt>
      <trkpt lat="23.84797" lon="120.949642">
        <ele>1272.0</ele>
      </trkpt>
      <trkpt lat="23.84841" lon="120.94945">
        <ele>1263.0</ele>
      </trkpt>
      <trkpt lat="23.848636" lon="120.949093">
        <ele>1266.0</ele>
      </trkpt>
      <trkpt lat="23.849126" lon="120.948832">
        <ele>1256.0</ele>
      </trkpt>
      <trkpt lat="23.84988" lon="120.948584">
        <ele>1266.0</ele>
      </trkpt>
      <trkpt lat="23.850609" lon="120.948144">
        <ele>1269.0</ele>
      </trkpt>
      <trkpt lat="23.850923" lon="120.947842">
        <ele>1267.0</ele>
      </trkpt>
      <trkpt lat="23.851052" lon="120.947067">
        <ele>1252.0</ele>
      </trkpt>
      <trkpt lat="23.851052" lon="120.947067">
        <ele>1252.0</ele>
      </trkpt>
      <trkpt lat="23.851156" lon="120.94653">
        <ele>1238.0</ele>
      </trkpt>
      <trkpt lat="23.851282" lon="120.946179">
        <ele>1229.0</ele>
      </trkpt>
      <trkpt lat="23.851124" lon="120.945547">
        <ele>1214.0</ele>
      </trkpt>
      <trkpt lat="23.850898" lon="120.945231">
        <ele>1205.0</ele>
      </trkpt>
      <trkpt lat="23.850672" lon="120.944764">
        <ele>1185.0</ele>
      </trkpt>
      <trkpt lat="23.850314" lon="120.944255">
        <ele>1161.0</ele>
      </trkpt>
      <trkpt lat="23.849993" lon="120.943616">
        <ele>1138.0</ele>
      </trkpt>
      <trkpt lat="23.849977" lon="120.943615">
        <ele>1138.0</ele>
      </trkpt>
      <trkpt lat="23.849977" lon="120.943615">
        <ele>1138.0</ele>
      </trkpt>
      <trkpt lat="23.849853" lon="120.943609">
        <ele>1131.0</ele>
      </trkpt>
      <trkpt lat="23.84967" lon="120.94382">
        <ele>1126.0</ele>
      </trkpt>
      <trkpt lat="23.849596" lon="120.943804">
        <ele>1121.0</ele>
      </trkpt>
      <trkpt lat="23.849574" lon="120.943657">
        <ele>1117.0</ele>
      </trkpt>
      <trkpt lat="23.849455" lon="120.943531">
        <ele>1109.0</ele>
      </trkpt>
      <trkpt lat="23.849388" lon="120.943434">
        <ele>1104.0</ele>
      </trkpt>
      <trkpt lat="23.849384" lon="120.943076">
        <ele>1094.0</ele>
      </trkpt>
      <trkpt lat="23.84934" lon="120.943011">
        <ele>1090.0</ele>
      </trkpt>
      <trkpt lat="23.849317" lon="120.942889">
        <ele>1086.0</ele>
      </trkpt>
      <trkpt lat="23.849425" lon="120.942702">
        <ele>1084.0</ele>
      </trkpt>
      <trkpt lat="23.849421" lon="120.942629">
        <ele>1081.0</ele>
      </trkpt>
      <trkpt lat="23.849358" lon="120.942625">
        <ele>1079.0</ele>
      </trkpt>
      <trkpt lat="23.849143" lon="120.942787">
        <ele>1076.0</ele>
      </trkpt>
      <trkpt lat="23.849128" lon="120.942734">
        <ele>1074.0</ele>
      </trkpt>
      <trkpt lat="23.849172" lon="120.942645">
        <ele>1075.0</ele>
      </trkpt>
      <trkpt lat="23.849187" lon="120.942519">
        <ele>1072.0</ele>
      </trkpt>
      <trkpt lat="23.849146" lon="120.942401">
        <ele>1065.0</ele>
      </trkpt>
      <trkpt lat="23.849213" lon="120.942255">
        <ele>1061.0</ele>
      </trkpt>
      <trkpt lat="23.849306" lon="120.941986">
        <ele>1051.0</ele>
      </trkpt>
      <trkpt lat="23.849697" lon="120.941669">
        <ele>1044.0</ele>
      </trkpt>
      <trkpt lat="23.849842" lon="120.941397">
        <ele>1037.0</ele>
      </trkpt>
      <trkpt lat="23.849823" lon="120.941234">
        <ele>1031.0</ele>
      </trkpt>
      <trkpt lat="23.849678" lon="120.941169">
        <ele>1027.0</ele>
      </trkpt>
      <trkpt lat="23.849507" lon="120.941283">
        <ele>1029.0</ele>
      </trkpt>
      <trkpt lat="23.84947" lon="120.941409">
        <ele>1032.0</ele>
      </trkpt>
      <trkpt lat="23.849425" lon="120.941462">
        <ele>1033.0</ele>
      </trkpt>
      <trkpt lat="23.849381" lon="120.941397">
        <ele>1030.0</ele>
      </trkpt>
      <trkpt lat="23.849161" lon="120.94071">
        <ele>1011.0</ele>
      </trkpt>
      <trkpt lat="23.84905" lon="120.940238">
        <ele>997.0</ele>
      </trkpt>
      <trkpt lat="23.848905" lon="120.939889">
        <ele>984.0</ele>
      </trkpt>
      <trkpt lat="23.848793" lon="120.939401">
        <ele>972.0</ele>
      </trkpt>
      <trkpt lat="23.848834" lon="120.938982">
        <ele>967.0</ele>
      </trkpt>
      <trkpt lat="23.848763" lon="120.938819">
        <ele>960.0</ele>
      </trkpt>
      <trkpt lat="23.848827" lon="120.938478">
        <ele>954.0</ele>
      </trkpt>
      <trkpt lat="23.848793" lon="120.938368">
        <ele>951.0</ele>
      </trkpt>
      <trkpt lat="23.848696" lon="120.938287">
        <ele>946.0</ele>
      </trkpt>
      <trkpt lat="23.848577" lon="120.938311">
        <ele>944.0</ele>
      </trkpt>
      <trkpt lat="23.848503" lon="120.938413">
        <ele>945.0</ele>
      </trkpt>
      <trkpt lat="23.848429" lon="120.93862">
        <ele>945.0</ele>
      </trkpt>
      <trkpt lat="23.848414" lon="120.93886">
        <ele>947.0</ele>
      </trkpt>
      <trkpt lat="23.848351" lon="120.938876">
        <ele>945.0</ele>
      </trkpt>
      <trkpt lat="23.848291" lon="120.938815">
        <ele>940.0</ele>
      </trkpt>
      <trkpt lat="23.848194" lon="120.938661">
        <ele>932.0</ele>
      </trkpt>
      <trkpt lat="23.84809" lon="120.938437">
        <ele>924.0</ele>
      </trkpt>
      <trkpt lat="23.847904" lon="120.937933">
        <ele>904.0</ele>
      </trkpt>
      <trkpt lat="23.847901" lon="120.937726">
        <ele>900.0</ele>
      </trkpt>
      <trkpt lat="23.847678" lon="120.937384">
        <ele>886.0</ele>
      </trkpt>
      <trkpt lat="23.847427" lon="120.937053">
        <ele>872.0</ele>
      </trkpt>
      <trkpt lat="23.847424" lon="120.93687">
        <ele>869.0</ele>
      </trkpt>
      <trkpt lat="23.84735" lon="120.936814">
        <ele>864.0</ele>
      </trkpt>
      <trkpt lat="23.847316" lon="120.936663">
        <ele>860.0</ele>
      </trkpt>
      <trkpt lat="23.847172" lon="120.936436">
        <ele>850.0</ele>
      </trkpt>
      <trkpt lat="23.847071" lon="120.93634">
        <ele>845.0</ele>
      </trkpt>
      <trkpt lat="23.846983" lon="120.936161">
        <ele>840.0</ele>
      </trkpt>
      <trkpt lat="23.847058" lon="120.936058">
        <ele>840.0</ele>
      </trkpt>
      <trkpt lat="23.847102" lon="120.935935">
        <ele>839.0</ele>
      </trkpt>
      <trkpt lat="23.84704" lon="120.935838">
        <ele>837.0</ele>
      </trkpt>
      <trkpt lat="23.846933" lon="120.93579">
        <ele>834.0</ele>
      </trkpt>
      <trkpt lat="23.846826" lon="120.935838">
        <ele>835.0</ele>
      </trkpt>
      <trkpt lat="23.846738" lon="120.935804">
        <ele>833.0</ele>
      </trkpt>
      <trkpt lat="23.846757" lon="120.935708">
        <ele>830.0</ele>
      </trkpt>
      <trkpt lat="23.846908" lon="120.935584">
        <ele>828.0</ele>
      </trkpt>
      <trkpt lat="23.84714" lon="120.935515">
        <ele>828.0</ele>
      </trkpt>
      <trkpt lat="23.847379" lon="120.93557">
        <ele>831.0</ele>
      </trkpt>
      <trkpt lat="23.847442" lon="120.935488">
        <ele>829.0</ele>
      </trkpt>
      <trkpt lat="23.847453" lon="120.935371">
        <ele>826.0</ele>
      </trkpt>
      <trkpt lat="23.847453" lon="120.935371">
        <ele>826.0</ele>
      </trkpt>
      <trkpt lat="23.847513" lon="120.934749">
        <ele>805.0</ele>
      </trkpt>
      <trkpt lat="23.84776" lon="120.93396">
        <ele>778.0</ele>
      </trkpt>
      <trkpt lat="23.8477744" lon="120.9339648">
        <ele>778.0</ele>
      </trkpt>
      <trkpt lat="23.8478284" lon="120.9335679">
        <ele>773.0</ele>
      </trkpt>
      <trkpt lat="23.846815" lon="120.932862">
        <ele>771.0</ele>
      </trkpt>
      <trkpt lat="23.846812" lon="120.932629">
        <ele>770.0</ele>
      </trkpt>
      <trkpt lat="23.846916" lon="120.932193">
        <ele>768.0</ele>
      </trkpt>
      <trkpt lat="23.846695" lon="120.931994">
        <ele>769.0</ele>
      </trkpt>
      <trkpt lat="23.846695" lon="120.931994">
        <ele>769.0</ele>
      </trkpt>
    </trkseg>
  </trk>
</gpx>
