<?xml version="1.0" encoding="UTF-8"?>
<gpx xmlns="http://www.topografix.com/GPX/1/1" xmlns:xsi="http://www.w3.org/2001/XMLSchema-instance" xsi:schemaLocation="http://www.topografix.com/GPX/1/1 http://www.topografix.com/GPX/1/1/gpx.xsd" version="1.1" creator="Martin Schneider">
  <wpt lat="23.407073" lon="120.571373">
    <name>1</name>
    <desc>Trailhead</desc>
  </wpt>
  <wpt lat="23.403784" lon="120.574447">
    <name>2</name>
    <desc>Fork</desc>
  </wpt>
  <wpt lat="23.405343" lon="120.579962">
    <ele>595.0</ele>
    <name>Summit Tongtoushan</name>
  </wpt>
  <wpt lat="23.416074" lon="120.516767">
    <ele>106.0</ele>
    <name>Start</name>
  </wpt>
  <wpt lat="23.4158" lon="120.516517">
    <ele>107.0</ele>
    <name>End</name>
  </wpt>
  <trk>
    <name>066a_Tongtoushan</name>
    <trkseg>
      <trkpt lat="23.416074" lon="120.516767">
        <ele>106.0</ele>
      </trkpt>
      <trkpt lat="23.416074" lon="120.516767">
        <ele>106.0</ele>
      </trkpt>
      <trkpt lat="23.4158" lon="120.516517">
        <ele>107.0</ele>
      </trkpt>
      <trkpt lat="23.415553" lon="120.517268">
        <ele>110.0</ele>
      </trkpt>
      <trkpt lat="23.415309" lon="120.518115">
        <ele>112.0</ele>
      </trkpt>
      <trkpt lat="23.414883" lon="120.519595">
        <ele>118.0</ele>
      </trkpt>
      <trkpt lat="23.414796" lon="120.519913">
        <ele>118.0</ele>
      </trkpt>
      <trkpt lat="23.414796" lon="120.519913">
        <ele>118.0</ele>
      </trkpt>
      <trkpt lat="23.414579" lon="120.520706">
        <ele>118.0</ele>
      </trkpt>
      <trkpt lat="23.414056" lon="120.522653">
        <ele>125.0</ele>
      </trkpt>
      <trkpt lat="23.413534" lon="120.524586">
        <ele>131.0</ele>
      </trkpt>
      <trkpt lat="23.413534" lon="120.524586">
        <ele>131.0</ele>
      </trkpt>
      <trkpt lat="23.413052" lon="120.526376">
        <ele>138.0</ele>
      </trkpt>
      <trkpt lat="23.412837" lon="120.527187">
        <ele>140.0</ele>
      </trkpt>
      <trkpt lat="23.412763" lon="120.527546">
        <ele>140.0</ele>
      </trkpt>
      <trkpt lat="23.412967" lon="120.528306">
        <ele>143.0</ele>
      </trkpt>
      <trkpt lat="23.41317" lon="120.529138">
        <ele>145.0</ele>
      </trkpt>
      <trkpt lat="23.413213" lon="120.529255">
        <ele>145.0</ele>
      </trkpt>
      <trkpt lat="23.413397" lon="120.529598">
        <ele>144.0</ele>
      </trkpt>
      <trkpt lat="23.413539" lon="120.529969">
        <ele>143.0</ele>
      </trkpt>
      <trkpt lat="23.413698" lon="120.530241">
        <ele>142.0</ele>
      </trkpt>
      <trkpt lat="23.413731" lon="120.530334">
        <ele>142.0</ele>
      </trkpt>
      <trkpt lat="23.41368" lon="120.530531">
        <ele>143.0</ele>
      </trkpt>
      <trkpt lat="23.413704" lon="120.530791">
        <ele>143.0</ele>
      </trkpt>
      <trkpt lat="23.413742" lon="120.530893">
        <ele>143.0</ele>
      </trkpt>
      <trkpt lat="23.413879" lon="120.531039">
        <ele>143.0</ele>
      </trkpt>
      <trkpt lat="23.414014" lon="120.531255">
        <ele>144.0</ele>
      </trkpt>
      <trkpt lat="23.414068" lon="120.531478">
        <ele>145.0</ele>
      </trkpt>
      <trkpt lat="23.41409" lon="120.531746">
        <ele>147.0</ele>
      </trkpt>
      <trkpt lat="23.414077" lon="120.531974">
        <ele>148.0</ele>
      </trkpt>
      <trkpt lat="23.414062" lon="120.532115">
        <ele>149.0</ele>
      </trkpt>
      <trkpt lat="23.414146" lon="120.532512">
        <ele>151.0</ele>
      </trkpt>
      <trkpt lat="23.414195" lon="120.532661">
        <ele>152.0</ele>
      </trkpt>
      <trkpt lat="23.414248" lon="120.532714">
        <ele>151.0</ele>
      </trkpt>
      <trkpt lat="23.414431" lon="120.532811">
        <ele>150.0</ele>
      </trkpt>
      <trkpt lat="23.414542" lon="120.532932">
        <ele>150.0</ele>
      </trkpt>
      <trkpt lat="23.414708" lon="120.533259">
        <ele>151.0</ele>
      </trkpt>
      <trkpt lat="23.414788" lon="120.53336">
        <ele>151.0</ele>
      </trkpt>
      <trkpt lat="23.415011" lon="120.533731">
        <ele>149.0</ele>
      </trkpt>
      <trkpt lat="23.415087" lon="120.534075">
        <ele>149.0</ele>
      </trkpt>
      <trkpt lat="23.415218" lon="120.534243">
        <ele>149.0</ele>
      </trkpt>
      <trkpt lat="23.415308" lon="120.534463">
        <ele>150.0</ele>
      </trkpt>
      <trkpt lat="23.415419" lon="120.534549">
        <ele>150.0</ele>
      </trkpt>
      <trkpt lat="23.415498" lon="120.534679">
        <ele>150.0</ele>
      </trkpt>
      <trkpt lat="23.41599" lon="120.534957">
        <ele>146.0</ele>
      </trkpt>
      <trkpt lat="23.416081" lon="120.535153">
        <ele>145.0</ele>
      </trkpt>
      <trkpt lat="23.41609" lon="120.53533">
        <ele>146.0</ele>
      </trkpt>
      <trkpt lat="23.416208" lon="120.536024">
        <ele>146.0</ele>
      </trkpt>
      <trkpt lat="23.416043" lon="120.536071">
        <ele>147.0</ele>
      </trkpt>
      <trkpt lat="23.415887" lon="120.536098">
        <ele>149.0</ele>
      </trkpt>
      <trkpt lat="23.415782" lon="120.536099">
        <ele>150.0</ele>
      </trkpt>
      <trkpt lat="23.415682" lon="120.536157">
        <ele>153.0</ele>
      </trkpt>
      <trkpt lat="23.415604" lon="120.536271">
        <ele>156.0</ele>
      </trkpt>
      <trkpt lat="23.41556" lon="120.536519">
        <ele>157.0</ele>
      </trkpt>
      <trkpt lat="23.415566" lon="120.536767">
        <ele>158.0</ele>
      </trkpt>
      <trkpt lat="23.415475" lon="120.53712">
        <ele>161.0</ele>
      </trkpt>
      <trkpt lat="23.415659" lon="120.537336">
        <ele>156.0</ele>
      </trkpt>
      <trkpt lat="23.415775" lon="120.537308">
        <ele>154.0</ele>
      </trkpt>
      <trkpt lat="23.415876" lon="120.537165">
        <ele>151.0</ele>
      </trkpt>
      <trkpt lat="23.416103" lon="120.537052">
        <ele>149.0</ele>
      </trkpt>
      <trkpt lat="23.416265" lon="120.537165">
        <ele>148.0</ele>
      </trkpt>
      <trkpt lat="23.416358" lon="120.537284">
        <ele>147.0</ele>
      </trkpt>
      <trkpt lat="23.416629" lon="120.537057">
        <ele>144.0</ele>
      </trkpt>
      <trkpt lat="23.41687" lon="120.537369">
        <ele>144.0</ele>
      </trkpt>
      <trkpt lat="23.416865" lon="120.537562">
        <ele>145.0</ele>
      </trkpt>
      <trkpt lat="23.416808" lon="120.538025">
        <ele>147.0</ele>
      </trkpt>
      <trkpt lat="23.416713" lon="120.538415">
        <ele>148.0</ele>
      </trkpt>
      <trkpt lat="23.416583" lon="120.538746">
        <ele>149.0</ele>
      </trkpt>
      <trkpt lat="23.416561" lon="120.538927">
        <ele>150.0</ele>
      </trkpt>
      <trkpt lat="23.416629" lon="120.540972">
        <ele>155.0</ele>
      </trkpt>
      <trkpt lat="23.416647" lon="120.541045">
        <ele>155.0</ele>
      </trkpt>
      <trkpt lat="23.416759" lon="120.541309">
        <ele>156.0</ele>
      </trkpt>
      <trkpt lat="23.416914" lon="120.541753">
        <ele>157.0</ele>
      </trkpt>
      <trkpt lat="23.416927" lon="120.541847">
        <ele>157.0</ele>
      </trkpt>
      <trkpt lat="23.416991" lon="120.543013">
        <ele>158.0</ele>
      </trkpt>
      <trkpt lat="23.416983" lon="120.54313">
        <ele>159.0</ele>
      </trkpt>
      <trkpt lat="23.416936" lon="120.543226">
        <ele>159.0</ele>
      </trkpt>
      <trkpt lat="23.416407" lon="120.54342">
        <ele>161.0</ele>
      </trkpt>
      <trkpt lat="23.416327" lon="120.543492">
        <ele>162.0</ele>
      </trkpt>
      <trkpt lat="23.416294" lon="120.543537">
        <ele>162.0</ele>
      </trkpt>
      <trkpt lat="23.416279" lon="120.543662">
        <ele>162.0</ele>
      </trkpt>
      <trkpt lat="23.416291" lon="120.543733">
        <ele>162.0</ele>
      </trkpt>
      <trkpt lat="23.416343" lon="120.543809">
        <ele>161.0</ele>
      </trkpt>
      <trkpt lat="23.416789" lon="120.544159">
        <ele>159.0</ele>
      </trkpt>
      <trkpt lat="23.416541" lon="120.544433">
        <ele>161.0</ele>
      </trkpt>
      <trkpt lat="23.416219" lon="120.544686">
        <ele>163.0</ele>
      </trkpt>
      <trkpt lat="23.414964" lon="120.545515">
        <ele>170.0</ele>
      </trkpt>
      <trkpt lat="23.414569" lon="120.545712">
        <ele>172.0</ele>
      </trkpt>
      <trkpt lat="23.414076" lon="120.545784">
        <ele>175.0</ele>
      </trkpt>
      <trkpt lat="23.413594" lon="120.545958">
        <ele>178.0</ele>
      </trkpt>
      <trkpt lat="23.41311" lon="120.546075">
        <ele>182.0</ele>
      </trkpt>
      <trkpt lat="23.412699" lon="120.546267">
        <ele>182.0</ele>
      </trkpt>
      <trkpt lat="23.412483" lon="120.546423">
        <ele>180.0</ele>
      </trkpt>
      <trkpt lat="23.412236" lon="120.546632">
        <ele>178.0</ele>
      </trkpt>
      <trkpt lat="23.412006" lon="120.546863">
        <ele>178.0</ele>
      </trkpt>
      <trkpt lat="23.411687" lon="120.547228">
        <ele>178.0</ele>
      </trkpt>
      <trkpt lat="23.411551" lon="120.547408">
        <ele>177.0</ele>
      </trkpt>
      <trkpt lat="23.411584" lon="120.547447">
        <ele>176.0</ele>
      </trkpt>
      <trkpt lat="23.411912" lon="120.547759">
        <ele>176.0</ele>
      </trkpt>
      <trkpt lat="23.411963" lon="120.547779">
        <ele>176.0</ele>
      </trkpt>
      <trkpt lat="23.41211" lon="120.547809">
        <ele>176.0</ele>
      </trkpt>
      <trkpt lat="23.412255" lon="120.547966">
        <ele>177.0</ele>
      </trkpt>
      <trkpt lat="23.412208" lon="120.547995">
        <ele>177.0</ele>
      </trkpt>
      <trkpt lat="23.412208" lon="120.547995">
        <ele>177.0</ele>
      </trkpt>
      <trkpt lat="23.410406" lon="120.549115">
        <ele>183.0</ele>
      </trkpt>
      <trkpt lat="23.409651" lon="120.549401">
        <ele>188.0</ele>
      </trkpt>
      <trkpt lat="23.409462" lon="120.549547">
        <ele>190.0</ele>
      </trkpt>
      <trkpt lat="23.409137" lon="120.54988">
        <ele>195.0</ele>
      </trkpt>
      <trkpt lat="23.409057" lon="120.549921">
        <ele>196.0</ele>
      </trkpt>
      <trkpt lat="23.408686" lon="120.550055">
        <ele>198.0</ele>
      </trkpt>
      <trkpt lat="23.407387" lon="120.550867">
        <ele>203.0</ele>
      </trkpt>
      <trkpt lat="23.406814" lon="120.551151">
        <ele>204.0</ele>
      </trkpt>
      <trkpt lat="23.4061" lon="120.551575">
        <ele>206.0</ele>
      </trkpt>
      <trkpt lat="23.405987" lon="120.55169">
        <ele>206.0</ele>
      </trkpt>
      <trkpt lat="23.405783" lon="120.552015">
        <ele>209.0</ele>
      </trkpt>
      <trkpt lat="23.405881" lon="120.55233">
        <ele>214.0</ele>
      </trkpt>
      <trkpt lat="23.405905" lon="120.552458">
        <ele>216.0</ele>
      </trkpt>
      <trkpt lat="23.405899" lon="120.552513">
        <ele>217.0</ele>
      </trkpt>
      <trkpt lat="23.405733" lon="120.552951">
        <ele>222.0</ele>
      </trkpt>
      <trkpt lat="23.405718" lon="120.553037">
        <ele>224.0</ele>
      </trkpt>
      <trkpt lat="23.40568" lon="120.553521">
        <ele>227.0</ele>
      </trkpt>
      <trkpt lat="23.405697" lon="120.553713">
        <ele>225.0</ele>
      </trkpt>
      <trkpt lat="23.405713" lon="120.553755">
        <ele>225.0</ele>
      </trkpt>
      <trkpt lat="23.405743" lon="120.553786">
        <ele>226.0</ele>
      </trkpt>
      <trkpt lat="23.405803" lon="120.553802">
        <ele>227.0</ele>
      </trkpt>
      <trkpt lat="23.406026" lon="120.553794">
        <ele>235.0</ele>
      </trkpt>
      <trkpt lat="23.406144" lon="120.553831">
        <ele>240.0</ele>
      </trkpt>
      <trkpt lat="23.406278" lon="120.553936">
        <ele>245.0</ele>
      </trkpt>
      <trkpt lat="23.406462" lon="120.554128">
        <ele>253.0</ele>
      </trkpt>
      <trkpt lat="23.40649" lon="120.554226">
        <ele>253.0</ele>
      </trkpt>
      <trkpt lat="23.406468" lon="120.554404">
        <ele>248.0</ele>
      </trkpt>
      <trkpt lat="23.406483" lon="120.554515">
        <ele>246.0</ele>
      </trkpt>
      <trkpt lat="23.40658" lon="120.554758">
        <ele>245.0</ele>
      </trkpt>
      <trkpt lat="23.406874" lon="120.555311">
        <ele>246.0</ele>
      </trkpt>
      <trkpt lat="23.406954" lon="120.555556">
        <ele>244.0</ele>
      </trkpt>
      <trkpt lat="23.407021" lon="120.555659">
        <ele>244.0</ele>
      </trkpt>
      <trkpt lat="23.407333" lon="120.555956">
        <ele>251.0</ele>
      </trkpt>
      <trkpt lat="23.407642" lon="120.556522">
        <ele>251.0</ele>
      </trkpt>
      <trkpt lat="23.407734" lon="120.556778">
        <ele>252.0</ele>
      </trkpt>
      <trkpt lat="23.40778" lon="120.556987">
        <ele>254.0</ele>
      </trkpt>
      <trkpt lat="23.407817" lon="120.557298">
        <ele>254.0</ele>
      </trkpt>
      <trkpt lat="23.407819" lon="120.557524">
        <ele>253.0</ele>
      </trkpt>
      <trkpt lat="23.40788" lon="120.557728">
        <ele>258.0</ele>
      </trkpt>
      <trkpt lat="23.407891" lon="120.557854">
        <ele>260.0</ele>
      </trkpt>
      <trkpt lat="23.407889" lon="120.557994">
        <ele>260.0</ele>
      </trkpt>
      <trkpt lat="23.407871" lon="120.558084">
        <ele>260.0</ele>
      </trkpt>
      <trkpt lat="23.407832" lon="120.558239">
        <ele>258.0</ele>
      </trkpt>
      <trkpt lat="23.407745" lon="120.558483">
        <ele>254.0</ele>
      </trkpt>
      <trkpt lat="23.407851" lon="120.559299">
        <ele>272.0</ele>
      </trkpt>
      <trkpt lat="23.407867" lon="120.559793">
        <ele>280.0</ele>
      </trkpt>
      <trkpt lat="23.40786" lon="120.559901">
        <ele>281.0</ele>
      </trkpt>
      <trkpt lat="23.407833" lon="120.559937">
        <ele>280.0</ele>
      </trkpt>
      <trkpt lat="23.40763" lon="120.560063">
        <ele>270.0</ele>
      </trkpt>
      <trkpt lat="23.407596" lon="120.560131">
        <ele>269.0</ele>
      </trkpt>
      <trkpt lat="23.40749" lon="120.560585">
        <ele>272.0</ele>
      </trkpt>
      <trkpt lat="23.4075" lon="120.560793">
        <ele>275.0</ele>
      </trkpt>
      <trkpt lat="23.407481" lon="120.560888">
        <ele>276.0</ele>
      </trkpt>
      <trkpt lat="23.40749" lon="120.560971">
        <ele>278.0</ele>
      </trkpt>
      <trkpt lat="23.407424" lon="120.561157">
        <ele>280.0</ele>
      </trkpt>
      <trkpt lat="23.40738" lon="120.56133">
        <ele>282.0</ele>
      </trkpt>
      <trkpt lat="23.407376" lon="120.561464">
        <ele>284.0</ele>
      </trkpt>
      <trkpt lat="23.407443" lon="120.562107">
        <ele>296.0</ele>
      </trkpt>
      <trkpt lat="23.407431" lon="120.562273">
        <ele>299.0</ele>
      </trkpt>
      <trkpt lat="23.4074" lon="120.562344">
        <ele>300.0</ele>
      </trkpt>
      <trkpt lat="23.407296" lon="120.56241">
        <ele>299.0</ele>
      </trkpt>
      <trkpt lat="23.40671" lon="120.562555">
        <ele>294.0</ele>
      </trkpt>
      <trkpt lat="23.406657" lon="120.562697">
        <ele>296.0</ele>
      </trkpt>
      <trkpt lat="23.406633" lon="120.562866">
        <ele>299.0</ele>
      </trkpt>
      <trkpt lat="23.406594" lon="120.562969">
        <ele>300.0</ele>
      </trkpt>
      <trkpt lat="23.406569" lon="120.563007">
        <ele>300.0</ele>
      </trkpt>
      <trkpt lat="23.406411" lon="120.563145">
        <ele>299.0</ele>
      </trkpt>
      <trkpt lat="23.406387" lon="120.563192">
        <ele>299.0</ele>
      </trkpt>
      <trkpt lat="23.406265" lon="120.563976">
        <ele>302.0</ele>
      </trkpt>
      <trkpt lat="23.406285" lon="120.564122">
        <ele>304.0</ele>
      </trkpt>
      <trkpt lat="23.406355" lon="120.56423">
        <ele>308.0</ele>
      </trkpt>
      <trkpt lat="23.406833" lon="120.564645">
        <ele>322.0</ele>
      </trkpt>
      <trkpt lat="23.406883" lon="120.564697">
        <ele>323.0</ele>
      </trkpt>
      <trkpt lat="23.406962" lon="120.564825">
        <ele>325.0</ele>
      </trkpt>
      <trkpt lat="23.406982" lon="120.564871">
        <ele>326.0</ele>
      </trkpt>
      <trkpt lat="23.406983" lon="120.564918">
        <ele>325.0</ele>
      </trkpt>
      <trkpt lat="23.406868" lon="120.565242">
        <ele>321.0</ele>
      </trkpt>
      <trkpt lat="23.40686" lon="120.565374">
        <ele>321.0</ele>
      </trkpt>
      <trkpt lat="23.40695" lon="120.565593">
        <ele>323.0</ele>
      </trkpt>
      <trkpt lat="23.40709" lon="120.565757">
        <ele>327.0</ele>
      </trkpt>
      <trkpt lat="23.407585" lon="120.566151">
        <ele>339.0</ele>
      </trkpt>
      <trkpt lat="23.407842" lon="120.566312">
        <ele>346.0</ele>
      </trkpt>
      <trkpt lat="23.407882" lon="120.56636">
        <ele>347.0</ele>
      </trkpt>
      <trkpt lat="23.408147" lon="120.566827">
        <ele>352.0</ele>
      </trkpt>
      <trkpt lat="23.408166" lon="120.567102">
        <ele>355.0</ele>
      </trkpt>
      <trkpt lat="23.408221" lon="120.567343">
        <ele>359.0</ele>
      </trkpt>
      <trkpt lat="23.408234" lon="120.567469">
        <ele>360.0</ele>
      </trkpt>
      <trkpt lat="23.408222" lon="120.567523">
        <ele>360.0</ele>
      </trkpt>
      <trkpt lat="23.408097" lon="120.567638">
        <ele>358.0</ele>
      </trkpt>
      <trkpt lat="23.40807" lon="120.567748">
        <ele>358.0</ele>
      </trkpt>
      <trkpt lat="23.408078" lon="120.567861">
        <ele>359.0</ele>
      </trkpt>
      <trkpt lat="23.40817" lon="120.56806">
        <ele>363.0</ele>
      </trkpt>
      <trkpt lat="23.408225" lon="120.568311">
        <ele>366.0</ele>
      </trkpt>
      <trkpt lat="23.408226" lon="120.568393">
        <ele>367.0</ele>
      </trkpt>
      <trkpt lat="23.408209" lon="120.56853">
        <ele>369.0</ele>
      </trkpt>
      <trkpt lat="23.408131" lon="120.56881">
        <ele>370.0</ele>
      </trkpt>
      <trkpt lat="23.407836" lon="120.569391">
        <ele>374.0</ele>
      </trkpt>
      <trkpt lat="23.407623" lon="120.569659">
        <ele>377.0</ele>
      </trkpt>
      <trkpt lat="23.407491" lon="120.569898">
        <ele>381.0</ele>
      </trkpt>
      <trkpt lat="23.407246" lon="120.570059">
        <ele>385.0</ele>
      </trkpt>
      <trkpt lat="23.407204" lon="120.570092">
        <ele>385.0</ele>
      </trkpt>
      <trkpt lat="23.407177" lon="120.570143">
        <ele>386.0</ele>
      </trkpt>
      <trkpt lat="23.407224" lon="120.570425">
        <ele>393.0</ele>
      </trkpt>
      <trkpt lat="23.407224" lon="120.570747">
        <ele>399.0</ele>
      </trkpt>
      <trkpt lat="23.407217" lon="120.570795">
        <ele>400.0</ele>
      </trkpt>
      <trkpt lat="23.407047" lon="120.571203">
        <ele>408.0</ele>
      </trkpt>
      <trkpt lat="23.407047" lon="120.571203">
        <ele>408.0</ele>
      </trkpt>
      <trkpt lat="23.40702" lon="120.571291">
        <ele>409.0</ele>
      </trkpt>
      <trkpt lat="23.407037" lon="120.571326">
        <ele>410.0</ele>
      </trkpt>
      <trkpt lat="23.407099" lon="120.571355">
        <ele>410.0</ele>
      </trkpt>
      <trkpt lat="23.40686" lon="120.571529">
        <ele>413.0</ele>
      </trkpt>
      <trkpt lat="23.406584" lon="120.571443">
        <ele>413.0</ele>
      </trkpt>
      <trkpt lat="23.40621" lon="120.571658">
        <ele>425.0</ele>
      </trkpt>
      <trkpt lat="23.405954" lon="120.571486">
        <ele>427.0</ele>
      </trkpt>
      <trkpt lat="23.405875" lon="120.571143">
        <ele>421.0</ele>
      </trkpt>
      <trkpt lat="23.405087" lon="120.570607">
        <ele>435.0</ele>
      </trkpt>
      <trkpt lat="23.404891" lon="120.570757">
        <ele>442.0</ele>
      </trkpt>
      <trkpt lat="23.404359" lon="120.569984">
        <ele>420.0</ele>
      </trkpt>
      <trkpt lat="23.404265" lon="120.570168">
        <ele>426.0</ele>
      </trkpt>
      <trkpt lat="23.404265" lon="120.570168">
        <ele>426.0</ele>
      </trkpt>
      <trkpt lat="23.404083" lon="120.570521">
        <ele>428.0</ele>
      </trkpt>
      <trkpt lat="23.404142" lon="120.571336">
        <ele>456.0</ele>
      </trkpt>
      <trkpt lat="23.403985" lon="120.571894">
        <ele>455.0</ele>
      </trkpt>
      <trkpt lat="23.403945" lon="120.572409">
        <ele>460.0</ele>
      </trkpt>
      <trkpt lat="23.403985" lon="120.573696">
        <ele>494.0</ele>
      </trkpt>
      <trkpt lat="23.403768" lon="120.574362">
        <ele>498.0</ele>
      </trkpt>
      <trkpt lat="23.403788" lon="120.574941">
        <ele>508.0</ele>
      </trkpt>
      <trkpt lat="23.403827" lon="120.575435">
        <ele>508.0</ele>
      </trkpt>
      <trkpt lat="23.404031" lon="120.575809">
        <ele>512.0</ele>
      </trkpt>
      <trkpt lat="23.4042" lon="120.575978">
        <ele>517.0</ele>
      </trkpt>
      <trkpt lat="23.404353" lon="120.576255">
        <ele>519.0</ele>
      </trkpt>
      <trkpt lat="23.404438" lon="120.576323">
        <ele>520.0</ele>
      </trkpt>
      <trkpt lat="23.404631" lon="120.576578">
        <ele>525.0</ele>
      </trkpt>
      <trkpt lat="23.404708" lon="120.57676">
        <ele>529.0</ele>
      </trkpt>
      <trkpt lat="23.40445" lon="120.577034">
        <ele>530.0</ele>
      </trkpt>
      <trkpt lat="23.40445" lon="120.577034">
        <ele>530.0</ele>
      </trkpt>
      <trkpt lat="23.40428" lon="120.577215">
        <ele>530.0</ele>
      </trkpt>
      <trkpt lat="23.404241" lon="120.577752">
        <ele>542.0</ele>
      </trkpt>
      <trkpt lat="23.404123" lon="120.578245">
        <ele>554.0</ele>
      </trkpt>
      <trkpt lat="23.404221" lon="120.57846">
        <ele>562.0</ele>
      </trkpt>
      <trkpt lat="23.404575" lon="120.578503">
        <ele>570.0</ele>
      </trkpt>
      <trkpt lat="23.404713" lon="120.578739">
        <ele>577.0</ele>
      </trkpt>
      <trkpt lat="23.404556" lon="120.578803">
        <ele>575.0</ele>
      </trkpt>
      <trkpt lat="23.404615" lon="120.579018">
        <ele>581.0</ele>
      </trkpt>
      <trkpt lat="23.40491" lon="120.578975">
        <ele>588.0</ele>
      </trkpt>
      <trkpt lat="23.405167" lon="120.57956">
        <ele>595.0</ele>
      </trkpt>
      <trkpt lat="23.405167" lon="120.57956">
        <ele>595.0</ele>
      </trkpt>
      <trkpt lat="23.405343" lon="120.579962">
        <ele>595.0</ele>
      </trkpt>
      <trkpt lat="23.405588" lon="120.579889">
        <ele>594.0</ele>
      </trkpt>
      <trkpt lat="23.405709" lon="120.579655">
        <ele>593.0</ele>
      </trkpt>
      <trkpt lat="23.405709" lon="120.579655">
        <ele>593.0</ele>
      </trkpt>
      <trkpt lat="23.405896" lon="120.579291">
        <ele>591.0</ele>
      </trkpt>
      <trkpt lat="23.406016" lon="120.578936">
        <ele>585.0</ele>
      </trkpt>
      <trkpt lat="23.406051" lon="120.578432">
        <ele>576.0</ele>
      </trkpt>
      <trkpt lat="23.406145" lon="120.578394">
        <ele>573.0</ele>
      </trkpt>
      <trkpt lat="23.406231" lon="120.57846">
        <ele>572.0</ele>
      </trkpt>
      <trkpt lat="23.406351" lon="120.578357">
        <ele>568.0</ele>
      </trkpt>
      <trkpt lat="23.406291" lon="120.577983">
        <ele>562.0</ele>
      </trkpt>
      <trkpt lat="23.406423" lon="120.577658">
        <ele>554.0</ele>
      </trkpt>
      <trkpt lat="23.406577" lon="120.577501">
        <ele>550.0</ele>
      </trkpt>
      <trkpt lat="23.406714" lon="120.577197">
        <ele>544.0</ele>
      </trkpt>
      <trkpt lat="23.406675" lon="120.577056">
        <ele>542.0</ele>
      </trkpt>
      <trkpt lat="23.406785" lon="120.576553">
        <ele>530.0</ele>
      </trkpt>
      <trkpt lat="23.40674" lon="120.576341">
        <ele>525.0</ele>
      </trkpt>
      <trkpt lat="23.406753" lon="120.57622">
        <ele>521.0</ele>
      </trkpt>
      <trkpt lat="23.407026" lon="120.575944">
        <ele>512.0</ele>
      </trkpt>
      <trkpt lat="23.407136" lon="120.57564">
        <ele>505.0</ele>
      </trkpt>
      <trkpt lat="23.407337" lon="120.575583">
        <ele>503.0</ele>
      </trkpt>
      <trkpt lat="23.407357" lon="120.575406">
        <ele>499.0</ele>
      </trkpt>
      <trkpt lat="23.407129" lon="120.57542">
        <ele>500.0</ele>
      </trkpt>
      <trkpt lat="23.406974" lon="120.57547">
        <ele>501.0</ele>
      </trkpt>
      <trkpt lat="23.406701" lon="120.575597">
        <ele>505.0</ele>
      </trkpt>
      <trkpt lat="23.406525" lon="120.57581">
        <ele>509.0</ele>
      </trkpt>
      <trkpt lat="23.406298" lon="120.575888">
        <ele>510.0</ele>
      </trkpt>
      <trkpt lat="23.406298" lon="120.575327">
        <ele>498.0</ele>
      </trkpt>
      <trkpt lat="23.406298" lon="120.575327">
        <ele>498.0</ele>
      </trkpt>
      <trkpt lat="23.406298" lon="120.574918">
        <ele>490.0</ele>
      </trkpt>
      <trkpt lat="23.406547" lon="120.574634">
        <ele>482.0</ele>
      </trkpt>
      <trkpt lat="23.406921" lon="120.574355">
        <ele>473.0</ele>
      </trkpt>
      <trkpt lat="23.406973" lon="120.574198">
        <ele>468.0</ele>
      </trkpt>
      <trkpt lat="23.406972" lon="120.574198">
        <ele>468.0</ele>
      </trkpt>
      <trkpt lat="23.40704" lon="120.573991">
        <ele>462.0</ele>
      </trkpt>
      <trkpt lat="23.406967" lon="120.573219">
        <ele>441.0</ele>
      </trkpt>
      <trkpt lat="23.406935" lon="120.573">
        <ele>437.0</ele>
      </trkpt>
      <trkpt lat="23.407253" lon="120.572311">
        <ele>427.0</ele>
      </trkpt>
      <trkpt lat="23.407253" lon="120.572311">
        <ele>427.0</ele>
      </trkpt>
      <trkpt lat="23.407292" lon="120.572228">
        <ele>426.0</ele>
      </trkpt>
      <trkpt lat="23.407513" lon="120.57215">
        <ele>425.0</ele>
      </trkpt>
      <trkpt lat="23.407576" lon="120.571952">
        <ele>422.0</ele>
      </trkpt>
      <trkpt lat="23.40763" lon="120.571857">
        <ele>421.0</ele>
      </trkpt>
      <trkpt lat="23.407569" lon="120.571849">
        <ele>420.0</ele>
      </trkpt>
      <trkpt lat="23.407497" lon="120.57164">
        <ele>417.0</ele>
      </trkpt>
      <trkpt lat="23.407498" lon="120.571565">
        <ele>415.0</ele>
      </trkpt>
      <trkpt lat="23.407521" lon="120.571501">
        <ele>414.0</ele>
      </trkpt>
      <trkpt lat="23.407827" lon="120.571066">
        <ele>409.0</ele>
      </trkpt>
      <trkpt lat="23.407839" lon="120.571008">
        <ele>408.0</ele>
      </trkpt>
      <trkpt lat="23.407814" lon="120.570904">
        <ele>406.0</ele>
      </trkpt>
      <trkpt lat="23.407783" lon="120.570851">
        <ele>405.0</ele>
      </trkpt>
      <trkpt lat="23.407742" lon="120.57083">
        <ele>404.0</ele>
      </trkpt>
      <trkpt lat="23.407699" lon="120.570834">
        <ele>404.0</ele>
      </trkpt>
      <trkpt lat="23.407645" lon="120.570868">
        <ele>404.0</ele>
      </trkpt>
      <trkpt lat="23.407256" lon="120.571229">
        <ele>409.0</ele>
      </trkpt>
      <trkpt lat="23.407099" lon="120.571355">
        <ele>410.0</ele>
      </trkpt>
      <trkpt lat="23.407037" lon="120.571326">
        <ele>410.0</ele>
      </trkpt>
      <trkpt lat="23.40702" lon="120.571291">
        <ele>409.0</ele>
      </trkpt>
      <trkpt lat="23.407047" lon="120.571203">
        <ele>408.0</ele>
      </trkpt>
      <trkpt lat="23.407047" lon="120.571203">
        <ele>408.0</ele>
      </trkpt>
      <trkpt lat="23.407217" lon="120.570795">
        <ele>400.0</ele>
      </trkpt>
      <trkpt lat="23.407224" lon="120.570747">
        <ele>399.0</ele>
      </trkpt>
      <trkpt lat="23.407224" lon="120.570425">
        <ele>393.0</ele>
      </trkpt>
      <trkpt lat="23.407177" lon="120.570143">
        <ele>386.0</ele>
      </trkpt>
      <trkpt lat="23.407204" lon="120.570092">
        <ele>385.0</ele>
      </trkpt>
      <trkpt lat="23.407246" lon="120.570059">
        <ele>385.0</ele>
      </trkpt>
      <trkpt lat="23.407491" lon="120.569898">
        <ele>381.0</ele>
      </trkpt>
      <trkpt lat="23.407623" lon="120.569659">
        <ele>377.0</ele>
      </trkpt>
      <trkpt lat="23.407836" lon="120.569391">
        <ele>374.0</ele>
      </trkpt>
      <trkpt lat="23.408131" lon="120.56881">
        <ele>370.0</ele>
      </trkpt>
      <trkpt lat="23.408209" lon="120.56853">
        <ele>369.0</ele>
      </trkpt>
      <trkpt lat="23.408226" lon="120.568393">
        <ele>367.0</ele>
      </trkpt>
      <trkpt lat="23.408225" lon="120.568311">
        <ele>366.0</ele>
      </trkpt>
      <trkpt lat="23.40817" lon="120.56806">
        <ele>363.0</ele>
      </trkpt>
      <trkpt lat="23.408078" lon="120.567861">
        <ele>359.0</ele>
      </trkpt>
      <trkpt lat="23.40807" lon="120.567748">
        <ele>358.0</ele>
      </trkpt>
      <trkpt lat="23.408097" lon="120.567638">
        <ele>358.0</ele>
      </trkpt>
      <trkpt lat="23.408222" lon="120.567523">
        <ele>360.0</ele>
      </trkpt>
      <trkpt lat="23.408234" lon="120.567469">
        <ele>360.0</ele>
      </trkpt>
      <trkpt lat="23.408221" lon="120.567343">
        <ele>359.0</ele>
      </trkpt>
      <trkpt lat="23.408166" lon="120.567102">
        <ele>355.0</ele>
      </trkpt>
      <trkpt lat="23.408147" lon="120.566827">
        <ele>352.0</ele>
      </trkpt>
      <trkpt lat="23.407882" lon="120.56636">
        <ele>347.0</ele>
      </trkpt>
      <trkpt lat="23.407842" lon="120.566312">
        <ele>346.0</ele>
      </trkpt>
      <trkpt lat="23.407585" lon="120.566151">
        <ele>339.0</ele>
      </trkpt>
      <trkpt lat="23.40709" lon="120.565757">
        <ele>327.0</ele>
      </trkpt>
      <trkpt lat="23.40695" lon="120.565593">
        <ele>323.0</ele>
      </trkpt>
      <trkpt lat="23.40686" lon="120.565374">
        <ele>321.0</ele>
      </trkpt>
      <trkpt lat="23.406868" lon="120.565242">
        <ele>321.0</ele>
      </trkpt>
      <trkpt lat="23.406983" lon="120.564918">
        <ele>325.0</ele>
      </trkpt>
      <trkpt lat="23.406982" lon="120.564871">
        <ele>326.0</ele>
      </trkpt>
      <trkpt lat="23.406962" lon="120.564825">
        <ele>325.0</ele>
      </trkpt>
      <trkpt lat="23.406883" lon="120.564697">
        <ele>323.0</ele>
      </trkpt>
      <trkpt lat="23.406833" lon="120.564645">
        <ele>322.0</ele>
      </trkpt>
      <trkpt lat="23.406355" lon="120.56423">
        <ele>308.0</ele>
      </trkpt>
      <trkpt lat="23.406285" lon="120.564122">
        <ele>304.0</ele>
      </trkpt>
      <trkpt lat="23.406265" lon="120.563976">
        <ele>302.0</ele>
      </trkpt>
      <trkpt lat="23.406387" lon="120.563192">
        <ele>299.0</ele>
      </trkpt>
      <trkpt lat="23.406411" lon="120.563145">
        <ele>299.0</ele>
      </trkpt>
      <trkpt lat="23.406569" lon="120.563007">
        <ele>300.0</ele>
      </trkpt>
      <trkpt lat="23.406594" lon="120.562969">
        <ele>300.0</ele>
      </trkpt>
      <trkpt lat="23.406633" lon="120.562866">
        <ele>299.0</ele>
      </trkpt>
      <trkpt lat="23.406657" lon="120.562697">
        <ele>296.0</ele>
      </trkpt>
      <trkpt lat="23.40671" lon="120.562555">
        <ele>294.0</ele>
      </trkpt>
      <trkpt lat="23.407296" lon="120.56241">
        <ele>299.0</ele>
      </trkpt>
      <trkpt lat="23.4074" lon="120.562344">
        <ele>300.0</ele>
      </trkpt>
      <trkpt lat="23.407431" lon="120.562273">
        <ele>299.0</ele>
      </trkpt>
      <trkpt lat="23.407443" lon="120.562107">
        <ele>296.0</ele>
      </trkpt>
      <trkpt lat="23.407376" lon="120.561464">
        <ele>284.0</ele>
      </trkpt>
      <trkpt lat="23.40738" lon="120.56133">
        <ele>282.0</ele>
      </trkpt>
      <trkpt lat="23.407424" lon="120.561157">
        <ele>280.0</ele>
      </trkpt>
      <trkpt lat="23.40749" lon="120.560971">
        <ele>278.0</ele>
      </trkpt>
      <trkpt lat="23.407481" lon="120.560888">
        <ele>276.0</ele>
      </trkpt>
      <trkpt lat="23.4075" lon="120.560793">
        <ele>275.0</ele>
      </trkpt>
      <trkpt lat="23.40749" lon="120.560585">
        <ele>272.0</ele>
      </trkpt>
      <trkpt lat="23.407596" lon="120.560131">
        <ele>269.0</ele>
      </trkpt>
      <trkpt lat="23.40763" lon="120.560063">
        <ele>270.0</ele>
      </trkpt>
      <trkpt lat="23.407833" lon="120.559937">
        <ele>280.0</ele>
      </trkpt>
      <trkpt lat="23.40786" lon="120.559901">
        <ele>281.0</ele>
      </trkpt>
      <trkpt lat="23.407867" lon="120.559793">
        <ele>280.0</ele>
      </trkpt>
      <trkpt lat="23.407851" lon="120.559299">
        <ele>272.0</ele>
      </trkpt>
      <trkpt lat="23.407745" lon="120.558483">
        <ele>254.0</ele>
      </trkpt>
      <trkpt lat="23.407832" lon="120.558239">
        <ele>258.0</ele>
      </trkpt>
      <trkpt lat="23.407871" lon="120.558084">
        <ele>260.0</ele>
      </trkpt>
      <trkpt lat="23.407889" lon="120.557994">
        <ele>260.0</ele>
      </trkpt>
      <trkpt lat="23.407891" lon="120.557854">
        <ele>260.0</ele>
      </trkpt>
      <trkpt lat="23.40788" lon="120.557728">
        <ele>258.0</ele>
      </trkpt>
      <trkpt lat="23.407819" lon="120.557524">
        <ele>253.0</ele>
      </trkpt>
      <trkpt lat="23.407817" lon="120.557298">
        <ele>254.0</ele>
      </trkpt>
      <trkpt lat="23.40778" lon="120.556987">
        <ele>254.0</ele>
      </trkpt>
      <trkpt lat="23.407734" lon="120.556778">
        <ele>252.0</ele>
      </trkpt>
      <trkpt lat="23.407642" lon="120.556522">
        <ele>251.0</ele>
      </trkpt>
      <trkpt lat="23.407333" lon="120.555956">
        <ele>251.0</ele>
      </trkpt>
      <trkpt lat="23.407021" lon="120.555659">
        <ele>244.0</ele>
      </trkpt>
      <trkpt lat="23.406954" lon="120.555556">
        <ele>244.0</ele>
      </trkpt>
      <trkpt lat="23.406874" lon="120.555311">
        <ele>246.0</ele>
      </trkpt>
      <trkpt lat="23.40658" lon="120.554758">
        <ele>245.0</ele>
      </trkpt>
      <trkpt lat="23.406483" lon="120.554515">
        <ele>246.0</ele>
      </trkpt>
      <trkpt lat="23.406468" lon="120.554404">
        <ele>248.0</ele>
      </trkpt>
      <trkpt lat="23.40649" lon="120.554226">
        <ele>253.0</ele>
      </trkpt>
      <trkpt lat="23.406462" lon="120.554128">
        <ele>253.0</ele>
      </trkpt>
      <trkpt lat="23.406278" lon="120.553936">
        <ele>245.0</ele>
      </trkpt>
      <trkpt lat="23.406144" lon="120.553831">
        <ele>240.0</ele>
      </trkpt>
      <trkpt lat="23.406026" lon="120.553794">
        <ele>235.0</ele>
      </trkpt>
      <trkpt lat="23.405803" lon="120.553802">
        <ele>227.0</ele>
      </trkpt>
      <trkpt lat="23.405743" lon="120.553786">
        <ele>226.0</ele>
      </trkpt>
      <trkpt lat="23.405713" lon="120.553755">
        <ele>225.0</ele>
      </trkpt>
      <trkpt lat="23.405697" lon="120.553713">
        <ele>225.0</ele>
      </trkpt>
      <trkpt lat="23.40568" lon="120.553521">
        <ele>227.0</ele>
      </trkpt>
      <trkpt lat="23.405718" lon="120.553037">
        <ele>224.0</ele>
      </trkpt>
      <trkpt lat="23.405733" lon="120.552951">
        <ele>222.0</ele>
      </trkpt>
      <trkpt lat="23.405899" lon="120.552513">
        <ele>217.0</ele>
      </trkpt>
      <trkpt lat="23.405905" lon="120.552458">
        <ele>216.0</ele>
      </trkpt>
      <trkpt lat="23.405881" lon="120.55233">
        <ele>214.0</ele>
      </trkpt>
      <trkpt lat="23.405783" lon="120.552015">
        <ele>209.0</ele>
      </trkpt>
      <trkpt lat="23.405987" lon="120.55169">
        <ele>206.0</ele>
      </trkpt>
      <trkpt lat="23.4061" lon="120.551575">
        <ele>206.0</ele>
      </trkpt>
      <trkpt lat="23.406814" lon="120.551151">
        <ele>204.0</ele>
      </trkpt>
      <trkpt lat="23.407387" lon="120.550867">
        <ele>203.0</ele>
      </trkpt>
      <trkpt lat="23.408686" lon="120.550055">
        <ele>198.0</ele>
      </trkpt>
      <trkpt lat="23.409057" lon="120.549921">
        <ele>196.0</ele>
      </trkpt>
      <trkpt lat="23.409137" lon="120.54988">
        <ele>195.0</ele>
      </trkpt>
      <trkpt lat="23.409462" lon="120.549547">
        <ele>190.0</ele>
      </trkpt>
      <trkpt lat="23.409651" lon="120.549401">
        <ele>188.0</ele>
      </trkpt>
      <trkpt lat="23.410406" lon="120.549115">
        <ele>183.0</ele>
      </trkpt>
      <trkpt lat="23.412208" lon="120.547995">
        <ele>177.0</ele>
      </trkpt>
      <trkpt lat="23.412208" lon="120.547995">
        <ele>177.0</ele>
      </trkpt>
      <trkpt lat="23.412255" lon="120.547966">
        <ele>177.0</ele>
      </trkpt>
      <trkpt lat="23.41211" lon="120.547809">
        <ele>176.0</ele>
      </trkpt>
      <trkpt lat="23.411963" lon="120.547779">
        <ele>176.0</ele>
      </trkpt>
      <trkpt lat="23.411912" lon="120.547759">
        <ele>176.0</ele>
      </trkpt>
      <trkpt lat="23.411584" lon="120.547447">
        <ele>176.0</ele>
      </trkpt>
      <trkpt lat="23.411551" lon="120.547408">
        <ele>177.0</ele>
      </trkpt>
      <trkpt lat="23.411687" lon="120.547228">
        <ele>178.0</ele>
      </trkpt>
      <trkpt lat="23.412006" lon="120.546863">
        <ele>178.0</ele>
      </trkpt>
      <trkpt lat="23.412236" lon="120.546632">
        <ele>178.0</ele>
      </trkpt>
      <trkpt lat="23.412483" lon="120.546423">
        <ele>180.0</ele>
      </trkpt>
      <trkpt lat="23.412699" lon="120.546267">
        <ele>182.0</ele>
      </trkpt>
      <trkpt lat="23.41311" lon="120.546075">
        <ele>182.0</ele>
      </trkpt>
      <trkpt lat="23.413594" lon="120.545958">
        <ele>178.0</ele>
      </trkpt>
      <trkpt lat="23.414076" lon="120.545784">
        <ele>175.0</ele>
      </trkpt>
      <trkpt lat="23.414569" lon="120.545712">
        <ele>172.0</ele>
      </trkpt>
      <trkpt lat="23.414964" lon="120.545515">
        <ele>170.0</ele>
      </trkpt>
      <trkpt lat="23.416219" lon="120.544686">
        <ele>163.0</ele>
      </trkpt>
      <trkpt lat="23.416541" lon="120.544433">
        <ele>161.0</ele>
      </trkpt>
      <trkpt lat="23.416789" lon="120.544159">
        <ele>159.0</ele>
      </trkpt>
      <trkpt lat="23.416343" lon="120.543809">
        <ele>161.0</ele>
      </trkpt>
      <trkpt lat="23.416291" lon="120.543733">
        <ele>162.0</ele>
      </trkpt>
      <trkpt lat="23.416279" lon="120.543662">
        <ele>162.0</ele>
      </trkpt>
      <trkpt lat="23.416294" lon="120.543537">
        <ele>162.0</ele>
      </trkpt>
      <trkpt lat="23.416327" lon="120.543492">
        <ele>162.0</ele>
      </trkpt>
      <trkpt lat="23.416407" lon="120.54342">
        <ele>161.0</ele>
      </trkpt>
      <trkpt lat="23.416936" lon="120.543226">
        <ele>159.0</ele>
      </trkpt>
      <trkpt lat="23.416983" lon="120.54313">
        <ele>159.0</ele>
      </trkpt>
      <trkpt lat="23.416991" lon="120.543013">
        <ele>158.0</ele>
      </trkpt>
      <trkpt lat="23.416927" lon="120.541847">
        <ele>157.0</ele>
      </trkpt>
      <trkpt lat="23.416914" lon="120.541753">
        <ele>157.0</ele>
      </trkpt>
      <trkpt lat="23.416759" lon="120.541309">
        <ele>156.0</ele>
      </trkpt>
      <trkpt lat="23.416647" lon="120.541045">
        <ele>155.0</ele>
      </trkpt>
      <trkpt lat="23.416629" lon="120.540972">
        <ele>155.0</ele>
      </trkpt>
      <trkpt lat="23.416561" lon="120.538927">
        <ele>150.0</ele>
      </trkpt>
      <trkpt lat="23.416583" lon="120.538746">
        <ele>149.0</ele>
      </trkpt>
      <trkpt lat="23.416713" lon="120.538415">
        <ele>148.0</ele>
      </trkpt>
      <trkpt lat="23.416808" lon="120.538025">
        <ele>147.0</ele>
      </trkpt>
      <trkpt lat="23.416865" lon="120.537562">
        <ele>145.0</ele>
      </trkpt>
      <trkpt lat="23.41687" lon="120.537369">
        <ele>144.0</ele>
      </trkpt>
      <trkpt lat="23.416629" lon="120.537057">
        <ele>144.0</ele>
      </trkpt>
      <trkpt lat="23.416358" lon="120.537284">
        <ele>147.0</ele>
      </trkpt>
      <trkpt lat="23.416265" lon="120.537165">
        <ele>148.0</ele>
      </trkpt>
      <trkpt lat="23.416103" lon="120.537052">
        <ele>149.0</ele>
      </trkpt>
      <trkpt lat="23.415876" lon="120.537165">
        <ele>151.0</ele>
      </trkpt>
      <trkpt lat="23.415775" lon="120.537308">
        <ele>154.0</ele>
      </trkpt>
      <trkpt lat="23.415659" lon="120.537336">
        <ele>156.0</ele>
      </trkpt>
      <trkpt lat="23.415475" lon="120.53712">
        <ele>161.0</ele>
      </trkpt>
      <trkpt lat="23.415566" lon="120.536767">
        <ele>158.0</ele>
      </trkpt>
      <trkpt lat="23.41556" lon="120.536519">
        <ele>157.0</ele>
      </trkpt>
      <trkpt lat="23.415604" lon="120.536271">
        <ele>156.0</ele>
      </trkpt>
      <trkpt lat="23.415682" lon="120.536157">
        <ele>153.0</ele>
      </trkpt>
      <trkpt lat="23.415782" lon="120.536099">
        <ele>150.0</ele>
      </trkpt>
      <trkpt lat="23.415887" lon="120.536098">
        <ele>149.0</ele>
      </trkpt>
      <trkpt lat="23.416043" lon="120.536071">
        <ele>147.0</ele>
      </trkpt>
      <trkpt lat="23.416208" lon="120.536024">
        <ele>146.0</ele>
      </trkpt>
      <trkpt lat="23.41609" lon="120.53533">
        <ele>146.0</ele>
      </trkpt>
      <trkpt lat="23.416081" lon="120.535153">
        <ele>145.0</ele>
      </trkpt>
      <trkpt lat="23.41599" lon="120.534957">
        <ele>146.0</ele>
      </trkpt>
      <trkpt lat="23.415498" lon="120.534679">
        <ele>150.0</ele>
      </trkpt>
      <trkpt lat="23.415419" lon="120.534549">
        <ele>150.0</ele>
      </trkpt>
      <trkpt lat="23.415308" lon="120.534463">
        <ele>150.0</ele>
      </trkpt>
      <trkpt lat="23.415218" lon="120.534243">
        <ele>149.0</ele>
      </trkpt>
      <trkpt lat="23.415087" lon="120.534075">
        <ele>149.0</ele>
      </trkpt>
      <trkpt lat="23.415011" lon="120.533731">
        <ele>149.0</ele>
      </trkpt>
      <trkpt lat="23.414788" lon="120.53336">
        <ele>151.0</ele>
      </trkpt>
      <trkpt lat="23.414708" lon="120.533259">
        <ele>151.0</ele>
      </trkpt>
      <trkpt lat="23.414542" lon="120.532932">
        <ele>150.0</ele>
      </trkpt>
      <trkpt lat="23.414431" lon="120.532811">
        <ele>150.0</ele>
      </trkpt>
      <trkpt lat="23.414248" lon="120.532714">
        <ele>151.0</ele>
      </trkpt>
      <trkpt lat="23.414195" lon="120.532661">
        <ele>152.0</ele>
      </trkpt>
      <trkpt lat="23.414146" lon="120.532512">
        <ele>151.0</ele>
      </trkpt>
      <trkpt lat="23.414062" lon="120.532115">
        <ele>149.0</ele>
      </trkpt>
      <trkpt lat="23.414077" lon="120.531974">
        <ele>148.0</ele>
      </trkpt>
      <trkpt lat="23.41409" lon="120.531746">
        <ele>147.0</ele>
      </trkpt>
      <trkpt lat="23.414068" lon="120.531478">
        <ele>145.0</ele>
      </trkpt>
      <trkpt lat="23.414014" lon="120.531255">
        <ele>144.0</ele>
      </trkpt>
      <trkpt lat="23.413879" lon="120.531039">
        <ele>143.0</ele>
      </trkpt>
      <trkpt lat="23.413742" lon="120.530893">
        <ele>143.0</ele>
      </trkpt>
      <trkpt lat="23.413704" lon="120.530791">
        <ele>143.0</ele>
      </trkpt>
      <trkpt lat="23.41368" lon="120.530531">
        <ele>143.0</ele>
      </trkpt>
      <trkpt lat="23.413731" lon="120.530334">
        <ele>142.0</ele>
      </trkpt>
      <trkpt lat="23.413698" lon="120.530241">
        <ele>142.0</ele>
      </trkpt>
      <trkpt lat="23.413539" lon="120.529969">
        <ele>143.0</ele>
      </trkpt>
      <trkpt lat="23.413397" lon="120.529598">
        <ele>144.0</ele>
      </trkpt>
      <trkpt lat="23.413213" lon="120.529255">
        <ele>145.0</ele>
      </trkpt>
      <trkpt lat="23.41317" lon="120.529138">
        <ele>145.0</ele>
      </trkpt>
      <trkpt lat="23.412967" lon="120.528306">
        <ele>143.0</ele>
      </trkpt>
      <trkpt lat="23.412763" lon="120.527546">
        <ele>140.0</ele>
      </trkpt>
      <trkpt lat="23.412837" lon="120.527187">
        <ele>140.0</ele>
      </trkpt>
      <trkpt lat="23.413052" lon="120.526376">
        <ele>138.0</ele>
      </trkpt>
      <trkpt lat="23.413534" lon="120.524586">
        <ele>131.0</ele>
      </trkpt>
      <trkpt lat="23.413534" lon="120.524586">
        <ele>131.0</ele>
      </trkpt>
      <trkpt lat="23.414056" lon="120.522653">
        <ele>125.0</ele>
      </trkpt>
      <trkpt lat="23.414579" lon="120.520706">
        <ele>118.0</ele>
      </trkpt>
      <trkpt lat="23.414796" lon="120.519913">
        <ele>118.0</ele>
      </trkpt>
      <trkpt lat="23.414796" lon="120.519913">
        <ele>118.0</ele>
      </trkpt>
      <trkpt lat="23.414883" lon="120.519595">
        <ele>118.0</ele>
      </trkpt>
      <trkpt lat="23.415309" lon="120.518115">
        <ele>112.0</ele>
      </trkpt>
      <trkpt lat="23.415553" lon="120.517268">
        <ele>110.0</ele>
      </trkpt>
      <trkpt lat="23.4158" lon="120.516517">
        <ele>107.0</ele>
      </trkpt>
    </trkseg>
  </trk>
</gpx>
