<?xml version="1.0" encoding="UTF-8"?>
<gpx xmlns="http://www.topografix.com/GPX/1/1" xmlns:xsi="http://www.w3.org/2001/XMLSchema-instance" xsi:schemaLocation="http://www.topografix.com/GPX/1/1 http://www.topografix.com/GPX/1/1/gpx.xsd" version="1.1" creator="Martin Schneider">
  <wpt lat="22.883936" lon="120.484777">
    <ele>50.0</ele>
    <name>Start</name>
  </wpt>
  <wpt lat="22.89852" lon="120.523388">
    <ele>44.0</ele>
    <name>End</name>
  </wpt>
  <wpt lat="22.8834234" lon="120.491212">
    <name>1</name>
    <desc>Trailhead</desc>
  </wpt>
  <wpt lat="22.9016195" lon="120.5040325">
    <name>2</name>
    <desc>Fumeishan</desc>
  </wpt>
  <wpt lat="22.9091881" lon="120.514711">
    <name>3</name>
    <desc>Rentoushan</desc>
  </wpt>
  <wpt lat="22.9125496" lon="120.5186065">
    <name>4</name>
    <desc>Fork</desc>
  </wpt>
  <wpt lat="22.913661" lon="120.5229231">
    <name>5</name>
    <desc>Lingshan</desc>
  </wpt>
  <wpt lat="22.896767" lon="120.496832">
    <ele>306.0</ele>
    <name>Summit Qiweishan</name>
  </wpt>
  <trk>
    <name>072_Qiweishan</name>
    <trkseg>
      <trkpt lat="22.883936" lon="120.484777">
        <ele>50.0</ele>
      </trkpt>
      <trkpt lat="22.883936" lon="120.484777">
        <ele>50.0</ele>
      </trkpt>
      <trkpt lat="22.883451" lon="120.484744">
        <ele>50.0</ele>
      </trkpt>
      <trkpt lat="22.883434" lon="120.485194">
        <ele>50.0</ele>
      </trkpt>
      <trkpt lat="22.883382" lon="120.485462">
        <ele>49.0</ele>
      </trkpt>
      <trkpt lat="22.88342" lon="120.485473">
        <ele>49.0</ele>
      </trkpt>
      <trkpt lat="22.883391" lon="120.485585">
        <ele>49.0</ele>
      </trkpt>
      <trkpt lat="22.88379" lon="120.485671">
        <ele>48.0</ele>
      </trkpt>
      <trkpt lat="22.884251" lon="120.485742">
        <ele>47.0</ele>
      </trkpt>
      <trkpt lat="22.884243" lon="120.485768">
        <ele>47.0</ele>
      </trkpt>
      <trkpt lat="22.883916" lon="120.485756">
        <ele>47.0</ele>
      </trkpt>
      <trkpt lat="22.883914" lon="120.485775">
        <ele>47.0</ele>
      </trkpt>
      <trkpt lat="22.884116" lon="120.485793">
        <ele>46.0</ele>
      </trkpt>
      <trkpt lat="22.88409" lon="120.485786">
        <ele>46.0</ele>
      </trkpt>
      <trkpt lat="22.883938" lon="120.487196">
        <ele>46.0</ele>
      </trkpt>
      <trkpt lat="22.883863" lon="120.487758">
        <ele>46.0</ele>
      </trkpt>
      <trkpt lat="22.883863" lon="120.487758">
        <ele>46.0</ele>
      </trkpt>
      <trkpt lat="22.883442" lon="120.490921">
        <ele>50.0</ele>
      </trkpt>
      <trkpt lat="22.883423" lon="120.491212">
        <ele>52.0</ele>
      </trkpt>
      <trkpt lat="22.883419" lon="120.491249">
        <ele>53.0</ele>
      </trkpt>
      <trkpt lat="22.883397" lon="120.491371">
        <ele>53.0</ele>
      </trkpt>
      <trkpt lat="22.883397" lon="120.491371">
        <ele>53.0</ele>
      </trkpt>
      <trkpt lat="22.883419" lon="120.491249">
        <ele>53.0</ele>
      </trkpt>
      <trkpt lat="22.88345" lon="120.491356">
        <ele>54.0</ele>
      </trkpt>
      <trkpt lat="22.883538" lon="120.491417">
        <ele>55.0</ele>
      </trkpt>
      <trkpt lat="22.883549" lon="120.491506">
        <ele>56.0</ele>
      </trkpt>
      <trkpt lat="22.883609" lon="120.491541">
        <ele>58.0</ele>
      </trkpt>
      <trkpt lat="22.883762" lon="120.49178">
        <ele>61.0</ele>
      </trkpt>
      <trkpt lat="22.884208" lon="120.491944">
        <ele>66.0</ele>
      </trkpt>
      <trkpt lat="22.884208" lon="120.491943">
        <ele>66.0</ele>
      </trkpt>
      <trkpt lat="22.884543" lon="120.492043">
        <ele>72.0</ele>
      </trkpt>
      <trkpt lat="22.884711" lon="120.49204">
        <ele>75.0</ele>
      </trkpt>
      <trkpt lat="22.884901" lon="120.491997">
        <ele>79.0</ele>
      </trkpt>
      <trkpt lat="22.885069" lon="120.49185">
        <ele>83.0</ele>
      </trkpt>
      <trkpt lat="22.885516" lon="120.491708">
        <ele>90.0</ele>
      </trkpt>
      <trkpt lat="22.885926" lon="120.491868">
        <ele>90.0</ele>
      </trkpt>
      <trkpt lat="22.886196" lon="120.491906">
        <ele>91.0</ele>
      </trkpt>
      <trkpt lat="22.88641" lon="120.49179">
        <ele>95.0</ele>
      </trkpt>
      <trkpt lat="22.88641" lon="120.49179">
        <ele>95.0</ele>
      </trkpt>
      <trkpt lat="22.886735" lon="120.491697">
        <ele>100.0</ele>
      </trkpt>
      <trkpt lat="22.886903" lon="120.491579">
        <ele>96.0</ele>
      </trkpt>
      <trkpt lat="22.887204" lon="120.491627">
        <ele>96.0</ele>
      </trkpt>
      <trkpt lat="22.887842" lon="120.492104">
        <ele>93.0</ele>
      </trkpt>
      <trkpt lat="22.888065" lon="120.492303">
        <ele>99.0</ele>
      </trkpt>
      <trkpt lat="22.888365" lon="120.492888">
        <ele>115.0</ele>
      </trkpt>
      <trkpt lat="22.888771" lon="120.493271">
        <ele>133.0</ele>
      </trkpt>
      <trkpt lat="22.889025" lon="120.493356">
        <ele>144.0</ele>
      </trkpt>
      <trkpt lat="22.889479" lon="120.493639">
        <ele>149.0</ele>
      </trkpt>
      <trkpt lat="22.889902" lon="120.493623">
        <ele>150.0</ele>
      </trkpt>
      <trkpt lat="22.890209" lon="120.493424">
        <ele>149.0</ele>
      </trkpt>
      <trkpt lat="22.890814" lon="120.493404">
        <ele>152.0</ele>
      </trkpt>
      <trkpt lat="22.891038" lon="120.493569">
        <ele>148.0</ele>
      </trkpt>
      <trkpt lat="22.891622" lon="120.493639">
        <ele>144.0</ele>
      </trkpt>
      <trkpt lat="22.892169" lon="120.493818">
        <ele>136.0</ele>
      </trkpt>
      <trkpt lat="22.892767" lon="120.493704">
        <ele>127.0</ele>
      </trkpt>
      <trkpt lat="22.892946" lon="120.493725">
        <ele>126.0</ele>
      </trkpt>
      <trkpt lat="22.892946" lon="120.493725">
        <ele>126.0</ele>
      </trkpt>
      <trkpt lat="22.893258" lon="120.493762">
        <ele>126.0</ele>
      </trkpt>
      <trkpt lat="22.893648" lon="120.493961">
        <ele>134.0</ele>
      </trkpt>
      <trkpt lat="22.893866" lon="120.494132">
        <ele>143.0</ele>
      </trkpt>
      <trkpt lat="22.894288" lon="120.494403">
        <ele>151.0</ele>
      </trkpt>
      <trkpt lat="22.894397" lon="120.494612">
        <ele>155.0</ele>
      </trkpt>
      <trkpt lat="22.894563" lon="120.494827">
        <ele>161.0</ele>
      </trkpt>
      <trkpt lat="22.895011" lon="120.495156">
        <ele>175.0</ele>
      </trkpt>
      <trkpt lat="22.895027" lon="120.495215">
        <ele>174.0</ele>
      </trkpt>
      <trkpt lat="22.896161" lon="120.495829">
        <ele>214.0</ele>
      </trkpt>
      <trkpt lat="22.896243" lon="120.495943">
        <ele>219.0</ele>
      </trkpt>
      <trkpt lat="22.896539" lon="120.496155">
        <ele>233.0</ele>
      </trkpt>
      <trkpt lat="22.896629" lon="120.496283">
        <ele>241.0</ele>
      </trkpt>
      <trkpt lat="22.896695" lon="120.496629">
        <ele>257.0</ele>
      </trkpt>
      <trkpt lat="22.896699" lon="120.496726">
        <ele>258.0</ele>
      </trkpt>
      <trkpt lat="22.896767" lon="120.496832">
        <ele>255.0</ele>
      </trkpt>
      <trkpt lat="22.896767" lon="120.496832">
        <ele>255.0</ele>
      </trkpt>
      <trkpt lat="22.896823" lon="120.496949">
        <ele>254.0</ele>
      </trkpt>
      <trkpt lat="22.896884" lon="120.497108">
        <ele>253.0</ele>
      </trkpt>
      <trkpt lat="22.897258" lon="120.497249">
        <ele>257.0</ele>
      </trkpt>
      <trkpt lat="22.897383" lon="120.497323">
        <ele>261.0</ele>
      </trkpt>
      <trkpt lat="22.897541" lon="120.497548">
        <ele>267.0</ele>
      </trkpt>
      <trkpt lat="22.897689" lon="120.497661">
        <ele>259.0</ele>
      </trkpt>
      <trkpt lat="22.897966" lon="120.497817">
        <ele>252.0</ele>
      </trkpt>
      <trkpt lat="22.898183" lon="120.498106">
        <ele>253.0</ele>
      </trkpt>
      <trkpt lat="22.898371" lon="120.498471">
        <ele>254.0</ele>
      </trkpt>
      <trkpt lat="22.898523" lon="120.498819">
        <ele>243.0</ele>
      </trkpt>
      <trkpt lat="22.898523" lon="120.498819">
        <ele>243.0</ele>
      </trkpt>
      <trkpt lat="22.898865" lon="120.499437">
        <ele>237.0</ele>
      </trkpt>
      <trkpt lat="22.899606" lon="120.500166">
        <ele>230.0</ele>
      </trkpt>
      <trkpt lat="22.899977" lon="120.500343">
        <ele>227.0</ele>
      </trkpt>
      <trkpt lat="22.90016" lon="120.500719">
        <ele>230.0</ele>
      </trkpt>
      <trkpt lat="22.900348" lon="120.500966">
        <ele>229.0</ele>
      </trkpt>
      <trkpt lat="22.90047" lon="120.501246">
        <ele>232.0</ele>
      </trkpt>
      <trkpt lat="22.90047" lon="120.501246">
        <ele>232.0</ele>
      </trkpt>
      <trkpt lat="22.90055" lon="120.501432">
        <ele>237.0</ele>
      </trkpt>
      <trkpt lat="22.900607" lon="120.501641">
        <ele>243.0</ele>
      </trkpt>
      <trkpt lat="22.900753" lon="120.501738">
        <ele>250.0</ele>
      </trkpt>
      <trkpt lat="22.900773" lon="120.501819">
        <ele>253.0</ele>
      </trkpt>
      <trkpt lat="22.900773" lon="120.502124">
        <ele>260.0</ele>
      </trkpt>
      <trkpt lat="22.901069" lon="120.502462">
        <ele>266.0</ele>
      </trkpt>
      <trkpt lat="22.901257" lon="120.502623">
        <ele>268.0</ele>
      </trkpt>
      <trkpt lat="22.90142" lon="120.502934">
        <ele>276.0</ele>
      </trkpt>
      <trkpt lat="22.901385" lon="120.503203">
        <ele>286.0</ele>
      </trkpt>
      <trkpt lat="22.901311" lon="120.503315">
        <ele>290.0</ele>
      </trkpt>
      <trkpt lat="22.901642" lon="120.504013">
        <ele>291.0</ele>
      </trkpt>
      <trkpt lat="22.901726" lon="120.504098">
        <ele>290.0</ele>
      </trkpt>
      <trkpt lat="22.90183" lon="120.504077">
        <ele>287.0</ele>
      </trkpt>
      <trkpt lat="22.902092" lon="120.504098">
        <ele>280.0</ele>
      </trkpt>
      <trkpt lat="22.90225" lon="120.504184">
        <ele>278.0</ele>
      </trkpt>
      <trkpt lat="22.902611" lon="120.504585">
        <ele>270.0</ele>
      </trkpt>
      <trkpt lat="22.902611" lon="120.504585">
        <ele>270.0</ele>
      </trkpt>
      <trkpt lat="22.903066" lon="120.504978">
        <ele>271.0</ele>
      </trkpt>
      <trkpt lat="22.903239" lon="120.505048">
        <ele>270.0</ele>
      </trkpt>
      <trkpt lat="22.903332" lon="120.505026">
        <ele>271.0</ele>
      </trkpt>
      <trkpt lat="22.903505" lon="120.505085">
        <ele>261.0</ele>
      </trkpt>
      <trkpt lat="22.903925" lon="120.505558">
        <ele>249.0</ele>
      </trkpt>
      <trkpt lat="22.904301" lon="120.506046">
        <ele>253.0</ele>
      </trkpt>
      <trkpt lat="22.904434" lon="120.506089">
        <ele>251.0</ele>
      </trkpt>
      <trkpt lat="22.904538" lon="120.506223">
        <ele>252.0</ele>
      </trkpt>
      <trkpt lat="22.904711" lon="120.5064">
        <ele>257.0</ele>
      </trkpt>
      <trkpt lat="22.90476" lon="120.506545">
        <ele>263.0</ele>
      </trkpt>
      <trkpt lat="22.904933" lon="120.506636">
        <ele>272.0</ele>
      </trkpt>
      <trkpt lat="22.905101" lon="120.506813">
        <ele>273.0</ele>
      </trkpt>
      <trkpt lat="22.905181" lon="120.506995">
        <ele>273.0</ele>
      </trkpt>
      <trkpt lat="22.905309" lon="120.507156">
        <ele>270.0</ele>
      </trkpt>
      <trkpt lat="22.905279" lon="120.507322">
        <ele>275.0</ele>
      </trkpt>
      <trkpt lat="22.905136" lon="120.507568">
        <ele>286.0</ele>
      </trkpt>
      <trkpt lat="22.905136" lon="120.507568">
        <ele>286.0</ele>
      </trkpt>
      <trkpt lat="22.905077" lon="120.507671">
        <ele>290.0</ele>
      </trkpt>
      <trkpt lat="22.905136" lon="120.508014">
        <ele>291.0</ele>
      </trkpt>
      <trkpt lat="22.905136" lon="120.508095">
        <ele>292.0</ele>
      </trkpt>
      <trkpt lat="22.90519" lon="120.50817">
        <ele>291.0</ele>
      </trkpt>
      <trkpt lat="22.905121" lon="120.508529">
        <ele>301.0</ele>
      </trkpt>
      <trkpt lat="22.905032" lon="120.508717">
        <ele>310.0</ele>
      </trkpt>
      <trkpt lat="22.904958" lon="120.508814">
        <ele>311.0</ele>
      </trkpt>
      <trkpt lat="22.905052" lon="120.508996">
        <ele>318.0</ele>
      </trkpt>
      <trkpt lat="22.905289" lon="120.509195">
        <ele>318.0</ele>
      </trkpt>
      <trkpt lat="22.905274" lon="120.509345">
        <ele>320.0</ele>
      </trkpt>
      <trkpt lat="22.905492" lon="120.509769">
        <ele>324.0</ele>
      </trkpt>
      <trkpt lat="22.905749" lon="120.509999">
        <ele>327.0</ele>
      </trkpt>
      <trkpt lat="22.905862" lon="120.510085">
        <ele>324.0</ele>
      </trkpt>
      <trkpt lat="22.906105" lon="120.510214">
        <ele>314.0</ele>
      </trkpt>
      <trkpt lat="22.906386" lon="120.51045">
        <ele>306.0</ele>
      </trkpt>
      <trkpt lat="22.906594" lon="120.510359">
        <ele>301.0</ele>
      </trkpt>
      <trkpt lat="22.906703" lon="120.510353">
        <ele>298.0</ele>
      </trkpt>
      <trkpt lat="22.90688" lon="120.510284">
        <ele>290.0</ele>
      </trkpt>
      <trkpt lat="22.907152" lon="120.510686">
        <ele>291.0</ele>
      </trkpt>
      <trkpt lat="22.907463" lon="120.511072">
        <ele>286.0</ele>
      </trkpt>
      <trkpt lat="22.908032" lon="120.511716">
        <ele>267.0</ele>
      </trkpt>
      <trkpt lat="22.908412" lon="120.512226">
        <ele>267.0</ele>
      </trkpt>
      <trkpt lat="22.908649" lon="120.512386">
        <ele>268.0</ele>
      </trkpt>
      <trkpt lat="22.908901" lon="120.51273">
        <ele>279.0</ele>
      </trkpt>
      <trkpt lat="22.909193" lon="120.513411">
        <ele>308.0</ele>
      </trkpt>
      <trkpt lat="22.9094" lon="120.513728">
        <ele>306.0</ele>
      </trkpt>
      <trkpt lat="22.909539" lon="120.514071">
        <ele>309.0</ele>
      </trkpt>
      <trkpt lat="22.909564" lon="120.514167">
        <ele>311.0</ele>
      </trkpt>
      <trkpt lat="22.909409" lon="120.514398">
        <ele>327.0</ele>
      </trkpt>
      <trkpt lat="22.909367" lon="120.51452">
        <ele>333.0</ele>
      </trkpt>
      <trkpt lat="22.909225" lon="120.514671">
        <ele>344.0</ele>
      </trkpt>
      <trkpt lat="22.909229" lon="120.514694">
        <ele>344.0</ele>
      </trkpt>
      <trkpt lat="22.909248" lon="120.514735">
        <ele>345.0</ele>
      </trkpt>
      <trkpt lat="22.909248" lon="120.514735">
        <ele>345.0</ele>
      </trkpt>
      <trkpt lat="22.909296" lon="120.514838">
        <ele>346.0</ele>
      </trkpt>
      <trkpt lat="22.909344" lon="120.514977">
        <ele>349.0</ele>
      </trkpt>
      <trkpt lat="22.909448" lon="120.515072">
        <ele>346.0</ele>
      </trkpt>
      <trkpt lat="22.909487" lon="120.515145">
        <ele>344.0</ele>
      </trkpt>
      <trkpt lat="22.909561" lon="120.515236">
        <ele>343.0</ele>
      </trkpt>
      <trkpt lat="22.909839" lon="120.515389">
        <ele>341.0</ele>
      </trkpt>
      <trkpt lat="22.910044" lon="120.515564">
        <ele>344.0</ele>
      </trkpt>
      <trkpt lat="22.910094" lon="120.515646">
        <ele>345.0</ele>
      </trkpt>
      <trkpt lat="22.910125" lon="120.515673">
        <ele>344.0</ele>
      </trkpt>
      <trkpt lat="22.910235" lon="120.515723">
        <ele>342.0</ele>
      </trkpt>
      <trkpt lat="22.910308" lon="120.515737">
        <ele>340.0</ele>
      </trkpt>
      <trkpt lat="22.910373" lon="120.51577">
        <ele>339.0</ele>
      </trkpt>
      <trkpt lat="22.910437" lon="120.515828">
        <ele>339.0</ele>
      </trkpt>
      <trkpt lat="22.910556" lon="120.51584">
        <ele>335.0</ele>
      </trkpt>
      <trkpt lat="22.910635" lon="120.515925">
        <ele>332.0</ele>
      </trkpt>
      <trkpt lat="22.910693" lon="120.516025">
        <ele>329.0</ele>
      </trkpt>
      <trkpt lat="22.910761" lon="120.516049">
        <ele>328.0</ele>
      </trkpt>
      <trkpt lat="22.910852" lon="120.516119">
        <ele>325.0</ele>
      </trkpt>
      <trkpt lat="22.910886" lon="120.51616">
        <ele>323.0</ele>
      </trkpt>
      <trkpt lat="22.910904" lon="120.516228">
        <ele>322.0</ele>
      </trkpt>
      <trkpt lat="22.910993" lon="120.516278">
        <ele>317.0</ele>
      </trkpt>
      <trkpt lat="22.911003" lon="120.516333">
        <ele>317.0</ele>
      </trkpt>
      <trkpt lat="22.911025" lon="120.516409">
        <ele>317.0</ele>
      </trkpt>
      <trkpt lat="22.911109" lon="120.516467">
        <ele>314.0</ele>
      </trkpt>
      <trkpt lat="22.911182" lon="120.516557">
        <ele>312.0</ele>
      </trkpt>
      <trkpt lat="22.911282" lon="120.516581">
        <ele>309.0</ele>
      </trkpt>
      <trkpt lat="22.911443" lon="120.516773">
        <ele>305.0</ele>
      </trkpt>
      <trkpt lat="22.911518" lon="120.516913">
        <ele>303.0</ele>
      </trkpt>
      <trkpt lat="22.911603" lon="120.517123">
        <ele>301.0</ele>
      </trkpt>
      <trkpt lat="22.911819" lon="120.517445">
        <ele>295.0</ele>
      </trkpt>
      <trkpt lat="22.911961" lon="120.517633">
        <ele>287.0</ele>
      </trkpt>
      <trkpt lat="22.912087" lon="120.517835">
        <ele>281.0</ele>
      </trkpt>
      <trkpt lat="22.912256" lon="120.518016">
        <ele>276.0</ele>
      </trkpt>
      <trkpt lat="22.912334" lon="120.518077">
        <ele>275.0</ele>
      </trkpt>
      <trkpt lat="22.91254" lon="120.518612">
        <ele>277.0</ele>
      </trkpt>
      <trkpt lat="22.912687" lon="120.51894">
        <ele>275.0</ele>
      </trkpt>
      <trkpt lat="22.912721" lon="120.519168">
        <ele>278.0</ele>
      </trkpt>
      <trkpt lat="22.912971" lon="120.519543">
        <ele>279.0</ele>
      </trkpt>
      <trkpt lat="22.913325" lon="120.519793">
        <ele>287.0</ele>
      </trkpt>
      <trkpt lat="22.913587" lon="120.52012">
        <ele>292.0</ele>
      </trkpt>
      <trkpt lat="22.913782" lon="120.5202">
        <ele>288.0</ele>
      </trkpt>
      <trkpt lat="22.913899" lon="120.520397">
        <ele>291.0</ele>
      </trkpt>
      <trkpt lat="22.91391" lon="120.520542">
        <ele>295.0</ele>
      </trkpt>
      <trkpt lat="22.913836" lon="120.520686">
        <ele>302.0</ele>
      </trkpt>
      <trkpt lat="22.913711" lon="120.520739">
        <ele>307.0</ele>
      </trkpt>
      <trkpt lat="22.913629" lon="120.520859">
        <ele>313.0</ele>
      </trkpt>
      <trkpt lat="22.913575" lon="120.521121">
        <ele>320.0</ele>
      </trkpt>
      <trkpt lat="22.913603" lon="120.521592">
        <ele>326.0</ele>
      </trkpt>
      <trkpt lat="22.913574" lon="120.521839">
        <ele>329.0</ele>
      </trkpt>
      <trkpt lat="22.913589" lon="120.52215">
        <ele>330.0</ele>
      </trkpt>
      <trkpt lat="22.913712" lon="120.522525">
        <ele>329.0</ele>
      </trkpt>
      <trkpt lat="22.913717" lon="120.522692">
        <ele>328.0</ele>
      </trkpt>
      <trkpt lat="22.913672" lon="120.522838">
        <ele>328.0</ele>
      </trkpt>
      <trkpt lat="22.913683" lon="120.522912">
        <ele>328.0</ele>
      </trkpt>
      <trkpt lat="22.913683" lon="120.522912">
        <ele>328.0</ele>
      </trkpt>
      <trkpt lat="22.913672" lon="120.522838">
        <ele>328.0</ele>
      </trkpt>
      <trkpt lat="22.913717" lon="120.522692">
        <ele>328.0</ele>
      </trkpt>
      <trkpt lat="22.913712" lon="120.522525">
        <ele>329.0</ele>
      </trkpt>
      <trkpt lat="22.913589" lon="120.52215">
        <ele>330.0</ele>
      </trkpt>
      <trkpt lat="22.913574" lon="120.521839">
        <ele>329.0</ele>
      </trkpt>
      <trkpt lat="22.913603" lon="120.521592">
        <ele>326.0</ele>
      </trkpt>
      <trkpt lat="22.913575" lon="120.521121">
        <ele>320.0</ele>
      </trkpt>
      <trkpt lat="22.913629" lon="120.520859">
        <ele>313.0</ele>
      </trkpt>
      <trkpt lat="22.913711" lon="120.520739">
        <ele>307.0</ele>
      </trkpt>
      <trkpt lat="22.913836" lon="120.520686">
        <ele>302.0</ele>
      </trkpt>
      <trkpt lat="22.91391" lon="120.520542">
        <ele>295.0</ele>
      </trkpt>
      <trkpt lat="22.913899" lon="120.520397">
        <ele>291.0</ele>
      </trkpt>
      <trkpt lat="22.913782" lon="120.5202">
        <ele>288.0</ele>
      </trkpt>
      <trkpt lat="22.913587" lon="120.52012">
        <ele>292.0</ele>
      </trkpt>
      <trkpt lat="22.913325" lon="120.519793">
        <ele>287.0</ele>
      </trkpt>
      <trkpt lat="22.912971" lon="120.519543">
        <ele>279.0</ele>
      </trkpt>
      <trkpt lat="22.912721" lon="120.519168">
        <ele>278.0</ele>
      </trkpt>
      <trkpt lat="22.912687" lon="120.51894">
        <ele>275.0</ele>
      </trkpt>
      <trkpt lat="22.91254" lon="120.518612">
        <ele>277.0</ele>
      </trkpt>
      <trkpt lat="22.912432" lon="120.51866">
        <ele>279.0</ele>
      </trkpt>
      <trkpt lat="22.912392" lon="120.518662">
        <ele>278.0</ele>
      </trkpt>
      <trkpt lat="22.91231" lon="120.518626">
        <ele>277.0</ele>
      </trkpt>
      <trkpt lat="22.912239" lon="120.518567">
        <ele>276.0</ele>
      </trkpt>
      <trkpt lat="22.912103" lon="120.518395">
        <ele>275.0</ele>
      </trkpt>
      <trkpt lat="22.912026" lon="120.518329">
        <ele>275.0</ele>
      </trkpt>
      <trkpt lat="22.911968" lon="120.518316">
        <ele>276.0</ele>
      </trkpt>
      <trkpt lat="22.911902" lon="120.518328">
        <ele>275.0</ele>
      </trkpt>
      <trkpt lat="22.911864" lon="120.518314">
        <ele>276.0</ele>
      </trkpt>
      <trkpt lat="22.911808" lon="120.518207">
        <ele>278.0</ele>
      </trkpt>
      <trkpt lat="22.911784" lon="120.518202">
        <ele>279.0</ele>
      </trkpt>
      <trkpt lat="22.911764" lon="120.518222">
        <ele>278.0</ele>
      </trkpt>
      <trkpt lat="22.911721" lon="120.518537">
        <ele>271.0</ele>
      </trkpt>
      <trkpt lat="22.911805" lon="120.518624">
        <ele>270.0</ele>
      </trkpt>
      <trkpt lat="22.911817" lon="120.518678">
        <ele>269.0</ele>
      </trkpt>
      <trkpt lat="22.911756" lon="120.519008">
        <ele>262.0</ele>
      </trkpt>
      <trkpt lat="22.911694" lon="120.519139">
        <ele>258.0</ele>
      </trkpt>
      <trkpt lat="22.911658" lon="120.519282">
        <ele>253.0</ele>
      </trkpt>
      <trkpt lat="22.911592" lon="120.519412">
        <ele>247.0</ele>
      </trkpt>
      <trkpt lat="22.911472" lon="120.519477">
        <ele>241.0</ele>
      </trkpt>
      <trkpt lat="22.911472" lon="120.519477">
        <ele>241.0</ele>
      </trkpt>
      <trkpt lat="22.911167" lon="120.519634">
        <ele>224.0</ele>
      </trkpt>
      <trkpt lat="22.911135" lon="120.519623">
        <ele>223.0</ele>
      </trkpt>
      <trkpt lat="22.911118" lon="120.519594">
        <ele>223.0</ele>
      </trkpt>
      <trkpt lat="22.911067" lon="120.519269">
        <ele>230.0</ele>
      </trkpt>
      <trkpt lat="22.911001" lon="120.519172">
        <ele>230.0</ele>
      </trkpt>
      <trkpt lat="22.910958" lon="120.518966">
        <ele>237.0</ele>
      </trkpt>
      <trkpt lat="22.91094" lon="120.518925">
        <ele>239.0</ele>
      </trkpt>
      <trkpt lat="22.910905" lon="120.518896">
        <ele>239.0</ele>
      </trkpt>
      <trkpt lat="22.910871" lon="120.518908">
        <ele>237.0</ele>
      </trkpt>
      <trkpt lat="22.910859" lon="120.518936">
        <ele>236.0</ele>
      </trkpt>
      <trkpt lat="22.91087" lon="120.519052">
        <ele>231.0</ele>
      </trkpt>
      <trkpt lat="22.910857" lon="120.519119">
        <ele>227.0</ele>
      </trkpt>
      <trkpt lat="22.91077" lon="120.519244">
        <ele>220.0</ele>
      </trkpt>
      <trkpt lat="22.910571" lon="120.519288">
        <ele>212.0</ele>
      </trkpt>
      <trkpt lat="22.910333" lon="120.519379">
        <ele>201.0</ele>
      </trkpt>
      <trkpt lat="22.910253" lon="120.519449">
        <ele>196.0</ele>
      </trkpt>
      <trkpt lat="22.91014" lon="120.519602">
        <ele>188.0</ele>
      </trkpt>
      <trkpt lat="22.910067" lon="120.519634">
        <ele>184.0</ele>
      </trkpt>
      <trkpt lat="22.909932" lon="120.519578">
        <ele>182.0</ele>
      </trkpt>
      <trkpt lat="22.909851" lon="120.519503">
        <ele>183.0</ele>
      </trkpt>
      <trkpt lat="22.909724" lon="120.519338">
        <ele>186.0</ele>
      </trkpt>
      <trkpt lat="22.909434" lon="120.519042">
        <ele>189.0</ele>
      </trkpt>
      <trkpt lat="22.909392" lon="120.519031">
        <ele>188.0</ele>
      </trkpt>
      <trkpt lat="22.909349" lon="120.519059">
        <ele>186.0</ele>
      </trkpt>
      <trkpt lat="22.909354" lon="120.519145">
        <ele>184.0</ele>
      </trkpt>
      <trkpt lat="22.909421" lon="120.519453">
        <ele>176.0</ele>
      </trkpt>
      <trkpt lat="22.909395" lon="120.519592">
        <ele>172.0</ele>
      </trkpt>
      <trkpt lat="22.909398" lon="120.519657">
        <ele>170.0</ele>
      </trkpt>
      <trkpt lat="22.909314" lon="120.519795">
        <ele>165.0</ele>
      </trkpt>
      <trkpt lat="22.909296" lon="120.519901">
        <ele>162.0</ele>
      </trkpt>
      <trkpt lat="22.909278" lon="120.519956">
        <ele>160.0</ele>
      </trkpt>
      <trkpt lat="22.909278" lon="120.519956">
        <ele>160.0</ele>
      </trkpt>
      <trkpt lat="22.909245" lon="120.520059">
        <ele>157.0</ele>
      </trkpt>
      <trkpt lat="22.909049" lon="120.520387">
        <ele>151.0</ele>
      </trkpt>
      <trkpt lat="22.908952" lon="120.520462">
        <ele>148.0</ele>
      </trkpt>
      <trkpt lat="22.908751" lon="120.520712">
        <ele>139.0</ele>
      </trkpt>
      <trkpt lat="22.908664" lon="120.520724">
        <ele>137.0</ele>
      </trkpt>
      <trkpt lat="22.908363" lon="120.520721">
        <ele>131.0</ele>
      </trkpt>
      <trkpt lat="22.908217" lon="120.520881">
        <ele>122.0</ele>
      </trkpt>
      <trkpt lat="22.908076" lon="120.5209">
        <ele>117.0</ele>
      </trkpt>
      <trkpt lat="22.90798" lon="120.520862">
        <ele>115.0</ele>
      </trkpt>
      <trkpt lat="22.90763" lon="120.520286">
        <ele>129.0</ele>
      </trkpt>
      <trkpt lat="22.90757" lon="120.520248">
        <ele>130.0</ele>
      </trkpt>
      <trkpt lat="22.907474" lon="120.520332">
        <ele>124.0</ele>
      </trkpt>
      <trkpt lat="22.907425" lon="120.520484">
        <ele>118.0</ele>
      </trkpt>
      <trkpt lat="22.907456" lon="120.520654">
        <ele>110.0</ele>
      </trkpt>
      <trkpt lat="22.907451" lon="120.520701">
        <ele>108.0</ele>
      </trkpt>
      <trkpt lat="22.907405" lon="120.520808">
        <ele>104.0</ele>
      </trkpt>
      <trkpt lat="22.907422" lon="120.521127">
        <ele>96.0</ele>
      </trkpt>
      <trkpt lat="22.90738" lon="120.521217">
        <ele>95.0</ele>
      </trkpt>
      <trkpt lat="22.90727" lon="120.521248">
        <ele>94.0</ele>
      </trkpt>
      <trkpt lat="22.907203" lon="120.521306">
        <ele>93.0</ele>
      </trkpt>
      <trkpt lat="22.90704" lon="120.521512">
        <ele>87.0</ele>
      </trkpt>
      <trkpt lat="22.906906" lon="120.521559">
        <ele>86.0</ele>
      </trkpt>
      <trkpt lat="22.906734" lon="120.521804">
        <ele>79.0</ele>
      </trkpt>
      <trkpt lat="22.906735" lon="120.521869">
        <ele>78.0</ele>
      </trkpt>
      <trkpt lat="22.906737" lon="120.521956">
        <ele>77.0</ele>
      </trkpt>
      <trkpt lat="22.906651" lon="120.522092">
        <ele>74.0</ele>
      </trkpt>
      <trkpt lat="22.906447" lon="120.522204">
        <ele>70.0</ele>
      </trkpt>
      <trkpt lat="22.906331" lon="120.522341">
        <ele>67.0</ele>
      </trkpt>
      <trkpt lat="22.90623" lon="120.522536">
        <ele>62.0</ele>
      </trkpt>
      <trkpt lat="22.906237" lon="120.522647">
        <ele>63.0</ele>
      </trkpt>
      <trkpt lat="22.906338" lon="120.523085">
        <ele>66.0</ele>
      </trkpt>
      <trkpt lat="22.906346" lon="120.523172">
        <ele>67.0</ele>
      </trkpt>
      <trkpt lat="22.906194" lon="120.523196">
        <ele>63.0</ele>
      </trkpt>
      <trkpt lat="22.905019" lon="120.523515">
        <ele>49.0</ele>
      </trkpt>
      <trkpt lat="22.903938" lon="120.523842">
        <ele>49.0</ele>
      </trkpt>
      <trkpt lat="22.903815" lon="120.5238">
        <ele>48.0</ele>
      </trkpt>
      <trkpt lat="22.903575" lon="120.523665">
        <ele>47.0</ele>
      </trkpt>
      <trkpt lat="22.903432" lon="120.523464">
        <ele>47.0</ele>
      </trkpt>
      <trkpt lat="22.903369" lon="120.523303">
        <ele>47.0</ele>
      </trkpt>
      <trkpt lat="22.902795" lon="120.523387">
        <ele>47.0</ele>
      </trkpt>
      <trkpt lat="22.901032" lon="120.524443">
        <ele>44.0</ele>
      </trkpt>
      <trkpt lat="22.900208" lon="120.522629">
        <ele>45.0</ele>
      </trkpt>
      <trkpt lat="22.900175" lon="120.522642">
        <ele>45.0</ele>
      </trkpt>
      <trkpt lat="22.90012" lon="120.522664">
        <ele>45.0</ele>
      </trkpt>
      <trkpt lat="22.898987" lon="120.523116">
        <ele>45.0</ele>
      </trkpt>
      <trkpt lat="22.898943" lon="120.523127">
        <ele>45.0</ele>
      </trkpt>
      <trkpt lat="22.898892" lon="120.523153">
        <ele>45.0</ele>
      </trkpt>
      <trkpt lat="22.898477" lon="120.523305">
        <ele>44.0</ele>
      </trkpt>
      <trkpt lat="22.89852" lon="120.523388">
        <ele>44.0</ele>
      </trkpt>
    </trkseg>
  </trk>
</gpx>
