<?xml version="1.0" encoding="UTF-8"?>
<gpx xmlns="http://www.topografix.com/GPX/1/1" xmlns:xsi="http://www.w3.org/2001/XMLSchema-instance" xsi:schemaLocation="http://www.topografix.com/GPX/1/1 http://www.topografix.com/GPX/1/1/gpx.xsd" version="1.1" creator="Martin Schneider">
  <wpt lat="22.850713" lon="120.324902">
    <ele>16.0</ele>
    <name>Start</name>
  </wpt>
  <wpt lat="22.874119" lon="120.356999">
    <ele>56.0</ele>
    <name>End</name>
  </wpt>
  <wpt lat="22.860318" lon="120.348448">
    <ele>289.0</ele>
    <name>Summit Dagangshan</name>
  </wpt>
  <trk>
    <name>74_Dagangshan</name>
    <trkseg>
      <trkpt lat="22.850713" lon="120.324902">
        <ele>16.0</ele>
      </trkpt>
      <trkpt lat="22.850529" lon="120.324862">
        <ele>16.0</ele>
      </trkpt>
      <trkpt lat="22.849933" lon="120.324675">
        <ele>15.0</ele>
      </trkpt>
      <trkpt lat="22.850529" lon="120.324862">
        <ele>16.0</ele>
      </trkpt>
      <trkpt lat="22.850865" lon="120.324936">
        <ele>16.0</ele>
      </trkpt>
      <trkpt lat="22.851174" lon="120.325592">
        <ele>15.0</ele>
      </trkpt>
      <trkpt lat="22.8515" lon="120.326223">
        <ele>15.0</ele>
      </trkpt>
      <trkpt lat="22.8523" lon="120.327698">
        <ele>15.0</ele>
      </trkpt>
      <trkpt lat="22.852995" lon="120.328896">
        <ele>18.0</ele>
      </trkpt>
      <trkpt lat="22.85385" lon="120.330481">
        <ele>21.0</ele>
      </trkpt>
      <trkpt lat="22.853916" lon="120.330798">
        <ele>23.0</ele>
      </trkpt>
      <trkpt lat="22.853914" lon="120.331042">
        <ele>23.0</ele>
      </trkpt>
      <trkpt lat="22.853811" lon="120.331325">
        <ele>23.0</ele>
      </trkpt>
      <trkpt lat="22.853678" lon="120.331628">
        <ele>23.0</ele>
      </trkpt>
      <trkpt lat="22.8535751" lon="120.3319497">
        <ele>24.0</ele>
      </trkpt>
      <trkpt lat="22.853475" lon="120.332261">
        <ele>26.0</ele>
      </trkpt>
      <trkpt lat="22.853475" lon="120.332261">
        <ele>26.0</ele>
      </trkpt>
      <trkpt lat="22.853348" lon="120.33266">
        <ele>27.0</ele>
      </trkpt>
      <trkpt lat="22.853238" lon="120.33305">
        <ele>28.0</ele>
      </trkpt>
      <trkpt lat="22.8532379" lon="120.3330504">
        <ele>28.0</ele>
      </trkpt>
      <trkpt lat="22.853158" lon="120.333334">
        <ele>28.0</ele>
      </trkpt>
      <trkpt lat="22.853042" lon="120.333858">
        <ele>30.0</ele>
      </trkpt>
      <trkpt lat="22.852891" lon="120.334411">
        <ele>30.0</ele>
      </trkpt>
      <trkpt lat="22.852374" lon="120.336009">
        <ele>36.0</ele>
      </trkpt>
      <trkpt lat="22.852292" lon="120.336327">
        <ele>38.0</ele>
      </trkpt>
      <trkpt lat="22.85226" lon="120.336544">
        <ele>39.0</ele>
      </trkpt>
      <trkpt lat="22.852263" lon="120.336784">
        <ele>42.0</ele>
      </trkpt>
      <trkpt lat="22.852227" lon="120.336809">
        <ele>43.0</ele>
      </trkpt>
      <trkpt lat="22.852119" lon="120.337101">
        <ele>49.0</ele>
      </trkpt>
      <trkpt lat="22.85204" lon="120.337474">
        <ele>57.0</ele>
      </trkpt>
      <trkpt lat="22.851923" lon="120.337597">
        <ele>62.0</ele>
      </trkpt>
      <trkpt lat="22.851658" lon="120.337778">
        <ele>69.0</ele>
      </trkpt>
      <trkpt lat="22.85134" lon="120.337874">
        <ele>73.0</ele>
      </trkpt>
      <trkpt lat="22.850829" lon="120.337976">
        <ele>76.0</ele>
      </trkpt>
      <trkpt lat="22.850736" lon="120.338046">
        <ele>78.0</ele>
      </trkpt>
      <trkpt lat="22.850628" lon="120.338451">
        <ele>90.0</ele>
      </trkpt>
      <trkpt lat="22.850441" lon="120.338819">
        <ele>100.0</ele>
      </trkpt>
      <trkpt lat="22.850391" lon="120.33889">
        <ele>102.0</ele>
      </trkpt>
      <trkpt lat="22.850248" lon="120.33899">
        <ele>104.0</ele>
      </trkpt>
      <trkpt lat="22.850218" lon="120.339046">
        <ele>105.0</ele>
      </trkpt>
      <trkpt lat="22.850177" lon="120.339068">
        <ele>106.0</ele>
      </trkpt>
      <trkpt lat="22.850167" lon="120.339159">
        <ele>109.0</ele>
      </trkpt>
      <trkpt lat="22.850214" lon="120.339317">
        <ele>114.0</ele>
      </trkpt>
      <trkpt lat="22.850266" lon="120.339574">
        <ele>123.0</ele>
      </trkpt>
      <trkpt lat="22.850248" lon="120.33965">
        <ele>125.0</ele>
      </trkpt>
      <trkpt lat="22.850268" lon="120.339711">
        <ele>128.0</ele>
      </trkpt>
      <trkpt lat="22.850317" lon="120.339801">
        <ele>131.0</ele>
      </trkpt>
      <trkpt lat="22.8504" lon="120.339836">
        <ele>132.0</ele>
      </trkpt>
      <trkpt lat="22.850622" lon="120.339874">
        <ele>134.0</ele>
      </trkpt>
      <trkpt lat="22.850698" lon="120.339906">
        <ele>135.0</ele>
      </trkpt>
      <trkpt lat="22.850726" lon="120.339937">
        <ele>136.0</ele>
      </trkpt>
      <trkpt lat="22.850727" lon="120.339986">
        <ele>137.0</ele>
      </trkpt>
      <trkpt lat="22.850695" lon="120.340014">
        <ele>138.0</ele>
      </trkpt>
      <trkpt lat="22.850564" lon="120.34005">
        <ele>139.0</ele>
      </trkpt>
      <trkpt lat="22.850556" lon="120.340101">
        <ele>141.0</ele>
      </trkpt>
      <trkpt lat="22.850637" lon="120.340197">
        <ele>144.0</ele>
      </trkpt>
      <trkpt lat="22.850682" lon="120.340228">
        <ele>146.0</ele>
      </trkpt>
      <trkpt lat="22.850777" lon="120.340215">
        <ele>145.0</ele>
      </trkpt>
      <trkpt lat="22.850778" lon="120.340234">
        <ele>146.0</ele>
      </trkpt>
      <trkpt lat="22.85073" lon="120.340263">
        <ele>147.0</ele>
      </trkpt>
      <trkpt lat="22.85073" lon="120.340292">
        <ele>148.0</ele>
      </trkpt>
      <trkpt lat="22.850775" lon="120.340318">
        <ele>149.0</ele>
      </trkpt>
      <trkpt lat="22.850775" lon="120.340334">
        <ele>149.0</ele>
      </trkpt>
      <trkpt lat="22.851118" lon="120.340375">
        <ele>149.0</ele>
      </trkpt>
      <trkpt lat="22.851144" lon="120.340455">
        <ele>152.0</ele>
      </trkpt>
      <trkpt lat="22.851207" lon="120.340541">
        <ele>154.0</ele>
      </trkpt>
      <trkpt lat="22.851275" lon="120.340584">
        <ele>155.0</ele>
      </trkpt>
      <trkpt lat="22.851672" lon="120.340673">
        <ele>155.0</ele>
      </trkpt>
      <trkpt lat="22.851833" lon="120.340773">
        <ele>157.0</ele>
      </trkpt>
      <trkpt lat="22.852094" lon="120.341001">
        <ele>163.0</ele>
      </trkpt>
      <trkpt lat="22.852262" lon="120.341114">
        <ele>165.0</ele>
      </trkpt>
      <trkpt lat="22.852437" lon="120.341188">
        <ele>165.0</ele>
      </trkpt>
      <trkpt lat="22.852676" lon="120.341242">
        <ele>166.0</ele>
      </trkpt>
      <trkpt lat="22.852851" lon="120.341264">
        <ele>167.0</ele>
      </trkpt>
      <trkpt lat="22.852891" lon="120.341321">
        <ele>169.0</ele>
      </trkpt>
      <trkpt lat="22.852946" lon="120.341274">
        <ele>167.0</ele>
      </trkpt>
      <trkpt lat="22.853003" lon="120.341263">
        <ele>167.0</ele>
      </trkpt>
      <trkpt lat="22.853062" lon="120.341276">
        <ele>167.0</ele>
      </trkpt>
      <trkpt lat="22.853099" lon="120.341339">
        <ele>169.0</ele>
      </trkpt>
      <trkpt lat="22.85297" lon="120.341375">
        <ele>170.0</ele>
      </trkpt>
      <trkpt lat="22.852821" lon="120.341489">
        <ele>174.0</ele>
      </trkpt>
      <trkpt lat="22.852784" lon="120.341533">
        <ele>176.0</ele>
      </trkpt>
      <trkpt lat="22.852771" lon="120.341584">
        <ele>177.0</ele>
      </trkpt>
      <trkpt lat="22.852779" lon="120.341692">
        <ele>181.0</ele>
      </trkpt>
      <trkpt lat="22.852812" lon="120.341735">
        <ele>182.0</ele>
      </trkpt>
      <trkpt lat="22.852876" lon="120.341773">
        <ele>184.0</ele>
      </trkpt>
      <trkpt lat="22.853113" lon="120.341829">
        <ele>185.0</ele>
      </trkpt>
      <trkpt lat="22.853324" lon="120.34212">
        <ele>194.0</ele>
      </trkpt>
      <trkpt lat="22.85335" lon="120.342102">
        <ele>193.0</ele>
      </trkpt>
      <trkpt lat="22.853433" lon="120.342158">
        <ele>195.0</ele>
      </trkpt>
      <trkpt lat="22.853503" lon="120.342203">
        <ele>196.0</ele>
      </trkpt>
      <trkpt lat="22.853586" lon="120.342221">
        <ele>195.0</ele>
      </trkpt>
      <trkpt lat="22.853691" lon="120.342271">
        <ele>196.0</ele>
      </trkpt>
      <trkpt lat="22.853929" lon="120.342281">
        <ele>195.0</ele>
      </trkpt>
      <trkpt lat="22.854038" lon="120.342325">
        <ele>195.0</ele>
      </trkpt>
      <trkpt lat="22.854034" lon="120.342343">
        <ele>196.0</ele>
      </trkpt>
      <trkpt lat="22.854092" lon="120.342474">
        <ele>200.0</ele>
      </trkpt>
      <trkpt lat="22.854101" lon="120.342562">
        <ele>202.0</ele>
      </trkpt>
      <trkpt lat="22.853905" lon="120.343115">
        <ele>221.0</ele>
      </trkpt>
      <trkpt lat="22.853856" lon="120.343119">
        <ele>222.0</ele>
      </trkpt>
      <trkpt lat="22.853816" lon="120.343088">
        <ele>221.0</ele>
      </trkpt>
      <trkpt lat="22.853741" lon="120.343008">
        <ele>219.0</ele>
      </trkpt>
      <trkpt lat="22.853589" lon="120.342784">
        <ele>213.0</ele>
      </trkpt>
      <trkpt lat="22.853499" lon="120.342733">
        <ele>212.0</ele>
      </trkpt>
      <trkpt lat="22.853396" lon="120.342754">
        <ele>213.0</ele>
      </trkpt>
      <trkpt lat="22.853187" lon="120.342649">
        <ele>212.0</ele>
      </trkpt>
      <trkpt lat="22.853024" lon="120.342614">
        <ele>212.0</ele>
      </trkpt>
      <trkpt lat="22.852995" lon="120.342353">
        <ele>203.0</ele>
      </trkpt>
      <trkpt lat="22.853302" lon="120.342227">
        <ele>198.0</ele>
      </trkpt>
      <trkpt lat="22.853366" lon="120.342341">
        <ele>201.0</ele>
      </trkpt>
      <trkpt lat="22.853534" lon="120.342443">
        <ele>203.0</ele>
      </trkpt>
      <trkpt lat="22.853366" lon="120.342341">
        <ele>201.0</ele>
      </trkpt>
      <trkpt lat="22.853302" lon="120.342227">
        <ele>198.0</ele>
      </trkpt>
      <trkpt lat="22.852995" lon="120.342353">
        <ele>203.0</ele>
      </trkpt>
      <trkpt lat="22.853024" lon="120.342614">
        <ele>212.0</ele>
      </trkpt>
      <trkpt lat="22.853187" lon="120.342649">
        <ele>212.0</ele>
      </trkpt>
      <trkpt lat="22.853396" lon="120.342754">
        <ele>213.0</ele>
      </trkpt>
      <trkpt lat="22.853336" lon="120.342822">
        <ele>216.0</ele>
      </trkpt>
      <trkpt lat="22.853274" lon="120.342812">
        <ele>216.0</ele>
      </trkpt>
      <trkpt lat="22.85317" lon="120.342841">
        <ele>218.0</ele>
      </trkpt>
      <trkpt lat="22.853274" lon="120.342812">
        <ele>216.0</ele>
      </trkpt>
      <trkpt lat="22.853336" lon="120.342822">
        <ele>216.0</ele>
      </trkpt>
      <trkpt lat="22.853274" lon="120.342812">
        <ele>216.0</ele>
      </trkpt>
      <trkpt lat="22.85317" lon="120.342841">
        <ele>218.0</ele>
      </trkpt>
      <trkpt lat="22.853059" lon="120.342846">
        <ele>219.0</ele>
      </trkpt>
      <trkpt lat="22.853037" lon="120.342859">
        <ele>219.0</ele>
      </trkpt>
      <trkpt lat="22.853022" lon="120.342905">
        <ele>221.0</ele>
      </trkpt>
      <trkpt lat="22.853032" lon="120.342938">
        <ele>222.0</ele>
      </trkpt>
      <trkpt lat="22.853254" lon="120.343271">
        <ele>231.0</ele>
      </trkpt>
      <trkpt lat="22.853262" lon="120.343321">
        <ele>232.0</ele>
      </trkpt>
      <trkpt lat="22.853237" lon="120.3434">
        <ele>234.0</ele>
      </trkpt>
      <trkpt lat="22.853223" lon="120.343548">
        <ele>237.0</ele>
      </trkpt>
      <trkpt lat="22.853429" lon="120.343821">
        <ele>241.0</ele>
      </trkpt>
      <trkpt lat="22.853404" lon="120.344013">
        <ele>244.0</ele>
      </trkpt>
      <trkpt lat="22.853316" lon="120.344043">
        <ele>245.0</ele>
      </trkpt>
      <trkpt lat="22.853362" lon="120.344421">
        <ele>258.0</ele>
      </trkpt>
      <trkpt lat="22.853301" lon="120.344552">
        <ele>264.0</ele>
      </trkpt>
      <trkpt lat="22.853036" lon="120.344549">
        <ele>267.0</ele>
      </trkpt>
      <trkpt lat="22.852908" lon="120.3446">
        <ele>270.0</ele>
      </trkpt>
      <trkpt lat="22.852843" lon="120.344837">
        <ele>280.0</ele>
      </trkpt>
      <trkpt lat="22.8528406" lon="120.3449253">
        <ele>283.0</ele>
      </trkpt>
      <trkpt lat="22.85284" lon="120.344925">
        <ele>283.0</ele>
      </trkpt>
      <trkpt lat="22.852834" lon="120.345164">
        <ele>288.0</ele>
      </trkpt>
      <trkpt lat="22.852722" lon="120.345077">
        <ele>288.0</ele>
      </trkpt>
      <trkpt lat="22.852519" lon="120.34506">
        <ele>289.0</ele>
      </trkpt>
      <trkpt lat="22.852163" lon="120.345099">
        <ele>290.0</ele>
      </trkpt>
      <trkpt lat="22.85205" lon="120.34506">
        <ele>290.0</ele>
      </trkpt>
      <trkpt lat="22.851456" lon="120.344629">
        <ele>284.0</ele>
      </trkpt>
      <trkpt lat="22.851342" lon="120.344572">
        <ele>283.0</ele>
      </trkpt>
      <trkpt lat="22.851314" lon="120.344586">
        <ele>284.0</ele>
      </trkpt>
      <trkpt lat="22.851314" lon="120.344586">
        <ele>284.0</ele>
      </trkpt>
      <trkpt lat="22.851342" lon="120.344572">
        <ele>283.0</ele>
      </trkpt>
      <trkpt lat="22.851244" lon="120.344481">
        <ele>283.0</ele>
      </trkpt>
      <trkpt lat="22.851189" lon="120.344382">
        <ele>282.0</ele>
      </trkpt>
      <trkpt lat="22.851142" lon="120.344297">
        <ele>282.0</ele>
      </trkpt>
      <trkpt lat="22.851136" lon="120.344275">
        <ele>282.0</ele>
      </trkpt>
      <trkpt lat="22.851136" lon="120.344275">
        <ele>282.0</ele>
      </trkpt>
      <trkpt lat="22.851135" lon="120.344271">
        <ele>282.0</ele>
      </trkpt>
      <trkpt lat="22.851074" lon="120.344144">
        <ele>281.0</ele>
      </trkpt>
      <trkpt lat="22.851053" lon="120.344076">
        <ele>278.0</ele>
      </trkpt>
      <trkpt lat="22.851042" lon="120.344057">
        <ele>278.0</ele>
      </trkpt>
      <trkpt lat="22.851019" lon="120.344056">
        <ele>278.0</ele>
      </trkpt>
      <trkpt lat="22.850939" lon="120.344046">
        <ele>279.0</ele>
      </trkpt>
      <trkpt lat="22.850939" lon="120.344046">
        <ele>279.0</ele>
      </trkpt>
      <trkpt lat="22.850893" lon="120.34404">
        <ele>279.0</ele>
      </trkpt>
      <trkpt lat="22.850879" lon="120.344065">
        <ele>280.0</ele>
      </trkpt>
      <trkpt lat="22.850908" lon="120.344228">
        <ele>284.0</ele>
      </trkpt>
      <trkpt lat="22.850981" lon="120.344294">
        <ele>284.0</ele>
      </trkpt>
      <trkpt lat="22.850981" lon="120.344294">
        <ele>284.0</ele>
      </trkpt>
      <trkpt lat="22.851021" lon="120.344325">
        <ele>283.0</ele>
      </trkpt>
      <trkpt lat="22.851141" lon="120.344366">
        <ele>282.0</ele>
      </trkpt>
      <trkpt lat="22.851141" lon="120.344366">
        <ele>282.0</ele>
      </trkpt>
      <trkpt lat="22.851189" lon="120.344382">
        <ele>282.0</ele>
      </trkpt>
      <trkpt lat="22.851244" lon="120.344481">
        <ele>283.0</ele>
      </trkpt>
      <trkpt lat="22.851342" lon="120.344572">
        <ele>283.0</ele>
      </trkpt>
      <trkpt lat="22.851456" lon="120.344629">
        <ele>284.0</ele>
      </trkpt>
      <trkpt lat="22.851941" lon="120.344981">
        <ele>290.0</ele>
      </trkpt>
      <trkpt lat="22.851941" lon="120.344981">
        <ele>290.0</ele>
      </trkpt>
      <trkpt lat="22.85205" lon="120.34506">
        <ele>290.0</ele>
      </trkpt>
      <trkpt lat="22.852163" lon="120.345099">
        <ele>290.0</ele>
      </trkpt>
      <trkpt lat="22.852519" lon="120.34506">
        <ele>289.0</ele>
      </trkpt>
      <trkpt lat="22.852595" lon="120.345066">
        <ele>289.0</ele>
      </trkpt>
      <trkpt lat="22.852595" lon="120.345066">
        <ele>289.0</ele>
      </trkpt>
      <trkpt lat="22.852722" lon="120.345077">
        <ele>288.0</ele>
      </trkpt>
      <trkpt lat="22.852989" lon="120.34529">
        <ele>288.0</ele>
      </trkpt>
      <trkpt lat="22.853201" lon="120.34552">
        <ele>289.0</ele>
      </trkpt>
      <trkpt lat="22.853415" lon="120.345905">
        <ele>292.0</ele>
      </trkpt>
      <trkpt lat="22.853476" lon="120.345945">
        <ele>292.0</ele>
      </trkpt>
      <trkpt lat="22.85373" lon="120.345956">
        <ele>292.0</ele>
      </trkpt>
      <trkpt lat="22.854838" lon="120.347173">
        <ele>289.0</ele>
      </trkpt>
      <trkpt lat="22.855145" lon="120.347381">
        <ele>289.0</ele>
      </trkpt>
      <trkpt lat="22.855646" lon="120.347536">
        <ele>289.0</ele>
      </trkpt>
      <trkpt lat="22.856193" lon="120.347781">
        <ele>289.0</ele>
      </trkpt>
      <trkpt lat="22.856877" lon="120.347849">
        <ele>291.0</ele>
      </trkpt>
      <trkpt lat="22.857187" lon="120.347841">
        <ele>290.0</ele>
      </trkpt>
      <trkpt lat="22.8575704" lon="120.3477146">
        <ele>289.0</ele>
      </trkpt>
      <trkpt lat="22.85757" lon="120.347715">
        <ele>289.0</ele>
      </trkpt>
      <trkpt lat="22.857815" lon="120.347634">
        <ele>288.0</ele>
      </trkpt>
      <trkpt lat="22.858034" lon="120.347613">
        <ele>288.0</ele>
      </trkpt>
      <trkpt lat="22.858451" lon="120.347645">
        <ele>287.0</ele>
      </trkpt>
      <trkpt lat="22.858678" lon="120.347639">
        <ele>287.0</ele>
      </trkpt>
      <trkpt lat="22.858678" lon="120.347639">
        <ele>287.0</ele>
      </trkpt>
      <trkpt lat="22.859164" lon="120.347682">
        <ele>287.0</ele>
      </trkpt>
      <trkpt lat="22.85927" lon="120.347732">
        <ele>287.0</ele>
      </trkpt>
      <trkpt lat="22.859336" lon="120.347826">
        <ele>287.0</ele>
      </trkpt>
      <trkpt lat="22.859366" lon="120.347813">
        <ele>287.0</ele>
      </trkpt>
      <trkpt lat="22.859444" lon="120.347819">
        <ele>287.0</ele>
      </trkpt>
      <trkpt lat="22.859509" lon="120.347847">
        <ele>287.0</ele>
      </trkpt>
      <trkpt lat="22.859766" lon="120.348036">
        <ele>288.0</ele>
      </trkpt>
      <trkpt lat="22.85983" lon="120.348043">
        <ele>289.0</ele>
      </trkpt>
      <trkpt lat="22.859924" lon="120.348185">
        <ele>290.0</ele>
      </trkpt>
      <trkpt lat="22.859924" lon="120.348185">
        <ele>290.0</ele>
      </trkpt>
      <trkpt lat="22.859981" lon="120.34827">
        <ele>291.0</ele>
      </trkpt>
      <trkpt lat="22.859995" lon="120.348365">
        <ele>292.0</ele>
      </trkpt>
      <trkpt lat="22.860018" lon="120.348415">
        <ele>291.0</ele>
      </trkpt>
      <trkpt lat="22.860081" lon="120.348488">
        <ele>290.0</ele>
      </trkpt>
      <trkpt lat="22.860256" lon="120.348497">
        <ele>289.0</ele>
      </trkpt>
      <trkpt lat="22.860318" lon="120.348448">
        <ele>289.0</ele>
      </trkpt>
      <trkpt lat="22.860318" lon="120.348448">
        <ele>289.0</ele>
      </trkpt>
      <trkpt lat="22.860256" lon="120.348497">
        <ele>289.0</ele>
      </trkpt>
      <trkpt lat="22.860081" lon="120.348488">
        <ele>290.0</ele>
      </trkpt>
      <trkpt lat="22.860018" lon="120.348415">
        <ele>291.0</ele>
      </trkpt>
      <trkpt lat="22.859995" lon="120.348365">
        <ele>292.0</ele>
      </trkpt>
      <trkpt lat="22.860331" lon="120.348274">
        <ele>289.0</ele>
      </trkpt>
      <trkpt lat="22.860749" lon="120.34815">
        <ele>284.0</ele>
      </trkpt>
      <trkpt lat="22.861262" lon="120.347939">
        <ele>277.0</ele>
      </trkpt>
      <trkpt lat="22.861262" lon="120.347939">
        <ele>277.0</ele>
      </trkpt>
      <trkpt lat="22.861346" lon="120.347905">
        <ele>276.0</ele>
      </trkpt>
      <trkpt lat="22.861428" lon="120.347898">
        <ele>275.0</ele>
      </trkpt>
      <trkpt lat="22.862425" lon="120.3482493">
        <ele>267.0</ele>
      </trkpt>
      <trkpt lat="22.862843" lon="120.348412">
        <ele>259.0</ele>
      </trkpt>
      <trkpt lat="22.863223" lon="120.348602">
        <ele>254.0</ele>
      </trkpt>
      <trkpt lat="22.863318" lon="120.348711">
        <ele>254.0</ele>
      </trkpt>
      <trkpt lat="22.863435" lon="120.34891">
        <ele>256.0</ele>
      </trkpt>
      <trkpt lat="22.863639" lon="120.349047">
        <ele>255.0</ele>
      </trkpt>
      <trkpt lat="22.863721" lon="120.349183">
        <ele>258.0</ele>
      </trkpt>
      <trkpt lat="22.864317" lon="120.349502">
        <ele>250.0</ele>
      </trkpt>
      <trkpt lat="22.864802" lon="120.349575">
        <ele>241.0</ele>
      </trkpt>
      <trkpt lat="22.86483" lon="120.349567">
        <ele>240.0</ele>
      </trkpt>
      <trkpt lat="22.864857" lon="120.349527">
        <ele>239.0</ele>
      </trkpt>
      <trkpt lat="22.864898" lon="120.349556">
        <ele>238.0</ele>
      </trkpt>
      <trkpt lat="22.865023" lon="120.349553">
        <ele>236.0</ele>
      </trkpt>
      <trkpt lat="22.865156" lon="120.34959">
        <ele>233.0</ele>
      </trkpt>
      <trkpt lat="22.865338" lon="120.349606">
        <ele>229.0</ele>
      </trkpt>
      <trkpt lat="22.865379" lon="120.349476">
        <ele>224.0</ele>
      </trkpt>
      <trkpt lat="22.865338" lon="120.349606">
        <ele>229.0</ele>
      </trkpt>
      <trkpt lat="22.865443" lon="120.349689">
        <ele>229.0</ele>
      </trkpt>
      <trkpt lat="22.865539" lon="120.349713">
        <ele>228.0</ele>
      </trkpt>
      <trkpt lat="22.865644" lon="120.349701">
        <ele>225.0</ele>
      </trkpt>
      <trkpt lat="22.865932" lon="120.349813">
        <ele>224.0</ele>
      </trkpt>
      <trkpt lat="22.86606" lon="120.349917">
        <ele>227.0</ele>
      </trkpt>
      <trkpt lat="22.866244" lon="120.350158">
        <ele>229.0</ele>
      </trkpt>
      <trkpt lat="22.866278" lon="120.350227">
        <ele>229.0</ele>
      </trkpt>
      <trkpt lat="22.86628" lon="120.350351">
        <ele>230.0</ele>
      </trkpt>
      <trkpt lat="22.86626" lon="120.350484">
        <ele>231.0</ele>
      </trkpt>
      <trkpt lat="22.866198" lon="120.350708">
        <ele>232.0</ele>
      </trkpt>
      <trkpt lat="22.866205" lon="120.350877">
        <ele>233.0</ele>
      </trkpt>
      <trkpt lat="22.866354" lon="120.350933">
        <ele>231.0</ele>
      </trkpt>
      <trkpt lat="22.866469" lon="120.35101">
        <ele>230.0</ele>
      </trkpt>
      <trkpt lat="22.866574" lon="120.351065">
        <ele>229.0</ele>
      </trkpt>
      <trkpt lat="22.866609" lon="120.351089">
        <ele>228.0</ele>
      </trkpt>
      <trkpt lat="22.866624" lon="120.351128">
        <ele>228.0</ele>
      </trkpt>
      <trkpt lat="22.866625" lon="120.351208">
        <ele>228.0</ele>
      </trkpt>
      <trkpt lat="22.866649" lon="120.351313">
        <ele>228.0</ele>
      </trkpt>
      <trkpt lat="22.86673" lon="120.351463">
        <ele>227.0</ele>
      </trkpt>
      <trkpt lat="22.866814" lon="120.351533">
        <ele>226.0</ele>
      </trkpt>
      <trkpt lat="22.866934" lon="120.35158">
        <ele>225.0</ele>
      </trkpt>
      <trkpt lat="22.866974" lon="120.351621">
        <ele>225.0</ele>
      </trkpt>
      <trkpt lat="22.867141" lon="120.351691">
        <ele>223.0</ele>
      </trkpt>
      <trkpt lat="22.867233" lon="120.351677">
        <ele>223.0</ele>
      </trkpt>
      <trkpt lat="22.867288" lon="120.35163">
        <ele>222.0</ele>
      </trkpt>
      <trkpt lat="22.867327" lon="120.351641">
        <ele>222.0</ele>
      </trkpt>
      <trkpt lat="22.867599" lon="120.352049">
        <ele>217.0</ele>
      </trkpt>
      <trkpt lat="22.867641" lon="120.352204">
        <ele>215.0</ele>
      </trkpt>
      <trkpt lat="22.86776" lon="120.352473">
        <ele>213.0</ele>
      </trkpt>
      <trkpt lat="22.867974" lon="120.352399">
        <ele>210.0</ele>
      </trkpt>
      <trkpt lat="22.868151" lon="120.352387">
        <ele>207.0</ele>
      </trkpt>
      <trkpt lat="22.868287" lon="120.352356">
        <ele>205.0</ele>
      </trkpt>
      <trkpt lat="22.868424" lon="120.352408">
        <ele>202.0</ele>
      </trkpt>
      <trkpt lat="22.86851" lon="120.352398">
        <ele>200.0</ele>
      </trkpt>
      <trkpt lat="22.868608" lon="120.352351">
        <ele>196.0</ele>
      </trkpt>
      <trkpt lat="22.86866" lon="120.352306">
        <ele>193.0</ele>
      </trkpt>
      <trkpt lat="22.86866" lon="120.352271">
        <ele>192.0</ele>
      </trkpt>
      <trkpt lat="22.8687" lon="120.352318">
        <ele>192.0</ele>
      </trkpt>
      <trkpt lat="22.868787" lon="120.352796">
        <ele>194.0</ele>
      </trkpt>
      <trkpt lat="22.868809" lon="120.352857">
        <ele>194.0</ele>
      </trkpt>
      <trkpt lat="22.868827" lon="120.353012">
        <ele>194.0</ele>
      </trkpt>
      <trkpt lat="22.868943" lon="120.353386">
        <ele>192.0</ele>
      </trkpt>
      <trkpt lat="22.869064" lon="120.353672">
        <ele>189.0</ele>
      </trkpt>
      <trkpt lat="22.869071" lon="120.353782">
        <ele>189.0</ele>
      </trkpt>
      <trkpt lat="22.869107" lon="120.353951">
        <ele>188.0</ele>
      </trkpt>
      <trkpt lat="22.869099" lon="120.354139">
        <ele>188.0</ele>
      </trkpt>
      <trkpt lat="22.869135" lon="120.354311">
        <ele>186.0</ele>
      </trkpt>
      <trkpt lat="22.869129" lon="120.354464">
        <ele>184.0</ele>
      </trkpt>
      <trkpt lat="22.869221" lon="120.35472">
        <ele>181.0</ele>
      </trkpt>
      <trkpt lat="22.869291" lon="120.354967">
        <ele>178.0</ele>
      </trkpt>
      <trkpt lat="22.869259" lon="120.35507">
        <ele>176.0</ele>
      </trkpt>
      <trkpt lat="22.869266" lon="120.355171">
        <ele>175.0</ele>
      </trkpt>
      <trkpt lat="22.869335" lon="120.35542">
        <ele>172.0</ele>
      </trkpt>
      <trkpt lat="22.869296" lon="120.355581">
        <ele>170.0</ele>
      </trkpt>
      <trkpt lat="22.869358" lon="120.355678">
        <ele>168.0</ele>
      </trkpt>
      <trkpt lat="22.869357" lon="120.355713">
        <ele>168.0</ele>
      </trkpt>
      <trkpt lat="22.869102" lon="120.355742">
        <ele>168.0</ele>
      </trkpt>
      <trkpt lat="22.869008" lon="120.355773">
        <ele>169.0</ele>
      </trkpt>
      <trkpt lat="22.868786" lon="120.355917">
        <ele>170.0</ele>
      </trkpt>
      <trkpt lat="22.868701" lon="120.355941">
        <ele>171.0</ele>
      </trkpt>
      <trkpt lat="22.868636" lon="120.356064">
        <ele>169.0</ele>
      </trkpt>
      <trkpt lat="22.869234" lon="120.356443">
        <ele>158.0</ele>
      </trkpt>
      <trkpt lat="22.869526" lon="120.356496">
        <ele>156.0</ele>
      </trkpt>
      <trkpt lat="22.869662" lon="120.356556">
        <ele>154.0</ele>
      </trkpt>
      <trkpt lat="22.869768" lon="120.356633">
        <ele>153.0</ele>
      </trkpt>
      <trkpt lat="22.870058" lon="120.356915">
        <ele>144.0</ele>
      </trkpt>
      <trkpt lat="22.870168" lon="120.356956">
        <ele>141.0</ele>
      </trkpt>
      <trkpt lat="22.870435" lon="120.357011">
        <ele>137.0</ele>
      </trkpt>
      <trkpt lat="22.870583" lon="120.357098">
        <ele>133.0</ele>
      </trkpt>
      <trkpt lat="22.870728" lon="120.357105">
        <ele>131.0</ele>
      </trkpt>
      <trkpt lat="22.870882" lon="120.357092">
        <ele>129.0</ele>
      </trkpt>
      <trkpt lat="22.870956" lon="120.357101">
        <ele>128.0</ele>
      </trkpt>
      <trkpt lat="22.871015" lon="120.357142">
        <ele>126.0</ele>
      </trkpt>
      <trkpt lat="22.871016" lon="120.357219">
        <ele>124.0</ele>
      </trkpt>
      <trkpt lat="22.870938" lon="120.357437">
        <ele>121.0</ele>
      </trkpt>
      <trkpt lat="22.870899" lon="120.35766">
        <ele>116.0</ele>
      </trkpt>
      <trkpt lat="22.870932" lon="120.357724">
        <ele>114.0</ele>
      </trkpt>
      <trkpt lat="22.871061" lon="120.357786">
        <ele>111.0</ele>
      </trkpt>
      <trkpt lat="22.8713" lon="120.357796">
        <ele>106.0</ele>
      </trkpt>
      <trkpt lat="22.871943" lon="120.357748">
        <ele>98.0</ele>
      </trkpt>
      <trkpt lat="22.872292" lon="120.357759">
        <ele>93.0</ele>
      </trkpt>
      <trkpt lat="22.872722" lon="120.357674">
        <ele>87.0</ele>
      </trkpt>
      <trkpt lat="22.872849" lon="120.357627">
        <ele>85.0</ele>
      </trkpt>
      <trkpt lat="22.872991" lon="120.35755">
        <ele>83.0</ele>
      </trkpt>
      <trkpt lat="22.873127" lon="120.35745">
        <ele>81.0</ele>
      </trkpt>
      <trkpt lat="22.873483" lon="120.357118">
        <ele>73.0</ele>
      </trkpt>
      <trkpt lat="22.873535" lon="120.357096">
        <ele>72.0</ele>
      </trkpt>
      <trkpt lat="22.873584" lon="120.357111">
        <ele>70.0</ele>
      </trkpt>
      <trkpt lat="22.873635" lon="120.357173">
        <ele>69.0</ele>
      </trkpt>
      <trkpt lat="22.873652" lon="120.357293">
        <ele>68.0</ele>
      </trkpt>
      <trkpt lat="22.8736363" lon="120.3573601">
        <ele>68.0</ele>
      </trkpt>
      <trkpt lat="22.873636" lon="120.35736">
        <ele>68.0</ele>
      </trkpt>
      <trkpt lat="22.873614" lon="120.357455">
        <ele>68.0</ele>
      </trkpt>
      <trkpt lat="22.873506" lon="120.357705">
        <ele>68.0</ele>
      </trkpt>
      <trkpt lat="22.873485" lon="120.357816">
        <ele>68.0</ele>
      </trkpt>
      <trkpt lat="22.873484" lon="120.357816">
        <ele>68.0</ele>
      </trkpt>
      <trkpt lat="22.873465" lon="120.357917">
        <ele>67.0</ele>
      </trkpt>
      <trkpt lat="22.873489" lon="120.358014">
        <ele>65.0</ele>
      </trkpt>
      <trkpt lat="22.873538" lon="120.358075">
        <ele>63.0</ele>
      </trkpt>
      <trkpt lat="22.873596" lon="120.358052">
        <ele>62.0</ele>
      </trkpt>
      <trkpt lat="22.873709" lon="120.357934">
        <ele>61.0</ele>
      </trkpt>
      <trkpt lat="22.873841" lon="120.357747">
        <ele>60.0</ele>
      </trkpt>
      <trkpt lat="22.873901" lon="120.357635">
        <ele>59.0</ele>
      </trkpt>
      <trkpt lat="22.8740714" lon="120.3571378">
        <ele>57.0</ele>
      </trkpt>
      <trkpt lat="22.874119" lon="120.356999">
        <ele>56.0</ele>
      </trkpt>
    </trkseg>
  </trk>
</gpx>
