<?xml version="1.0"?>
<gpx xmlns="http://www.topografix.com/GPX/1/1" xmlns:xsi="http://www.w3.org/2001/XMLSchema-instance" xsi:schemaLocation="http://www.topografix.com/GPX/1/1 http://www.topografix.com/GPX/1/1/gpx.xsd" version="1.1" creator="Martin Schneider">
  <wpt lat="22.6420188" lon="120.2655619">
    <ele>330</ele>
    <name>Summit Shoushan</name>
  </wpt>
  <wpt lat="22.6374350" lon="120.2768275">
    <name>1</name>
    <desc>Zoo Trailhead</desc>
  </wpt>
  <wpt lat="22.6423451" lon="120.2768921">
    <name>2</name>
    <desc>Taiwan Cement Trailhead</desc>
  </wpt>
  <wpt lat="22.6423451" lon="120.2768921">
    <name>3</name>
    <desc>Beishoushan Trailhead</desc>
  </wpt>
  <wpt lat="22.6554051" lon="120.2732007">
    <name>4</name>
    <desc>Longquan Temple Trailhead</desc>
  </wpt>
  <wpt lat="22.6360436" lon="120.2825640">
    <name>5</name>
    <desc>Gushan District Office light rail station</desc>
  </wpt>
  <wpt lat="22.6422535" lon="120.2663321">
    <name>6</name>
    <desc>Haohan Pavillon</desc>
  </wpt>
  <wpt lat="22.6421074" lon="120.2658738">
    <name>7</name>
    <desc>Access prohibited board below the summit</desc>
  </wpt>
  <wpt lat="22.6549404" lon="120.2828419">
    <name>8</name>
    <desc>Newei Arts Center light rail station</desc>
  </wpt>
  <wpt lat="22.636274" lon="120.282482">
    <ele>7.0</ele>
    <name>Start</name>
  </wpt>
  <wpt lat="22.655075" lon="120.282596">
    <ele>6.0</ele>
    <name>End</name>
  </wpt>
  <trk>
    <name>077_Shoushan</name>
    <trkseg>
      <trkpt lat="22.636274" lon="120.282482">
        <ele>7.0</ele>
      </trkpt>
      <trkpt lat="22.636274" lon="120.282482">
        <ele>7.0</ele>
      </trkpt>
      <trkpt lat="22.636287" lon="120.282498">
        <ele>7.0</ele>
      </trkpt>
      <trkpt lat="22.636289" lon="120.282582">
        <ele>7.0</ele>
      </trkpt>
      <trkpt lat="22.636321" lon="120.282573">
        <ele>7.0</ele>
      </trkpt>
      <trkpt lat="22.636327" lon="120.282487">
        <ele>7.0</ele>
      </trkpt>
      <trkpt lat="22.636263" lon="120.282145">
        <ele>8.0</ele>
      </trkpt>
      <trkpt lat="22.636148" lon="120.281142">
        <ele>11.0</ele>
      </trkpt>
      <trkpt lat="22.636142" lon="120.280958">
        <ele>12.0</ele>
      </trkpt>
      <trkpt lat="22.636004" lon="120.280624">
        <ele>15.0</ele>
      </trkpt>
      <trkpt lat="22.635985" lon="120.280511">
        <ele>16.0</ele>
      </trkpt>
      <trkpt lat="22.635992" lon="120.280398">
        <ele>18.0</ele>
      </trkpt>
      <trkpt lat="22.63602" lon="120.280313">
        <ele>19.0</ele>
      </trkpt>
      <trkpt lat="22.636176" lon="120.2801">
        <ele>20.0</ele>
      </trkpt>
      <trkpt lat="22.636176" lon="120.2801">
        <ele>20.0</ele>
      </trkpt>
      <trkpt lat="22.636143" lon="120.280132">
        <ele>20.0</ele>
      </trkpt>
      <trkpt lat="22.636057" lon="120.279748">
        <ele>28.0</ele>
      </trkpt>
      <trkpt lat="22.636099" lon="120.279727">
        <ele>28.0</ele>
      </trkpt>
      <trkpt lat="22.635969" lon="120.279167">
        <ele>44.0</ele>
      </trkpt>
      <trkpt lat="22.635864" lon="120.278893">
        <ele>50.0</ele>
      </trkpt>
      <trkpt lat="22.635826" lon="120.278902">
        <ele>50.0</ele>
      </trkpt>
      <trkpt lat="22.635778" lon="120.278872">
        <ele>51.0</ele>
      </trkpt>
      <trkpt lat="22.635768" lon="120.278849">
        <ele>52.0</ele>
      </trkpt>
      <trkpt lat="22.635737" lon="120.278861">
        <ele>51.0</ele>
      </trkpt>
      <trkpt lat="22.635718" lon="120.278751">
        <ele>53.0</ele>
      </trkpt>
      <trkpt lat="22.635664" lon="120.278681">
        <ele>54.0</ele>
      </trkpt>
      <trkpt lat="22.635613" lon="120.278497">
        <ele>57.0</ele>
      </trkpt>
      <trkpt lat="22.635566" lon="120.27839">
        <ele>59.0</ele>
      </trkpt>
      <trkpt lat="22.635643" lon="120.278374">
        <ele>59.0</ele>
      </trkpt>
      <trkpt lat="22.635634" lon="120.278338">
        <ele>59.0</ele>
      </trkpt>
      <trkpt lat="22.63547" lon="120.278295">
        <ele>60.0</ele>
      </trkpt>
      <trkpt lat="22.635459" lon="120.278053">
        <ele>63.0</ele>
      </trkpt>
      <trkpt lat="22.635477" lon="120.277462">
        <ele>70.0</ele>
      </trkpt>
      <trkpt lat="22.635477" lon="120.277462">
        <ele>70.0</ele>
      </trkpt>
      <trkpt lat="22.635477" lon="120.277458">
        <ele>71.0</ele>
      </trkpt>
      <trkpt lat="22.636226" lon="120.277348">
        <ele>76.0</ele>
      </trkpt>
      <trkpt lat="22.636601" lon="120.277323">
        <ele>77.0</ele>
      </trkpt>
      <trkpt lat="22.636755" lon="120.277277">
        <ele>79.0</ele>
      </trkpt>
      <trkpt lat="22.636857" lon="120.277225">
        <ele>80.0</ele>
      </trkpt>
      <trkpt lat="22.637255" lon="120.276931">
        <ele>85.0</ele>
      </trkpt>
      <trkpt lat="22.637255" lon="120.276932">
        <ele>85.0</ele>
      </trkpt>
      <trkpt lat="22.637411" lon="120.276811">
        <ele>87.0</ele>
      </trkpt>
      <trkpt lat="22.637467" lon="120.27685">
        <ele>87.0</ele>
      </trkpt>
      <trkpt lat="22.637713" lon="120.276806">
        <ele>86.0</ele>
      </trkpt>
      <trkpt lat="22.637858" lon="120.276733">
        <ele>86.0</ele>
      </trkpt>
      <trkpt lat="22.637995" lon="120.276643">
        <ele>86.0</ele>
      </trkpt>
      <trkpt lat="22.638063" lon="120.276502">
        <ele>88.0</ele>
      </trkpt>
      <trkpt lat="22.638096" lon="120.276394">
        <ele>89.0</ele>
      </trkpt>
      <trkpt lat="22.638133" lon="120.276234">
        <ele>91.0</ele>
      </trkpt>
      <trkpt lat="22.638158" lon="120.275976">
        <ele>95.0</ele>
      </trkpt>
      <trkpt lat="22.63814" lon="120.275741">
        <ele>98.0</ele>
      </trkpt>
      <trkpt lat="22.638114" lon="120.275613">
        <ele>99.0</ele>
      </trkpt>
      <trkpt lat="22.638046" lon="120.275461">
        <ele>100.0</ele>
      </trkpt>
      <trkpt lat="22.638009" lon="120.275356">
        <ele>101.0</ele>
      </trkpt>
      <trkpt lat="22.638009" lon="120.275356">
        <ele>101.0</ele>
      </trkpt>
      <trkpt lat="22.637929" lon="120.275196">
        <ele>102.0</ele>
      </trkpt>
      <trkpt lat="22.637912" lon="120.275088">
        <ele>103.0</ele>
      </trkpt>
      <trkpt lat="22.637944" lon="120.275074">
        <ele>103.0</ele>
      </trkpt>
      <trkpt lat="22.637978" lon="120.275034">
        <ele>104.0</ele>
      </trkpt>
      <trkpt lat="22.638006" lon="120.27502">
        <ele>104.0</ele>
      </trkpt>
      <trkpt lat="22.638033" lon="120.274977">
        <ele>104.0</ele>
      </trkpt>
      <trkpt lat="22.638061" lon="120.274866">
        <ele>106.0</ele>
      </trkpt>
      <trkpt lat="22.638055" lon="120.274645">
        <ele>107.0</ele>
      </trkpt>
      <trkpt lat="22.638057" lon="120.274544">
        <ele>108.0</ele>
      </trkpt>
      <trkpt lat="22.638005" lon="120.274375">
        <ele>110.0</ele>
      </trkpt>
      <trkpt lat="22.637979" lon="120.274287">
        <ele>111.0</ele>
      </trkpt>
      <trkpt lat="22.637893" lon="120.273964">
        <ele>118.0</ele>
      </trkpt>
      <trkpt lat="22.637861" lon="120.27389">
        <ele>121.0</ele>
      </trkpt>
      <trkpt lat="22.637842" lon="120.273802">
        <ele>123.0</ele>
      </trkpt>
      <trkpt lat="22.637804" lon="120.273731">
        <ele>126.0</ele>
      </trkpt>
      <trkpt lat="22.637808" lon="120.273679">
        <ele>127.0</ele>
      </trkpt>
      <trkpt lat="22.637842" lon="120.273601">
        <ele>129.0</ele>
      </trkpt>
      <trkpt lat="22.637918" lon="120.273441">
        <ele>133.0</ele>
      </trkpt>
      <trkpt lat="22.637971" lon="120.273254">
        <ele>138.0</ele>
      </trkpt>
      <trkpt lat="22.637985" lon="120.273236">
        <ele>138.0</ele>
      </trkpt>
      <trkpt lat="22.638001" lon="120.273229">
        <ele>138.0</ele>
      </trkpt>
      <trkpt lat="22.638053" lon="120.273213">
        <ele>138.0</ele>
      </trkpt>
      <trkpt lat="22.638209" lon="120.273226">
        <ele>137.0</ele>
      </trkpt>
      <trkpt lat="22.638337" lon="120.273167">
        <ele>137.0</ele>
      </trkpt>
      <trkpt lat="22.638466" lon="120.273153">
        <ele>135.0</ele>
      </trkpt>
      <trkpt lat="22.638541" lon="120.273089">
        <ele>135.0</ele>
      </trkpt>
      <trkpt lat="22.638577" lon="120.273017">
        <ele>136.0</ele>
      </trkpt>
      <trkpt lat="22.638567" lon="120.273012">
        <ele>136.0</ele>
      </trkpt>
      <trkpt lat="22.638611" lon="120.272921">
        <ele>137.0</ele>
      </trkpt>
      <trkpt lat="22.638602" lon="120.2729">
        <ele>138.0</ele>
      </trkpt>
      <trkpt lat="22.638546" lon="120.272877">
        <ele>139.0</ele>
      </trkpt>
      <trkpt lat="22.638395" lon="120.272849">
        <ele>141.0</ele>
      </trkpt>
      <trkpt lat="22.638285" lon="120.272816">
        <ele>143.0</ele>
      </trkpt>
      <trkpt lat="22.638238" lon="120.272812">
        <ele>144.0</ele>
      </trkpt>
      <trkpt lat="22.638066" lon="120.272746">
        <ele>146.0</ele>
      </trkpt>
      <trkpt lat="22.637996" lon="120.272654">
        <ele>149.0</ele>
      </trkpt>
      <trkpt lat="22.637996" lon="120.272654">
        <ele>149.0</ele>
      </trkpt>
      <trkpt lat="22.637974" lon="120.272624">
        <ele>150.0</ele>
      </trkpt>
      <trkpt lat="22.637974" lon="120.272573">
        <ele>151.0</ele>
      </trkpt>
      <trkpt lat="22.637956" lon="120.272566">
        <ele>151.0</ele>
      </trkpt>
      <trkpt lat="22.637923" lon="120.272524">
        <ele>152.0</ele>
      </trkpt>
      <trkpt lat="22.637917" lon="120.272274">
        <ele>155.0</ele>
      </trkpt>
      <trkpt lat="22.638176" lon="120.271939">
        <ele>158.0</ele>
      </trkpt>
      <trkpt lat="22.638176" lon="120.271939">
        <ele>158.0</ele>
      </trkpt>
      <trkpt lat="22.63849" lon="120.271577">
        <ele>156.0</ele>
      </trkpt>
      <trkpt lat="22.638769" lon="120.271209">
        <ele>151.0</ele>
      </trkpt>
      <trkpt lat="22.638977" lon="120.270967">
        <ele>150.0</ele>
      </trkpt>
      <trkpt lat="22.638971" lon="120.270943">
        <ele>151.0</ele>
      </trkpt>
      <trkpt lat="22.638971" lon="120.270943">
        <ele>151.0</ele>
      </trkpt>
      <trkpt lat="22.638948" lon="120.270841">
        <ele>152.0</ele>
      </trkpt>
      <trkpt lat="22.639098" lon="120.27082">
        <ele>151.0</ele>
      </trkpt>
      <trkpt lat="22.639091" lon="120.270746">
        <ele>151.0</ele>
      </trkpt>
      <trkpt lat="22.639178" lon="120.270735">
        <ele>151.0</ele>
      </trkpt>
      <trkpt lat="22.639181" lon="120.270559">
        <ele>151.0</ele>
      </trkpt>
      <trkpt lat="22.639119" lon="120.27039">
        <ele>151.0</ele>
      </trkpt>
      <trkpt lat="22.63909" lon="120.270319">
        <ele>151.0</ele>
      </trkpt>
      <trkpt lat="22.638904" lon="120.270017">
        <ele>151.0</ele>
      </trkpt>
      <trkpt lat="22.638902" lon="120.269845">
        <ele>153.0</ele>
      </trkpt>
      <trkpt lat="22.638932" lon="120.269675">
        <ele>156.0</ele>
      </trkpt>
      <trkpt lat="22.639033" lon="120.269546">
        <ele>157.0</ele>
      </trkpt>
      <trkpt lat="22.639021" lon="120.269401">
        <ele>159.0</ele>
      </trkpt>
      <trkpt lat="22.639088" lon="120.269197">
        <ele>161.0</ele>
      </trkpt>
      <trkpt lat="22.639199" lon="120.269049">
        <ele>164.0</ele>
      </trkpt>
      <trkpt lat="22.639229" lon="120.268955">
        <ele>166.0</ele>
      </trkpt>
      <trkpt lat="22.63936" lon="120.26892">
        <ele>168.0</ele>
      </trkpt>
      <trkpt lat="22.639365" lon="120.268899">
        <ele>168.0</ele>
      </trkpt>
      <trkpt lat="22.639365" lon="120.268899">
        <ele>168.0</ele>
      </trkpt>
      <trkpt lat="22.639385" lon="120.26882">
        <ele>171.0</ele>
      </trkpt>
      <trkpt lat="22.639517" lon="120.268675">
        <ele>176.0</ele>
      </trkpt>
      <trkpt lat="22.639576" lon="120.268683">
        <ele>176.0</ele>
      </trkpt>
      <trkpt lat="22.639628" lon="120.268682">
        <ele>177.0</ele>
      </trkpt>
      <trkpt lat="22.639742" lon="120.268433">
        <ele>186.0</ele>
      </trkpt>
      <trkpt lat="22.639784" lon="120.26837">
        <ele>189.0</ele>
      </trkpt>
      <trkpt lat="22.639829" lon="120.268337">
        <ele>191.0</ele>
      </trkpt>
      <trkpt lat="22.639787" lon="120.268172">
        <ele>195.0</ele>
      </trkpt>
      <trkpt lat="22.639788" lon="120.2681">
        <ele>197.0</ele>
      </trkpt>
      <trkpt lat="22.639814" lon="120.268043">
        <ele>199.0</ele>
      </trkpt>
      <trkpt lat="22.640005" lon="120.267771">
        <ele>212.0</ele>
      </trkpt>
      <trkpt lat="22.640054" lon="120.267762">
        <ele>213.0</ele>
      </trkpt>
      <trkpt lat="22.640291" lon="120.267655">
        <ele>218.0</ele>
      </trkpt>
      <trkpt lat="22.640385" lon="120.267542">
        <ele>222.0</ele>
      </trkpt>
      <trkpt lat="22.6404568" lon="120.2675269">
        <ele>223.0</ele>
      </trkpt>
      <trkpt lat="22.640457" lon="120.267527">
        <ele>223.0</ele>
      </trkpt>
      <trkpt lat="22.640537" lon="120.26751">
        <ele>224.0</ele>
      </trkpt>
      <trkpt lat="22.640643" lon="120.267488">
        <ele>225.0</ele>
      </trkpt>
      <trkpt lat="22.640722" lon="120.267466">
        <ele>226.0</ele>
      </trkpt>
      <trkpt lat="22.64077" lon="120.267492">
        <ele>226.0</ele>
      </trkpt>
      <trkpt lat="22.64077" lon="120.267492">
        <ele>226.0</ele>
      </trkpt>
      <trkpt lat="22.640842" lon="120.26753">
        <ele>225.0</ele>
      </trkpt>
      <trkpt lat="22.640911" lon="120.267538">
        <ele>226.0</ele>
      </trkpt>
      <trkpt lat="22.640936" lon="120.267491">
        <ele>227.0</ele>
      </trkpt>
      <trkpt lat="22.641039" lon="120.267385">
        <ele>230.0</ele>
      </trkpt>
      <trkpt lat="22.641039" lon="120.267385">
        <ele>230.0</ele>
      </trkpt>
      <trkpt lat="22.641071" lon="120.267334">
        <ele>232.0</ele>
      </trkpt>
      <trkpt lat="22.6411" lon="120.267373">
        <ele>231.0</ele>
      </trkpt>
      <trkpt lat="22.641172" lon="120.267321">
        <ele>233.0</ele>
      </trkpt>
      <trkpt lat="22.641213" lon="120.26726">
        <ele>235.0</ele>
      </trkpt>
      <trkpt lat="22.641264" lon="120.26724">
        <ele>236.0</ele>
      </trkpt>
      <trkpt lat="22.641264" lon="120.26724">
        <ele>236.0</ele>
      </trkpt>
      <trkpt lat="22.641296" lon="120.267227">
        <ele>237.0</ele>
      </trkpt>
      <trkpt lat="22.641389" lon="120.267281">
        <ele>237.0</ele>
      </trkpt>
      <trkpt lat="22.641443" lon="120.2672768">
        <ele>238.0</ele>
      </trkpt>
      <trkpt lat="22.641517" lon="120.267271">
        <ele>239.0</ele>
      </trkpt>
      <trkpt lat="22.641517" lon="120.267271">
        <ele>239.0</ele>
      </trkpt>
      <trkpt lat="22.641585" lon="120.267261">
        <ele>240.0</ele>
      </trkpt>
      <trkpt lat="22.641557" lon="120.267121">
        <ele>244.0</ele>
      </trkpt>
      <trkpt lat="22.641581" lon="120.266978">
        <ele>250.0</ele>
      </trkpt>
      <trkpt lat="22.641615" lon="120.266892">
        <ele>254.0</ele>
      </trkpt>
      <trkpt lat="22.641677" lon="120.26682">
        <ele>257.0</ele>
      </trkpt>
      <trkpt lat="22.641705" lon="120.266741">
        <ele>261.0</ele>
      </trkpt>
      <trkpt lat="22.641705" lon="120.266741">
        <ele>261.0</ele>
      </trkpt>
      <trkpt lat="22.641762" lon="120.2667">
        <ele>263.0</ele>
      </trkpt>
      <trkpt lat="22.641784" lon="120.26666">
        <ele>265.0</ele>
      </trkpt>
      <trkpt lat="22.641845" lon="120.266627">
        <ele>267.0</ele>
      </trkpt>
      <trkpt lat="22.64189" lon="120.266502">
        <ele>272.0</ele>
      </trkpt>
      <trkpt lat="22.6420447" lon="120.2664476">
        <ele>276.0</ele>
      </trkpt>
      <trkpt lat="22.642113" lon="120.266355">
        <ele>281.0</ele>
      </trkpt>
      <trkpt lat="22.642113" lon="120.266355">
        <ele>281.0</ele>
      </trkpt>
      <trkpt lat="22.642214" lon="120.266384">
        <ele>281.0</ele>
      </trkpt>
      <trkpt lat="22.642187" lon="120.266315">
        <ele>283.0</ele>
      </trkpt>
      <trkpt lat="22.642124" lon="120.26628">
        <ele>284.0</ele>
      </trkpt>
      <trkpt lat="22.64206" lon="120.266148">
        <ele>288.0</ele>
      </trkpt>
      <trkpt lat="22.642065" lon="120.266064">
        <ele>291.0</ele>
      </trkpt>
      <trkpt lat="22.642099" lon="120.265985">
        <ele>294.0</ele>
      </trkpt>
      <trkpt lat="22.642107" lon="120.265878">
        <ele>298.0</ele>
      </trkpt>
      <trkpt lat="22.642107" lon="120.265878">
        <ele>298.0</ele>
      </trkpt>
      <trkpt lat="22.642099" lon="120.265985">
        <ele>294.0</ele>
      </trkpt>
      <trkpt lat="22.642065" lon="120.266064">
        <ele>291.0</ele>
      </trkpt>
      <trkpt lat="22.64206" lon="120.266148">
        <ele>288.0</ele>
      </trkpt>
      <trkpt lat="22.642124" lon="120.26628">
        <ele>284.0</ele>
      </trkpt>
      <trkpt lat="22.642187" lon="120.266315">
        <ele>283.0</ele>
      </trkpt>
      <trkpt lat="22.642139" lon="120.266219">
        <ele>286.0</ele>
      </trkpt>
      <trkpt lat="22.642157" lon="120.266148">
        <ele>289.0</ele>
      </trkpt>
      <trkpt lat="22.642166" lon="120.266122">
        <ele>290.0</ele>
      </trkpt>
      <trkpt lat="22.6422" lon="120.266103">
        <ele>291.0</ele>
      </trkpt>
      <trkpt lat="22.642362" lon="120.266037">
        <ele>296.0</ele>
      </trkpt>
      <trkpt lat="22.642465" lon="120.266021">
        <ele>298.0</ele>
      </trkpt>
      <trkpt lat="22.642601" lon="120.265937">
        <ele>300.0</ele>
      </trkpt>
      <trkpt lat="22.642671" lon="120.265859">
        <ele>302.0</ele>
      </trkpt>
      <trkpt lat="22.64269" lon="120.265772">
        <ele>303.0</ele>
      </trkpt>
      <trkpt lat="22.642658" lon="120.265679">
        <ele>305.0</ele>
      </trkpt>
      <trkpt lat="22.64258" lon="120.26561">
        <ele>306.0</ele>
      </trkpt>
      <trkpt lat="22.642476" lon="120.265561">
        <ele>307.0</ele>
      </trkpt>
      <trkpt lat="22.642452" lon="120.2655">
        <ele>308.0</ele>
      </trkpt>
      <trkpt lat="22.64254" lon="120.265313">
        <ele>310.0</ele>
      </trkpt>
      <trkpt lat="22.642554" lon="120.265294">
        <ele>310.0</ele>
      </trkpt>
      <trkpt lat="22.642554" lon="120.265294">
        <ele>310.0</ele>
      </trkpt>
      <trkpt lat="22.64265" lon="120.265315">
        <ele>309.0</ele>
      </trkpt>
      <trkpt lat="22.642988" lon="120.265408">
        <ele>304.0</ele>
      </trkpt>
      <trkpt lat="22.643096" lon="120.265462">
        <ele>303.0</ele>
      </trkpt>
      <trkpt lat="22.643156" lon="120.265511">
        <ele>301.0</ele>
      </trkpt>
      <trkpt lat="22.643232" lon="120.265606">
        <ele>299.0</ele>
      </trkpt>
      <trkpt lat="22.643267" lon="120.265607">
        <ele>299.0</ele>
      </trkpt>
      <trkpt lat="22.643347" lon="120.265649">
        <ele>297.0</ele>
      </trkpt>
      <trkpt lat="22.643644" lon="120.26585">
        <ele>294.0</ele>
      </trkpt>
      <trkpt lat="22.643754" lon="120.265957">
        <ele>291.0</ele>
      </trkpt>
      <trkpt lat="22.644006" lon="120.266027">
        <ele>290.0</ele>
      </trkpt>
      <trkpt lat="22.644115" lon="120.266089">
        <ele>289.0</ele>
      </trkpt>
      <trkpt lat="22.644241" lon="120.266201">
        <ele>286.0</ele>
      </trkpt>
      <trkpt lat="22.644308" lon="120.266229">
        <ele>285.0</ele>
      </trkpt>
      <trkpt lat="22.644598" lon="120.266203">
        <ele>286.0</ele>
      </trkpt>
      <trkpt lat="22.644598" lon="120.266203">
        <ele>286.0</ele>
      </trkpt>
      <trkpt lat="22.644612" lon="120.266201">
        <ele>286.0</ele>
      </trkpt>
      <trkpt lat="22.644623" lon="120.2661">
        <ele>288.0</ele>
      </trkpt>
      <trkpt lat="22.644574" lon="120.265659">
        <ele>298.0</ele>
      </trkpt>
      <trkpt lat="22.644506" lon="120.265452">
        <ele>302.0</ele>
      </trkpt>
      <trkpt lat="22.644477" lon="120.265326">
        <ele>304.0</ele>
      </trkpt>
      <trkpt lat="22.644536" lon="120.265162">
        <ele>307.0</ele>
      </trkpt>
      <trkpt lat="22.644622" lon="120.26511">
        <ele>308.0</ele>
      </trkpt>
      <trkpt lat="22.644682" lon="120.265041">
        <ele>310.0</ele>
      </trkpt>
      <trkpt lat="22.644739" lon="120.264937">
        <ele>312.0</ele>
      </trkpt>
      <trkpt lat="22.644747" lon="120.264872">
        <ele>313.0</ele>
      </trkpt>
      <trkpt lat="22.644718" lon="120.264737">
        <ele>315.0</ele>
      </trkpt>
      <trkpt lat="22.644755" lon="120.264641">
        <ele>317.0</ele>
      </trkpt>
      <trkpt lat="22.64479" lon="120.264477">
        <ele>319.0</ele>
      </trkpt>
      <trkpt lat="22.64491" lon="120.264383">
        <ele>321.0</ele>
      </trkpt>
      <trkpt lat="22.645164" lon="120.264248">
        <ele>323.0</ele>
      </trkpt>
      <trkpt lat="22.645401" lon="120.264208">
        <ele>323.0</ele>
      </trkpt>
      <trkpt lat="22.645454" lon="120.264196">
        <ele>324.0</ele>
      </trkpt>
      <trkpt lat="22.645595" lon="120.264167">
        <ele>324.0</ele>
      </trkpt>
      <trkpt lat="22.645771" lon="120.264163">
        <ele>324.0</ele>
      </trkpt>
      <trkpt lat="22.645898" lon="120.264131">
        <ele>325.0</ele>
      </trkpt>
      <trkpt lat="22.646003" lon="120.264132">
        <ele>325.0</ele>
      </trkpt>
      <trkpt lat="22.646113" lon="120.264043">
        <ele>326.0</ele>
      </trkpt>
      <trkpt lat="22.646247" lon="120.264059">
        <ele>326.0</ele>
      </trkpt>
      <trkpt lat="22.646396" lon="120.264148">
        <ele>325.0</ele>
      </trkpt>
      <trkpt lat="22.646495" lon="120.26409">
        <ele>326.0</ele>
      </trkpt>
      <trkpt lat="22.646536" lon="120.264027">
        <ele>327.0</ele>
      </trkpt>
      <trkpt lat="22.646578" lon="120.263905">
        <ele>329.0</ele>
      </trkpt>
      <trkpt lat="22.646559" lon="120.263724">
        <ele>332.0</ele>
      </trkpt>
      <trkpt lat="22.646623" lon="120.263566">
        <ele>334.0</ele>
      </trkpt>
      <trkpt lat="22.646676" lon="120.263532">
        <ele>335.0</ele>
      </trkpt>
      <trkpt lat="22.6467" lon="120.263423">
        <ele>337.0</ele>
      </trkpt>
      <trkpt lat="22.646894" lon="120.263128">
        <ele>341.0</ele>
      </trkpt>
      <trkpt lat="22.647014" lon="120.263137">
        <ele>341.0</ele>
      </trkpt>
      <trkpt lat="22.647038" lon="120.263368">
        <ele>339.0</ele>
      </trkpt>
      <trkpt lat="22.647078" lon="120.263395">
        <ele>339.0</ele>
      </trkpt>
      <trkpt lat="22.647092" lon="120.263382">
        <ele>339.0</ele>
      </trkpt>
      <trkpt lat="22.647138" lon="120.263345">
        <ele>340.0</ele>
      </trkpt>
      <trkpt lat="22.64722" lon="120.263192">
        <ele>342.0</ele>
      </trkpt>
      <trkpt lat="22.64729" lon="120.263191">
        <ele>342.0</ele>
      </trkpt>
      <trkpt lat="22.647341" lon="120.263131">
        <ele>343.0</ele>
      </trkpt>
      <trkpt lat="22.647372" lon="120.263179">
        <ele>342.0</ele>
      </trkpt>
      <trkpt lat="22.647372" lon="120.263179">
        <ele>342.0</ele>
      </trkpt>
      <trkpt lat="22.647388" lon="120.263203">
        <ele>342.0</ele>
      </trkpt>
      <trkpt lat="22.647454" lon="120.263165">
        <ele>343.0</ele>
      </trkpt>
      <trkpt lat="22.647486" lon="120.263166">
        <ele>343.0</ele>
      </trkpt>
      <trkpt lat="22.647514" lon="120.263223">
        <ele>343.0</ele>
      </trkpt>
      <trkpt lat="22.647505" lon="120.263277">
        <ele>342.0</ele>
      </trkpt>
      <trkpt lat="22.647553" lon="120.263302">
        <ele>342.0</ele>
      </trkpt>
      <trkpt lat="22.647595" lon="120.263309">
        <ele>342.0</ele>
      </trkpt>
      <trkpt lat="22.64762" lon="120.263292">
        <ele>342.0</ele>
      </trkpt>
      <trkpt lat="22.647667" lon="120.263302">
        <ele>342.0</ele>
      </trkpt>
      <trkpt lat="22.64773" lon="120.263257">
        <ele>342.0</ele>
      </trkpt>
      <trkpt lat="22.647743" lon="120.262922">
        <ele>344.0</ele>
      </trkpt>
      <trkpt lat="22.647779" lon="120.262908">
        <ele>344.0</ele>
      </trkpt>
      <trkpt lat="22.647861" lon="120.26296">
        <ele>344.0</ele>
      </trkpt>
      <trkpt lat="22.64797" lon="120.26296">
        <ele>344.0</ele>
      </trkpt>
      <trkpt lat="22.648042" lon="120.262815">
        <ele>344.0</ele>
      </trkpt>
      <trkpt lat="22.648154" lon="120.262778">
        <ele>344.0</ele>
      </trkpt>
      <trkpt lat="22.64823" lon="120.262805">
        <ele>344.0</ele>
      </trkpt>
      <trkpt lat="22.648327" lon="120.262776">
        <ele>343.0</ele>
      </trkpt>
      <trkpt lat="22.648534" lon="120.262693">
        <ele>343.0</ele>
      </trkpt>
      <trkpt lat="22.648578" lon="120.262647">
        <ele>343.0</ele>
      </trkpt>
      <trkpt lat="22.648608" lon="120.262636">
        <ele>343.0</ele>
      </trkpt>
      <trkpt lat="22.648723" lon="120.2627">
        <ele>342.0</ele>
      </trkpt>
      <trkpt lat="22.648823" lon="120.262697">
        <ele>341.0</ele>
      </trkpt>
      <trkpt lat="22.648913" lon="120.26273">
        <ele>341.0</ele>
      </trkpt>
      <trkpt lat="22.648992" lon="120.262662">
        <ele>341.0</ele>
      </trkpt>
      <trkpt lat="22.649056" lon="120.262631">
        <ele>341.0</ele>
      </trkpt>
      <trkpt lat="22.649253" lon="120.262689">
        <ele>339.0</ele>
      </trkpt>
      <trkpt lat="22.649448" lon="120.262606">
        <ele>336.0</ele>
      </trkpt>
      <trkpt lat="22.64951" lon="120.262608">
        <ele>335.0</ele>
      </trkpt>
      <trkpt lat="22.649555" lon="120.26256">
        <ele>335.0</ele>
      </trkpt>
      <trkpt lat="22.649664" lon="120.262503">
        <ele>333.0</ele>
      </trkpt>
      <trkpt lat="22.649671" lon="120.262341">
        <ele>331.0</ele>
      </trkpt>
      <trkpt lat="22.649726" lon="120.262286">
        <ele>330.0</ele>
      </trkpt>
      <trkpt lat="22.649805" lon="120.262236">
        <ele>328.0</ele>
      </trkpt>
      <trkpt lat="22.649837" lon="120.262081">
        <ele>326.0</ele>
      </trkpt>
      <trkpt lat="22.649917" lon="120.261973">
        <ele>323.0</ele>
      </trkpt>
      <trkpt lat="22.649917" lon="120.261973">
        <ele>323.0</ele>
      </trkpt>
      <trkpt lat="22.649936" lon="120.261937">
        <ele>322.0</ele>
      </trkpt>
      <trkpt lat="22.649998" lon="120.261949">
        <ele>321.0</ele>
      </trkpt>
      <trkpt lat="22.650138" lon="120.261873">
        <ele>316.0</ele>
      </trkpt>
      <trkpt lat="22.650367" lon="120.262121">
        <ele>312.0</ele>
      </trkpt>
      <trkpt lat="22.650446" lon="120.262286">
        <ele>312.0</ele>
      </trkpt>
      <trkpt lat="22.650521" lon="120.262335">
        <ele>310.0</ele>
      </trkpt>
      <trkpt lat="22.650601" lon="120.262458">
        <ele>309.0</ele>
      </trkpt>
      <trkpt lat="22.650672" lon="120.262537">
        <ele>308.0</ele>
      </trkpt>
      <trkpt lat="22.650672" lon="120.262537">
        <ele>308.0</ele>
      </trkpt>
      <trkpt lat="22.650731" lon="120.262603">
        <ele>306.0</ele>
      </trkpt>
      <trkpt lat="22.650807" lon="120.262618">
        <ele>304.0</ele>
      </trkpt>
      <trkpt lat="22.650806" lon="120.262635">
        <ele>304.0</ele>
      </trkpt>
      <trkpt lat="22.650806" lon="120.262635">
        <ele>304.0</ele>
      </trkpt>
      <trkpt lat="22.650807" lon="120.262618">
        <ele>304.0</ele>
      </trkpt>
      <trkpt lat="22.650915" lon="120.26259">
        <ele>301.0</ele>
      </trkpt>
      <trkpt lat="22.650908" lon="120.262445">
        <ele>301.0</ele>
      </trkpt>
      <trkpt lat="22.650945" lon="120.262298">
        <ele>298.0</ele>
      </trkpt>
      <trkpt lat="22.650896" lon="120.262242">
        <ele>299.0</ele>
      </trkpt>
      <trkpt lat="22.650915" lon="120.262096">
        <ele>297.0</ele>
      </trkpt>
      <trkpt lat="22.650957" lon="120.262104">
        <ele>296.0</ele>
      </trkpt>
      <trkpt lat="22.650985" lon="120.261986">
        <ele>294.0</ele>
      </trkpt>
      <trkpt lat="22.650866" lon="120.261834">
        <ele>294.0</ele>
      </trkpt>
      <trkpt lat="22.650786" lon="120.261567">
        <ele>294.0</ele>
      </trkpt>
      <trkpt lat="22.650848" lon="120.26151">
        <ele>292.0</ele>
      </trkpt>
      <trkpt lat="22.650915" lon="120.261319">
        <ele>290.0</ele>
      </trkpt>
      <trkpt lat="22.650978" lon="120.26133">
        <ele>289.0</ele>
      </trkpt>
      <trkpt lat="22.651078" lon="120.261397">
        <ele>287.0</ele>
      </trkpt>
      <trkpt lat="22.651209" lon="120.261461">
        <ele>285.0</ele>
      </trkpt>
      <trkpt lat="22.65133" lon="120.261384">
        <ele>283.0</ele>
      </trkpt>
      <trkpt lat="22.651545" lon="120.261358">
        <ele>279.0</ele>
      </trkpt>
      <trkpt lat="22.651647" lon="120.261319">
        <ele>277.0</ele>
      </trkpt>
      <trkpt lat="22.651744" lon="120.261311">
        <ele>275.0</ele>
      </trkpt>
      <trkpt lat="22.651734" lon="120.26117">
        <ele>275.0</ele>
      </trkpt>
      <trkpt lat="22.651661" lon="120.260957">
        <ele>276.0</ele>
      </trkpt>
      <trkpt lat="22.651651" lon="120.260909">
        <ele>276.0</ele>
      </trkpt>
      <trkpt lat="22.651665" lon="120.260875">
        <ele>275.0</ele>
      </trkpt>
      <trkpt lat="22.651617" lon="120.260768">
        <ele>275.0</ele>
      </trkpt>
      <trkpt lat="22.651601" lon="120.26061">
        <ele>275.0</ele>
      </trkpt>
      <trkpt lat="22.651575" lon="120.260517">
        <ele>275.0</ele>
      </trkpt>
      <trkpt lat="22.651587" lon="120.260415">
        <ele>274.0</ele>
      </trkpt>
      <trkpt lat="22.651586" lon="120.260415">
        <ele>274.0</ele>
      </trkpt>
      <trkpt lat="22.651592" lon="120.260365">
        <ele>273.0</ele>
      </trkpt>
      <trkpt lat="22.651559" lon="120.260154">
        <ele>273.0</ele>
      </trkpt>
      <trkpt lat="22.651672" lon="120.260113">
        <ele>271.0</ele>
      </trkpt>
      <trkpt lat="22.651659" lon="120.260005">
        <ele>270.0</ele>
      </trkpt>
      <trkpt lat="22.651821" lon="120.259978">
        <ele>268.0</ele>
      </trkpt>
      <trkpt lat="22.652041" lon="120.260158">
        <ele>266.0</ele>
      </trkpt>
      <trkpt lat="22.652136" lon="120.26019">
        <ele>265.0</ele>
      </trkpt>
      <trkpt lat="22.652181" lon="120.260247">
        <ele>264.0</ele>
      </trkpt>
      <trkpt lat="22.652291" lon="120.260312">
        <ele>262.0</ele>
      </trkpt>
      <trkpt lat="22.652345" lon="120.260275">
        <ele>262.0</ele>
      </trkpt>
      <trkpt lat="22.652406" lon="120.260193">
        <ele>261.0</ele>
      </trkpt>
      <trkpt lat="22.652447" lon="120.260075">
        <ele>260.0</ele>
      </trkpt>
      <trkpt lat="22.652575" lon="120.259902">
        <ele>257.0</ele>
      </trkpt>
      <trkpt lat="22.652672" lon="120.25985">
        <ele>254.0</ele>
      </trkpt>
      <trkpt lat="22.652742" lon="120.259864">
        <ele>253.0</ele>
      </trkpt>
      <trkpt lat="22.652766" lon="120.259824">
        <ele>252.0</ele>
      </trkpt>
      <trkpt lat="22.652911" lon="120.259888">
        <ele>250.0</ele>
      </trkpt>
      <trkpt lat="22.652933" lon="120.259844">
        <ele>249.0</ele>
      </trkpt>
      <trkpt lat="22.653085" lon="120.259963">
        <ele>248.0</ele>
      </trkpt>
      <trkpt lat="22.653314" lon="120.260014">
        <ele>243.0</ele>
      </trkpt>
      <trkpt lat="22.653556" lon="120.260119">
        <ele>242.0</ele>
      </trkpt>
      <trkpt lat="22.653658" lon="120.260121">
        <ele>242.0</ele>
      </trkpt>
      <trkpt lat="22.653669" lon="120.260049">
        <ele>242.0</ele>
      </trkpt>
      <trkpt lat="22.653786" lon="120.259973">
        <ele>241.0</ele>
      </trkpt>
      <trkpt lat="22.653842" lon="120.259967">
        <ele>241.0</ele>
      </trkpt>
      <trkpt lat="22.653884" lon="120.259999">
        <ele>241.0</ele>
      </trkpt>
      <trkpt lat="22.653943" lon="120.259916">
        <ele>240.0</ele>
      </trkpt>
      <trkpt lat="22.653943" lon="120.259916">
        <ele>240.0</ele>
      </trkpt>
      <trkpt lat="22.654015" lon="120.259838">
        <ele>239.0</ele>
      </trkpt>
      <trkpt lat="22.654087" lon="120.259817">
        <ele>239.0</ele>
      </trkpt>
      <trkpt lat="22.654148" lon="120.25982">
        <ele>239.0</ele>
      </trkpt>
      <trkpt lat="22.654197" lon="120.25985">
        <ele>239.0</ele>
      </trkpt>
      <trkpt lat="22.654249" lon="120.259807">
        <ele>239.0</ele>
      </trkpt>
      <trkpt lat="22.654214" lon="120.259744">
        <ele>238.0</ele>
      </trkpt>
      <trkpt lat="22.654264" lon="120.259687">
        <ele>238.0</ele>
      </trkpt>
      <trkpt lat="22.654286" lon="120.25962">
        <ele>237.0</ele>
      </trkpt>
      <trkpt lat="22.6544" lon="120.259508">
        <ele>237.0</ele>
      </trkpt>
      <trkpt lat="22.654686" lon="120.259378">
        <ele>236.0</ele>
      </trkpt>
      <trkpt lat="22.654777" lon="120.259355">
        <ele>236.0</ele>
      </trkpt>
      <trkpt lat="22.654931" lon="120.259342">
        <ele>237.0</ele>
      </trkpt>
      <trkpt lat="22.655093" lon="120.259372">
        <ele>238.0</ele>
      </trkpt>
      <trkpt lat="22.655176" lon="120.259424">
        <ele>238.0</ele>
      </trkpt>
      <trkpt lat="22.655209" lon="120.259428">
        <ele>239.0</ele>
      </trkpt>
      <trkpt lat="22.655209" lon="120.259428">
        <ele>239.0</ele>
      </trkpt>
      <trkpt lat="22.655273" lon="120.259435">
        <ele>239.0</ele>
      </trkpt>
      <trkpt lat="22.655373" lon="120.259481">
        <ele>240.0</ele>
      </trkpt>
      <trkpt lat="22.655423" lon="120.259578">
        <ele>241.0</ele>
      </trkpt>
      <trkpt lat="22.655643" lon="120.259543">
        <ele>242.0</ele>
      </trkpt>
      <trkpt lat="22.655709" lon="120.259646">
        <ele>242.0</ele>
      </trkpt>
      <trkpt lat="22.65592" lon="120.259659">
        <ele>243.0</ele>
      </trkpt>
      <trkpt lat="22.656201" lon="120.25975">
        <ele>243.0</ele>
      </trkpt>
      <trkpt lat="22.656246" lon="120.259594">
        <ele>243.0</ele>
      </trkpt>
      <trkpt lat="22.656267" lon="120.259423">
        <ele>243.0</ele>
      </trkpt>
      <trkpt lat="22.656323" lon="120.259395">
        <ele>243.0</ele>
      </trkpt>
      <trkpt lat="22.656346" lon="120.259364">
        <ele>243.0</ele>
      </trkpt>
      <trkpt lat="22.656587" lon="120.259312">
        <ele>244.0</ele>
      </trkpt>
      <trkpt lat="22.65667" lon="120.259326">
        <ele>245.0</ele>
      </trkpt>
      <trkpt lat="22.65667" lon="120.259325">
        <ele>245.0</ele>
      </trkpt>
      <trkpt lat="22.656815" lon="120.259395">
        <ele>243.0</ele>
      </trkpt>
      <trkpt lat="22.657098" lon="120.259456">
        <ele>241.0</ele>
      </trkpt>
      <trkpt lat="22.657257" lon="120.259449">
        <ele>240.0</ele>
      </trkpt>
      <trkpt lat="22.657365" lon="120.259524">
        <ele>239.0</ele>
      </trkpt>
      <trkpt lat="22.657434" lon="120.259597">
        <ele>239.0</ele>
      </trkpt>
      <trkpt lat="22.657444" lon="120.25965">
        <ele>239.0</ele>
      </trkpt>
      <trkpt lat="22.657572" lon="120.259725">
        <ele>240.0</ele>
      </trkpt>
      <trkpt lat="22.657645" lon="120.259833">
        <ele>241.0</ele>
      </trkpt>
      <trkpt lat="22.657735" lon="120.259853">
        <ele>242.0</ele>
      </trkpt>
      <trkpt lat="22.657786" lon="120.25989">
        <ele>242.0</ele>
      </trkpt>
      <trkpt lat="22.657809" lon="120.259948">
        <ele>243.0</ele>
      </trkpt>
      <trkpt lat="22.65787" lon="120.260018">
        <ele>243.0</ele>
      </trkpt>
      <trkpt lat="22.657865" lon="120.260033">
        <ele>243.0</ele>
      </trkpt>
      <trkpt lat="22.657865" lon="120.260033">
        <ele>243.0</ele>
      </trkpt>
      <trkpt lat="22.657848" lon="120.260082">
        <ele>242.0</ele>
      </trkpt>
      <trkpt lat="22.657902" lon="120.260378">
        <ele>238.0</ele>
      </trkpt>
      <trkpt lat="22.657878" lon="120.26047">
        <ele>237.0</ele>
      </trkpt>
      <trkpt lat="22.657922" lon="120.260614">
        <ele>235.0</ele>
      </trkpt>
      <trkpt lat="22.658057" lon="120.260776">
        <ele>233.0</ele>
      </trkpt>
      <trkpt lat="22.658228" lon="120.260751">
        <ele>233.0</ele>
      </trkpt>
      <trkpt lat="22.658409" lon="120.260662">
        <ele>235.0</ele>
      </trkpt>
      <trkpt lat="22.658434" lon="120.260639">
        <ele>236.0</ele>
      </trkpt>
      <trkpt lat="22.658471" lon="120.260654">
        <ele>235.0</ele>
      </trkpt>
      <trkpt lat="22.658519" lon="120.260671">
        <ele>235.0</ele>
      </trkpt>
      <trkpt lat="22.65852" lon="120.260796">
        <ele>233.0</ele>
      </trkpt>
      <trkpt lat="22.658772" lon="120.260982">
        <ele>228.0</ele>
      </trkpt>
      <trkpt lat="22.658793" lon="120.261102">
        <ele>225.0</ele>
      </trkpt>
      <trkpt lat="22.658867" lon="120.261124">
        <ele>225.0</ele>
      </trkpt>
      <trkpt lat="22.658986" lon="120.261098">
        <ele>226.0</ele>
      </trkpt>
      <trkpt lat="22.659085" lon="120.261119">
        <ele>225.0</ele>
      </trkpt>
      <trkpt lat="22.659344" lon="120.261428">
        <ele>217.0</ele>
      </trkpt>
      <trkpt lat="22.659367" lon="120.26191">
        <ele>204.0</ele>
      </trkpt>
      <trkpt lat="22.659321" lon="120.262014">
        <ele>200.0</ele>
      </trkpt>
      <trkpt lat="22.659313" lon="120.262092">
        <ele>198.0</ele>
      </trkpt>
      <trkpt lat="22.659303" lon="120.262196">
        <ele>194.0</ele>
      </trkpt>
      <trkpt lat="22.659303" lon="120.262196">
        <ele>194.0</ele>
      </trkpt>
      <trkpt lat="22.659292" lon="120.262318">
        <ele>190.0</ele>
      </trkpt>
      <trkpt lat="22.659174" lon="120.262394">
        <ele>188.0</ele>
      </trkpt>
      <trkpt lat="22.659031" lon="120.262555">
        <ele>183.0</ele>
      </trkpt>
      <trkpt lat="22.658954" lon="120.262686">
        <ele>178.0</ele>
      </trkpt>
      <trkpt lat="22.658865" lon="120.262749">
        <ele>176.0</ele>
      </trkpt>
      <trkpt lat="22.658649" lon="120.262727">
        <ele>176.0</ele>
      </trkpt>
      <trkpt lat="22.658534" lon="120.262758">
        <ele>175.0</ele>
      </trkpt>
      <trkpt lat="22.658461" lon="120.262846">
        <ele>171.0</ele>
      </trkpt>
      <trkpt lat="22.658382" lon="120.262859">
        <ele>171.0</ele>
      </trkpt>
      <trkpt lat="22.658234" lon="120.262813">
        <ele>174.0</ele>
      </trkpt>
      <trkpt lat="22.657958" lon="120.262931">
        <ele>172.0</ele>
      </trkpt>
      <trkpt lat="22.657885" lon="120.262983">
        <ele>171.0</ele>
      </trkpt>
      <trkpt lat="22.657838" lon="120.263061">
        <ele>168.0</ele>
      </trkpt>
      <trkpt lat="22.657663" lon="120.263252">
        <ele>163.0</ele>
      </trkpt>
      <trkpt lat="22.657585" lon="120.263298">
        <ele>162.0</ele>
      </trkpt>
      <trkpt lat="22.657442" lon="120.263321">
        <ele>163.0</ele>
      </trkpt>
      <trkpt lat="22.657369" lon="120.26338">
        <ele>163.0</ele>
      </trkpt>
      <trkpt lat="22.657369" lon="120.26338">
        <ele>163.0</ele>
      </trkpt>
      <trkpt lat="22.657339" lon="120.263405">
        <ele>162.0</ele>
      </trkpt>
      <trkpt lat="22.657274" lon="120.26345">
        <ele>162.0</ele>
      </trkpt>
      <trkpt lat="22.65712" lon="120.263556">
        <ele>161.0</ele>
      </trkpt>
      <trkpt lat="22.657081" lon="120.263618">
        <ele>159.0</ele>
      </trkpt>
      <trkpt lat="22.657065" lon="120.263681">
        <ele>157.0</ele>
      </trkpt>
      <trkpt lat="22.65701" lon="120.263758">
        <ele>155.0</ele>
      </trkpt>
      <trkpt lat="22.656902" lon="120.263807">
        <ele>154.0</ele>
      </trkpt>
      <trkpt lat="22.656834" lon="120.263959">
        <ele>149.0</ele>
      </trkpt>
      <trkpt lat="22.656893" lon="120.264001">
        <ele>147.0</ele>
      </trkpt>
      <trkpt lat="22.656887" lon="120.264108">
        <ele>143.0</ele>
      </trkpt>
      <trkpt lat="22.656932" lon="120.264169">
        <ele>140.0</ele>
      </trkpt>
      <trkpt lat="22.657097" lon="120.264298">
        <ele>135.0</ele>
      </trkpt>
      <trkpt lat="22.657106" lon="120.264378">
        <ele>132.0</ele>
      </trkpt>
      <trkpt lat="22.657141" lon="120.264466">
        <ele>130.0</ele>
      </trkpt>
      <trkpt lat="22.657321" lon="120.264694">
        <ele>123.0</ele>
      </trkpt>
      <trkpt lat="22.657375" lon="120.264844">
        <ele>119.0</ele>
      </trkpt>
      <trkpt lat="22.657375" lon="120.264844">
        <ele>119.0</ele>
      </trkpt>
      <trkpt lat="22.657325" lon="120.265134">
        <ele>113.0</ele>
      </trkpt>
      <trkpt lat="22.657385" lon="120.265348">
        <ele>110.0</ele>
      </trkpt>
      <trkpt lat="22.657385" lon="120.265392">
        <ele>109.0</ele>
      </trkpt>
      <trkpt lat="22.657226" lon="120.265812">
        <ele>102.0</ele>
      </trkpt>
      <trkpt lat="22.657195" lon="120.265929">
        <ele>101.0</ele>
      </trkpt>
      <trkpt lat="22.657146" lon="120.265985">
        <ele>101.0</ele>
      </trkpt>
      <trkpt lat="22.657" lon="120.266051">
        <ele>100.0</ele>
      </trkpt>
      <trkpt lat="22.656885" lon="120.266078">
        <ele>100.0</ele>
      </trkpt>
      <trkpt lat="22.656763" lon="120.266244">
        <ele>98.0</ele>
      </trkpt>
      <trkpt lat="22.656647" lon="120.266365">
        <ele>97.0</ele>
      </trkpt>
      <trkpt lat="22.656647" lon="120.266365">
        <ele>97.0</ele>
      </trkpt>
      <trkpt lat="22.656352" lon="120.266721">
        <ele>95.0</ele>
      </trkpt>
      <trkpt lat="22.656277" lon="120.266783">
        <ele>95.0</ele>
      </trkpt>
      <trkpt lat="22.656063" lon="120.266881">
        <ele>95.0</ele>
      </trkpt>
      <trkpt lat="22.655802" lon="120.267111">
        <ele>92.0</ele>
      </trkpt>
      <trkpt lat="22.655725" lon="120.267201">
        <ele>91.0</ele>
      </trkpt>
      <trkpt lat="22.655688" lon="120.267392">
        <ele>90.0</ele>
      </trkpt>
      <trkpt lat="22.655659" lon="120.267454">
        <ele>89.0</ele>
      </trkpt>
      <trkpt lat="22.65561" lon="120.267605">
        <ele>88.0</ele>
      </trkpt>
      <trkpt lat="22.655493" lon="120.267829">
        <ele>87.0</ele>
      </trkpt>
      <trkpt lat="22.655466" lon="120.267991">
        <ele>86.0</ele>
      </trkpt>
      <trkpt lat="22.655466" lon="120.267991">
        <ele>86.0</ele>
      </trkpt>
      <trkpt lat="22.655438" lon="120.268163">
        <ele>85.0</ele>
      </trkpt>
      <trkpt lat="22.655447" lon="120.268398">
        <ele>83.0</ele>
      </trkpt>
      <trkpt lat="22.655415" lon="120.268527">
        <ele>81.0</ele>
      </trkpt>
      <trkpt lat="22.655395" lon="120.268558">
        <ele>81.0</ele>
      </trkpt>
      <trkpt lat="22.655492" lon="120.268732">
        <ele>78.0</ele>
      </trkpt>
      <trkpt lat="22.655524" lon="120.268857">
        <ele>77.0</ele>
      </trkpt>
      <trkpt lat="22.65548" lon="120.268965">
        <ele>75.0</ele>
      </trkpt>
      <trkpt lat="22.655345" lon="120.269112">
        <ele>73.0</ele>
      </trkpt>
      <trkpt lat="22.655349" lon="120.269174">
        <ele>72.0</ele>
      </trkpt>
      <trkpt lat="22.655409" lon="120.269364">
        <ele>72.0</ele>
      </trkpt>
      <trkpt lat="22.655781" lon="120.269708">
        <ele>69.0</ele>
      </trkpt>
      <trkpt lat="22.655852" lon="120.269799">
        <ele>68.0</ele>
      </trkpt>
      <trkpt lat="22.655855" lon="120.269844">
        <ele>68.0</ele>
      </trkpt>
      <trkpt lat="22.655892" lon="120.269899">
        <ele>68.0</ele>
      </trkpt>
      <trkpt lat="22.655969" lon="120.270039">
        <ele>67.0</ele>
      </trkpt>
      <trkpt lat="22.656008" lon="120.270118">
        <ele>67.0</ele>
      </trkpt>
      <trkpt lat="22.656041" lon="120.270178">
        <ele>67.0</ele>
      </trkpt>
      <trkpt lat="22.656104" lon="120.270344">
        <ele>66.0</ele>
      </trkpt>
      <trkpt lat="22.656332" lon="120.270813">
        <ele>64.0</ele>
      </trkpt>
      <trkpt lat="22.656332" lon="120.270813">
        <ele>64.0</ele>
      </trkpt>
      <trkpt lat="22.656337" lon="120.270848">
        <ele>63.0</ele>
      </trkpt>
      <trkpt lat="22.656297" lon="120.270972">
        <ele>63.0</ele>
      </trkpt>
      <trkpt lat="22.65629" lon="120.27109">
        <ele>63.0</ele>
      </trkpt>
      <trkpt lat="22.656315" lon="120.271306">
        <ele>61.0</ele>
      </trkpt>
      <trkpt lat="22.656272" lon="120.271482">
        <ele>61.0</ele>
      </trkpt>
      <trkpt lat="22.656317" lon="120.271558">
        <ele>60.0</ele>
      </trkpt>
      <trkpt lat="22.656299" lon="120.271617">
        <ele>60.0</ele>
      </trkpt>
      <trkpt lat="22.656296" lon="120.271655">
        <ele>59.0</ele>
      </trkpt>
      <trkpt lat="22.656282" lon="120.271692">
        <ele>59.0</ele>
      </trkpt>
      <trkpt lat="22.656263" lon="120.271992">
        <ele>53.0</ele>
      </trkpt>
      <trkpt lat="22.656277" lon="120.272086">
        <ele>50.0</ele>
      </trkpt>
      <trkpt lat="22.656185" lon="120.272277">
        <ele>47.0</ele>
      </trkpt>
      <trkpt lat="22.656163" lon="120.272301">
        <ele>47.0</ele>
      </trkpt>
      <trkpt lat="22.656069" lon="120.272309">
        <ele>48.0</ele>
      </trkpt>
      <trkpt lat="22.655957" lon="120.272242">
        <ele>50.0</ele>
      </trkpt>
      <trkpt lat="22.655949" lon="120.272278">
        <ele>49.0</ele>
      </trkpt>
      <trkpt lat="22.65587" lon="120.272301">
        <ele>50.0</ele>
      </trkpt>
      <trkpt lat="22.655763" lon="120.272366">
        <ele>48.0</ele>
      </trkpt>
      <trkpt lat="22.655652" lon="120.272411">
        <ele>46.0</ele>
      </trkpt>
      <trkpt lat="22.655546" lon="120.272433">
        <ele>44.0</ele>
      </trkpt>
      <trkpt lat="22.655501" lon="120.272494">
        <ele>42.0</ele>
      </trkpt>
      <trkpt lat="22.655479" lon="120.272565">
        <ele>39.0</ele>
      </trkpt>
      <trkpt lat="22.655444" lon="120.272617">
        <ele>37.0</ele>
      </trkpt>
      <trkpt lat="22.655383" lon="120.272664">
        <ele>35.0</ele>
      </trkpt>
      <trkpt lat="22.655348" lon="120.272717">
        <ele>33.0</ele>
      </trkpt>
      <trkpt lat="22.655341" lon="120.272769">
        <ele>31.0</ele>
      </trkpt>
      <trkpt lat="22.655354" lon="120.272993">
        <ele>24.0</ele>
      </trkpt>
      <trkpt lat="22.655427" lon="120.273073">
        <ele>22.0</ele>
      </trkpt>
      <trkpt lat="22.655398" lon="120.273221">
        <ele>17.0</ele>
      </trkpt>
      <trkpt lat="22.655397" lon="120.273228">
        <ele>17.0</ele>
      </trkpt>
      <trkpt lat="22.655397" lon="120.273228">
        <ele>17.0</ele>
      </trkpt>
      <trkpt lat="22.655301" lon="120.273749">
        <ele>11.0</ele>
      </trkpt>
      <trkpt lat="22.655201" lon="120.273761">
        <ele>11.0</ele>
      </trkpt>
      <trkpt lat="22.655191" lon="120.27411">
        <ele>10.0</ele>
      </trkpt>
      <trkpt lat="22.655204" lon="120.274314">
        <ele>10.0</ele>
      </trkpt>
      <trkpt lat="22.655242" lon="120.274451">
        <ele>10.0</ele>
      </trkpt>
      <trkpt lat="22.655227" lon="120.274515">
        <ele>10.0</ele>
      </trkpt>
      <trkpt lat="22.654954" lon="120.275041">
        <ele>10.0</ele>
      </trkpt>
      <trkpt lat="22.65543" lon="120.275353">
        <ele>11.0</ele>
      </trkpt>
      <trkpt lat="22.65495" lon="120.27546">
        <ele>11.0</ele>
      </trkpt>
      <trkpt lat="22.655052" lon="120.275969">
        <ele>11.0</ele>
      </trkpt>
      <trkpt lat="22.654563" lon="120.276099">
        <ele>11.0</ele>
      </trkpt>
      <trkpt lat="22.654813" lon="120.27733">
        <ele>12.0</ele>
      </trkpt>
      <trkpt lat="22.654826" lon="120.278398">
        <ele>15.0</ele>
      </trkpt>
      <trkpt lat="22.654805" lon="120.27927">
        <ele>17.0</ele>
      </trkpt>
      <trkpt lat="22.654805" lon="120.281251">
        <ele>6.0</ele>
      </trkpt>
      <trkpt lat="22.654876" lon="120.281253">
        <ele>6.0</ele>
      </trkpt>
      <trkpt lat="22.654919" lon="120.281305">
        <ele>6.0</ele>
      </trkpt>
      <trkpt lat="22.654924" lon="120.281434">
        <ele>6.0</ele>
      </trkpt>
      <trkpt lat="22.654916" lon="120.281563">
        <ele>7.0</ele>
      </trkpt>
      <trkpt lat="22.654886" lon="120.28189">
        <ele>7.0</ele>
      </trkpt>
      <trkpt lat="22.654901" lon="120.281937">
        <ele>7.0</ele>
      </trkpt>
      <trkpt lat="22.65496" lon="120.282011">
        <ele>7.0</ele>
      </trkpt>
      <trkpt lat="22.654963" lon="120.282085">
        <ele>6.0</ele>
      </trkpt>
      <trkpt lat="22.654978" lon="120.282212">
        <ele>6.0</ele>
      </trkpt>
      <trkpt lat="22.655076" lon="120.282273">
        <ele>6.0</ele>
      </trkpt>
      <trkpt lat="22.655075" lon="120.282547">
        <ele>6.0</ele>
      </trkpt>
      <trkpt lat="22.655075" lon="120.282596">
        <ele>6.0</ele>
      </trkpt>
    </trkseg>
  </trk>
</gpx>
