<?xml version="1.0" encoding="UTF-8"?>
<gpx xmlns="http://www.topografix.com/GPX/1/1" xmlns:xsi="http://www.w3.org/2001/XMLSchema-instance" xsi:schemaLocation="http://www.topografix.com/GPX/1/1 http://www.topografix.com/GPX/1/1/gpx.xsd" version="1.1" creator="Martin Schneider">
  <wpt lat="23.97085" lon="121.531399">
    <ele>877.0</ele>
    <name>Summit Chuyinshan</name>
  </wpt>
  <wpt lat="23.956645" lon="121.508221">
    <ele>140.0</ele>
    <name>Start</name>
  </wpt>
  <wpt lat="23.978516" lon="121.566463">
    <ele>41.0</ele>
    <name>End</name>
  </wpt>
  <wpt lat="23.95721" lon="121.506531">
    <name>1</name>
  </wpt>
  <wpt lat="23.971367" lon="121.529007">
    <name>2</name>
  </wpt>
  <wpt lat="23.97563" lon="121.499423">
    <name>3</name>
  </wpt>
  <trk>
    <name>088_Chuyinshan</name>
    <trkseg>
      <trkpt lat="23.956645" lon="121.508221">
        <ele>140.0</ele>
      </trkpt>
      <trkpt lat="23.956645" lon="121.508221">
        <ele>140.0</ele>
      </trkpt>
      <trkpt lat="23.956973" lon="121.507936">
        <ele>142.0</ele>
      </trkpt>
      <trkpt lat="23.957034" lon="121.507775">
        <ele>139.0</ele>
      </trkpt>
      <trkpt lat="23.957092" lon="121.507562">
        <ele>134.0</ele>
      </trkpt>
      <trkpt lat="23.957173" lon="121.506546">
        <ele>128.0</ele>
      </trkpt>
      <trkpt lat="23.957334" lon="121.506601">
        <ele>129.0</ele>
      </trkpt>
      <trkpt lat="23.957547" lon="121.506715">
        <ele>131.0</ele>
      </trkpt>
      <trkpt lat="23.957748" lon="121.506915">
        <ele>134.0</ele>
      </trkpt>
      <trkpt lat="23.957926" lon="121.507013">
        <ele>137.0</ele>
      </trkpt>
      <trkpt lat="23.958071" lon="121.507068">
        <ele>139.0</ele>
      </trkpt>
      <trkpt lat="23.958221" lon="121.507088">
        <ele>141.0</ele>
      </trkpt>
      <trkpt lat="23.958403" lon="121.507073">
        <ele>143.0</ele>
      </trkpt>
      <trkpt lat="23.958632" lon="121.507108">
        <ele>147.0</ele>
      </trkpt>
      <trkpt lat="23.958792" lon="121.507137">
        <ele>150.0</ele>
      </trkpt>
      <trkpt lat="23.958918" lon="121.507121">
        <ele>151.0</ele>
      </trkpt>
      <trkpt lat="23.959225" lon="121.507039">
        <ele>152.0</ele>
      </trkpt>
      <trkpt lat="23.959374" lon="121.507039">
        <ele>152.0</ele>
      </trkpt>
      <trkpt lat="23.959498" lon="121.507141">
        <ele>154.0</ele>
      </trkpt>
      <trkpt lat="23.959744" lon="121.507261">
        <ele>155.0</ele>
      </trkpt>
      <trkpt lat="23.960036" lon="121.507455">
        <ele>157.0</ele>
      </trkpt>
      <trkpt lat="23.96011" lon="121.50783">
        <ele>169.0</ele>
      </trkpt>
      <trkpt lat="23.960217" lon="121.508038">
        <ele>174.0</ele>
      </trkpt>
      <trkpt lat="23.960191" lon="121.50812">
        <ele>177.0</ele>
      </trkpt>
      <trkpt lat="23.960067" lon="121.508036">
        <ele>176.0</ele>
      </trkpt>
      <trkpt lat="23.960067" lon="121.508036">
        <ele>176.0</ele>
      </trkpt>
      <trkpt lat="23.95994" lon="121.507951">
        <ele>175.0</ele>
      </trkpt>
      <trkpt lat="23.959837" lon="121.507918">
        <ele>176.0</ele>
      </trkpt>
      <trkpt lat="23.959475" lon="121.507901">
        <ele>183.0</ele>
      </trkpt>
      <trkpt lat="23.959084" lon="121.507705">
        <ele>178.0</ele>
      </trkpt>
      <trkpt lat="23.958973" lon="121.507704">
        <ele>176.0</ele>
      </trkpt>
      <trkpt lat="23.958947" lon="121.507741">
        <ele>178.0</ele>
      </trkpt>
      <trkpt lat="23.958988" lon="121.507788">
        <ele>181.0</ele>
      </trkpt>
      <trkpt lat="23.958988" lon="121.507788">
        <ele>181.0</ele>
      </trkpt>
      <trkpt lat="23.959074" lon="121.507822">
        <ele>184.0</ele>
      </trkpt>
      <trkpt lat="23.959322" lon="121.508122">
        <ele>199.0</ele>
      </trkpt>
      <trkpt lat="23.959578" lon="121.508266">
        <ele>198.0</ele>
      </trkpt>
      <trkpt lat="23.959649" lon="121.508343">
        <ele>200.0</ele>
      </trkpt>
      <trkpt lat="23.959701" lon="121.508561">
        <ele>207.0</ele>
      </trkpt>
      <trkpt lat="23.959794" lon="121.50866">
        <ele>208.0</ele>
      </trkpt>
      <trkpt lat="23.960085" lon="121.508814">
        <ele>206.0</ele>
      </trkpt>
      <trkpt lat="23.960338" lon="121.509516">
        <ele>220.0</ele>
      </trkpt>
      <trkpt lat="23.960575" lon="121.510232">
        <ele>232.0</ele>
      </trkpt>
      <trkpt lat="23.960556" lon="121.510313">
        <ele>236.0</ele>
      </trkpt>
      <trkpt lat="23.96048" lon="121.510291">
        <ele>238.0</ele>
      </trkpt>
      <trkpt lat="23.960355" lon="121.509981">
        <ele>232.0</ele>
      </trkpt>
      <trkpt lat="23.959997" lon="121.509773">
        <ele>241.0</ele>
      </trkpt>
      <trkpt lat="23.95947" lon="121.509426">
        <ele>249.0</ele>
      </trkpt>
      <trkpt lat="23.95907" lon="121.50926">
        <ele>254.0</ele>
      </trkpt>
      <trkpt lat="23.958874" lon="121.509139">
        <ele>249.0</ele>
      </trkpt>
      <trkpt lat="23.958532" lon="121.509273">
        <ele>255.0</ele>
      </trkpt>
      <trkpt lat="23.95857" lon="121.509341">
        <ele>258.0</ele>
      </trkpt>
      <trkpt lat="23.958883" lon="121.509419">
        <ele>260.0</ele>
      </trkpt>
      <trkpt lat="23.958958" lon="121.509549">
        <ele>264.0</ele>
      </trkpt>
      <trkpt lat="23.959126" lon="121.50996">
        <ele>275.0</ele>
      </trkpt>
      <trkpt lat="23.959534" lon="121.510795">
        <ele>288.0</ele>
      </trkpt>
      <trkpt lat="23.959864" lon="121.511121">
        <ele>288.0</ele>
      </trkpt>
      <trkpt lat="23.960051" lon="121.511446">
        <ele>294.0</ele>
      </trkpt>
      <trkpt lat="23.960743" lon="121.511935">
        <ele>289.0</ele>
      </trkpt>
      <trkpt lat="23.960931" lon="121.512692">
        <ele>312.0</ele>
      </trkpt>
      <trkpt lat="23.960898" lon="121.512954">
        <ele>320.0</ele>
      </trkpt>
      <trkpt lat="23.960876" lon="121.513412">
        <ele>333.0</ele>
      </trkpt>
      <trkpt lat="23.961028" lon="121.513506">
        <ele>331.0</ele>
      </trkpt>
      <trkpt lat="23.961267" lon="121.513789">
        <ele>333.0</ele>
      </trkpt>
      <trkpt lat="23.961306" lon="121.513931">
        <ele>337.0</ele>
      </trkpt>
      <trkpt lat="23.961475" lon="121.514043">
        <ele>337.0</ele>
      </trkpt>
      <trkpt lat="23.961688" lon="121.514115">
        <ele>336.0</ele>
      </trkpt>
      <trkpt lat="23.961808" lon="121.514198">
        <ele>336.0</ele>
      </trkpt>
      <trkpt lat="23.961765" lon="121.51431">
        <ele>341.0</ele>
      </trkpt>
      <trkpt lat="23.96177" lon="121.5144">
        <ele>344.0</ele>
      </trkpt>
      <trkpt lat="23.961735" lon="121.514596">
        <ele>351.0</ele>
      </trkpt>
      <trkpt lat="23.961735" lon="121.514596">
        <ele>351.0</ele>
      </trkpt>
      <trkpt lat="23.961789" lon="121.514766">
        <ele>357.0</ele>
      </trkpt>
      <trkpt lat="23.961922" lon="121.514901">
        <ele>360.0</ele>
      </trkpt>
      <trkpt lat="23.962089" lon="121.51494">
        <ele>360.0</ele>
      </trkpt>
      <trkpt lat="23.962518" lon="121.515103">
        <ele>364.0</ele>
      </trkpt>
      <trkpt lat="23.962997" lon="121.515525">
        <ele>377.0</ele>
      </trkpt>
      <trkpt lat="23.963742" lon="121.515823">
        <ele>378.0</ele>
      </trkpt>
      <trkpt lat="23.963813" lon="121.516243">
        <ele>394.0</ele>
      </trkpt>
      <trkpt lat="23.964195" lon="121.516427">
        <ele>391.0</ele>
      </trkpt>
      <trkpt lat="23.964411" lon="121.516613">
        <ele>395.0</ele>
      </trkpt>
      <trkpt lat="23.964449" lon="121.516673">
        <ele>396.0</ele>
      </trkpt>
      <trkpt lat="23.964441" lon="121.51683">
        <ele>402.0</ele>
      </trkpt>
      <trkpt lat="23.964802" lon="121.516934">
        <ele>399.0</ele>
      </trkpt>
      <trkpt lat="23.964877" lon="121.517069">
        <ele>402.0</ele>
      </trkpt>
      <trkpt lat="23.964852" lon="121.517327">
        <ele>410.0</ele>
      </trkpt>
      <trkpt lat="23.964862" lon="121.517427">
        <ele>413.0</ele>
      </trkpt>
      <trkpt lat="23.964972" lon="121.517639">
        <ele>419.0</ele>
      </trkpt>
      <trkpt lat="23.965" lon="121.517759">
        <ele>423.0</ele>
      </trkpt>
      <trkpt lat="23.964888" lon="121.517867">
        <ele>429.0</ele>
      </trkpt>
      <trkpt lat="23.964731" lon="121.517946">
        <ele>434.0</ele>
      </trkpt>
      <trkpt lat="23.964286" lon="121.51795">
        <ele>441.0</ele>
      </trkpt>
      <trkpt lat="23.964106" lon="121.517999">
        <ele>445.0</ele>
      </trkpt>
      <trkpt lat="23.963944" lon="121.518084">
        <ele>450.0</ele>
      </trkpt>
      <trkpt lat="23.96381" lon="121.518226">
        <ele>455.0</ele>
      </trkpt>
      <trkpt lat="23.963748" lon="121.518241">
        <ele>456.0</ele>
      </trkpt>
      <trkpt lat="23.963665" lon="121.518211">
        <ele>456.0</ele>
      </trkpt>
      <trkpt lat="23.96346" lon="121.517948">
        <ele>454.0</ele>
      </trkpt>
      <trkpt lat="23.963326" lon="121.517677">
        <ele>451.0</ele>
      </trkpt>
      <trkpt lat="23.963142" lon="121.517558">
        <ele>451.0</ele>
      </trkpt>
      <trkpt lat="23.962887" lon="121.517596">
        <ele>455.0</ele>
      </trkpt>
      <trkpt lat="23.962773" lon="121.517678">
        <ele>458.0</ele>
      </trkpt>
      <trkpt lat="23.96273" lon="121.517947">
        <ele>462.0</ele>
      </trkpt>
      <trkpt lat="23.962565" lon="121.518293">
        <ele>469.0</ele>
      </trkpt>
      <trkpt lat="23.962497" lon="121.518378">
        <ele>471.0</ele>
      </trkpt>
      <trkpt lat="23.96222" lon="121.51841">
        <ele>477.0</ele>
      </trkpt>
      <trkpt lat="23.962099" lon="121.518442">
        <ele>480.0</ele>
      </trkpt>
      <trkpt lat="23.962088" lon="121.518613">
        <ele>484.0</ele>
      </trkpt>
      <trkpt lat="23.962141" lon="121.518735">
        <ele>486.0</ele>
      </trkpt>
      <trkpt lat="23.962291" lon="121.518737">
        <ele>484.0</ele>
      </trkpt>
      <trkpt lat="23.962445" lon="121.518823">
        <ele>483.0</ele>
      </trkpt>
      <trkpt lat="23.962538" lon="121.518911">
        <ele>484.0</ele>
      </trkpt>
      <trkpt lat="23.96312" lon="121.519265">
        <ele>486.0</ele>
      </trkpt>
      <trkpt lat="23.963275" lon="121.519598">
        <ele>495.0</ele>
      </trkpt>
      <trkpt lat="23.963389" lon="121.519783">
        <ele>500.0</ele>
      </trkpt>
      <trkpt lat="23.963727" lon="121.519918">
        <ele>502.0</ele>
      </trkpt>
      <trkpt lat="23.96409" lon="121.52002">
        <ele>504.0</ele>
      </trkpt>
      <trkpt lat="23.964254" lon="121.520142">
        <ele>510.0</ele>
      </trkpt>
      <trkpt lat="23.964343" lon="121.520144">
        <ele>512.0</ele>
      </trkpt>
      <trkpt lat="23.964442" lon="121.520024">
        <ele>508.0</ele>
      </trkpt>
      <trkpt lat="23.964604" lon="121.520006">
        <ele>509.0</ele>
      </trkpt>
      <trkpt lat="23.96475" lon="121.520068">
        <ele>513.0</ele>
      </trkpt>
      <trkpt lat="23.964983" lon="121.520004">
        <ele>514.0</ele>
      </trkpt>
      <trkpt lat="23.965068" lon="121.520032">
        <ele>513.0</ele>
      </trkpt>
      <trkpt lat="23.965185" lon="121.520169">
        <ele>515.0</ele>
      </trkpt>
      <trkpt lat="23.965314" lon="121.520371">
        <ele>518.0</ele>
      </trkpt>
      <trkpt lat="23.965362" lon="121.520496">
        <ele>521.0</ele>
      </trkpt>
      <trkpt lat="23.965359" lon="121.520617">
        <ele>525.0</ele>
      </trkpt>
      <trkpt lat="23.965232" lon="121.520469">
        <ele>524.0</ele>
      </trkpt>
      <trkpt lat="23.965118" lon="121.520498">
        <ele>528.0</ele>
      </trkpt>
      <trkpt lat="23.964516" lon="121.521235">
        <ele>557.0</ele>
      </trkpt>
      <trkpt lat="23.964415" lon="121.521475">
        <ele>565.0</ele>
      </trkpt>
      <trkpt lat="23.964235" lon="121.521482">
        <ele>565.0</ele>
      </trkpt>
      <trkpt lat="23.964235" lon="121.521482">
        <ele>565.0</ele>
      </trkpt>
      <trkpt lat="23.9639" lon="121.521442">
        <ele>563.0</ele>
      </trkpt>
      <trkpt lat="23.963765" lon="121.521468">
        <ele>564.0</ele>
      </trkpt>
      <trkpt lat="23.963695" lon="121.521557">
        <ele>567.0</ele>
      </trkpt>
      <trkpt lat="23.963705" lon="121.521768">
        <ele>573.0</ele>
      </trkpt>
      <trkpt lat="23.963824" lon="121.521968">
        <ele>580.0</ele>
      </trkpt>
      <trkpt lat="23.963767" lon="121.522073">
        <ele>583.0</ele>
      </trkpt>
      <trkpt lat="23.963666" lon="121.522159">
        <ele>584.0</ele>
      </trkpt>
      <trkpt lat="23.963463" lon="121.522141">
        <ele>582.0</ele>
      </trkpt>
      <trkpt lat="23.963381" lon="121.522153">
        <ele>582.0</ele>
      </trkpt>
      <trkpt lat="23.963296" lon="121.522209">
        <ele>583.0</ele>
      </trkpt>
      <trkpt lat="23.963289" lon="121.522335">
        <ele>586.0</ele>
      </trkpt>
      <trkpt lat="23.963362" lon="121.522541">
        <ele>592.0</ele>
      </trkpt>
      <trkpt lat="23.963317" lon="121.522683">
        <ele>598.0</ele>
      </trkpt>
      <trkpt lat="23.963199" lon="121.522736">
        <ele>601.0</ele>
      </trkpt>
      <trkpt lat="23.96308" lon="121.522739">
        <ele>602.0</ele>
      </trkpt>
      <trkpt lat="23.962895" lon="121.522665">
        <ele>601.0</ele>
      </trkpt>
      <trkpt lat="23.962686" lon="121.522541">
        <ele>599.0</ele>
      </trkpt>
      <trkpt lat="23.962162" lon="121.522461">
        <ele>595.0</ele>
      </trkpt>
      <trkpt lat="23.962112" lon="121.522453">
        <ele>594.0</ele>
      </trkpt>
      <trkpt lat="23.962034" lon="121.522491">
        <ele>594.0</ele>
      </trkpt>
      <trkpt lat="23.961997" lon="121.522578">
        <ele>595.0</ele>
      </trkpt>
      <trkpt lat="23.96199" lon="121.522696">
        <ele>597.0</ele>
      </trkpt>
      <trkpt lat="23.962005" lon="121.522806">
        <ele>599.0</ele>
      </trkpt>
      <trkpt lat="23.962072" lon="121.522973">
        <ele>603.0</ele>
      </trkpt>
      <trkpt lat="23.962284" lon="121.523297">
        <ele>614.0</ele>
      </trkpt>
      <trkpt lat="23.962416" lon="121.523433">
        <ele>620.0</ele>
      </trkpt>
      <trkpt lat="23.962529" lon="121.523583">
        <ele>625.0</ele>
      </trkpt>
      <trkpt lat="23.963188" lon="121.524643">
        <ele>656.0</ele>
      </trkpt>
      <trkpt lat="23.963347" lon="121.524832">
        <ele>661.0</ele>
      </trkpt>
      <trkpt lat="23.963938" lon="121.525145">
        <ele>672.0</ele>
      </trkpt>
      <trkpt lat="23.964041" lon="121.525254">
        <ele>676.0</ele>
      </trkpt>
      <trkpt lat="23.964428" lon="121.525269">
        <ele>673.0</ele>
      </trkpt>
      <trkpt lat="23.964547" lon="121.525348">
        <ele>675.0</ele>
      </trkpt>
      <trkpt lat="23.96473" lon="121.525627">
        <ele>683.0</ele>
      </trkpt>
      <trkpt lat="23.964843" lon="121.525739">
        <ele>686.0</ele>
      </trkpt>
      <trkpt lat="23.965079" lon="121.525875">
        <ele>690.0</ele>
      </trkpt>
      <trkpt lat="23.965166" lon="121.525893">
        <ele>691.0</ele>
      </trkpt>
      <trkpt lat="23.965467" lon="121.525854">
        <ele>689.0</ele>
      </trkpt>
      <trkpt lat="23.965629" lon="121.525881">
        <ele>690.0</ele>
      </trkpt>
      <trkpt lat="23.965786" lon="121.525943">
        <ele>693.0</ele>
      </trkpt>
      <trkpt lat="23.965818" lon="121.52597">
        <ele>695.0</ele>
      </trkpt>
      <trkpt lat="23.965818" lon="121.52597">
        <ele>695.0</ele>
      </trkpt>
      <trkpt lat="23.965978" lon="121.526108">
        <ele>702.0</ele>
      </trkpt>
      <trkpt lat="23.966192" lon="121.526365">
        <ele>714.0</ele>
      </trkpt>
      <trkpt lat="23.96624" lon="121.52637">
        <ele>714.0</ele>
      </trkpt>
      <trkpt lat="23.966372" lon="121.526322">
        <ele>712.0</ele>
      </trkpt>
      <trkpt lat="23.966528" lon="121.52622">
        <ele>709.0</ele>
      </trkpt>
      <trkpt lat="23.966833" lon="121.526205">
        <ele>710.0</ele>
      </trkpt>
      <trkpt lat="23.966966" lon="121.526177">
        <ele>711.0</ele>
      </trkpt>
      <trkpt lat="23.967375" lon="121.526019">
        <ele>710.0</ele>
      </trkpt>
      <trkpt lat="23.967561" lon="121.525984">
        <ele>711.0</ele>
      </trkpt>
      <trkpt lat="23.9677" lon="121.526026">
        <ele>713.0</ele>
      </trkpt>
      <trkpt lat="23.967832" lon="121.526092">
        <ele>716.0</ele>
      </trkpt>
      <trkpt lat="23.968133" lon="121.526064">
        <ele>718.0</ele>
      </trkpt>
      <trkpt lat="23.968366" lon="121.526018">
        <ele>718.0</ele>
      </trkpt>
      <trkpt lat="23.968625" lon="121.526007">
        <ele>715.0</ele>
      </trkpt>
      <trkpt lat="23.968735" lon="121.526027">
        <ele>715.0</ele>
      </trkpt>
      <trkpt lat="23.968966" lon="121.526148">
        <ele>717.0</ele>
      </trkpt>
      <trkpt lat="23.969056" lon="121.5262">
        <ele>718.0</ele>
      </trkpt>
      <trkpt lat="23.969118" lon="121.526288">
        <ele>721.0</ele>
      </trkpt>
      <trkpt lat="23.969128" lon="121.526379">
        <ele>723.0</ele>
      </trkpt>
      <trkpt lat="23.969061" lon="121.526632">
        <ele>732.0</ele>
      </trkpt>
      <trkpt lat="23.969102" lon="121.527002">
        <ele>744.0</ele>
      </trkpt>
      <trkpt lat="23.969143" lon="121.52718">
        <ele>750.0</ele>
      </trkpt>
      <trkpt lat="23.969231" lon="121.527241">
        <ele>752.0</ele>
      </trkpt>
      <trkpt lat="23.969323" lon="121.527211">
        <ele>750.0</ele>
      </trkpt>
      <trkpt lat="23.969427" lon="121.527096">
        <ele>745.0</ele>
      </trkpt>
      <trkpt lat="23.969579" lon="121.527041">
        <ele>743.0</ele>
      </trkpt>
      <trkpt lat="23.969724" lon="121.527034">
        <ele>741.0</ele>
      </trkpt>
      <trkpt lat="23.969866" lon="121.527055">
        <ele>741.0</ele>
      </trkpt>
      <trkpt lat="23.970006" lon="121.527154">
        <ele>744.0</ele>
      </trkpt>
      <trkpt lat="23.970083" lon="121.527345">
        <ele>751.0</ele>
      </trkpt>
      <trkpt lat="23.970116" lon="121.527467">
        <ele>755.0</ele>
      </trkpt>
      <trkpt lat="23.970326" lon="121.527915">
        <ele>769.0</ele>
      </trkpt>
      <trkpt lat="23.970306" lon="121.528186">
        <ele>777.0</ele>
      </trkpt>
      <trkpt lat="23.970326" lon="121.52832">
        <ele>781.0</ele>
      </trkpt>
      <trkpt lat="23.970368" lon="121.528456">
        <ele>785.0</ele>
      </trkpt>
      <trkpt lat="23.970425" lon="121.52853">
        <ele>787.0</ele>
      </trkpt>
      <trkpt lat="23.970425" lon="121.52853">
        <ele>787.0</ele>
      </trkpt>
      <trkpt lat="23.970448" lon="121.528559">
        <ele>788.0</ele>
      </trkpt>
      <trkpt lat="23.970535" lon="121.528585">
        <ele>789.0</ele>
      </trkpt>
      <trkpt lat="23.970684" lon="121.528601">
        <ele>789.0</ele>
      </trkpt>
      <trkpt lat="23.970764" lon="121.528584">
        <ele>788.0</ele>
      </trkpt>
      <trkpt lat="23.970829" lon="121.528551">
        <ele>786.0</ele>
      </trkpt>
      <trkpt lat="23.970974" lon="121.528561">
        <ele>790.0</ele>
      </trkpt>
      <trkpt lat="23.971055" lon="121.528588">
        <ele>793.0</ele>
      </trkpt>
      <trkpt lat="23.97116" lon="121.528692">
        <ele>798.0</ele>
      </trkpt>
      <trkpt lat="23.971213" lon="121.528942">
        <ele>807.0</ele>
      </trkpt>
      <trkpt lat="23.971277" lon="121.529025">
        <ele>811.0</ele>
      </trkpt>
      <trkpt lat="23.971367" lon="121.529008">
        <ele>812.0</ele>
      </trkpt>
      <trkpt lat="23.971367" lon="121.529008">
        <ele>812.0</ele>
      </trkpt>
      <trkpt lat="23.971372" lon="121.529007">
        <ele>812.0</ele>
      </trkpt>
      <trkpt lat="23.971357" lon="121.529083">
        <ele>814.0</ele>
      </trkpt>
      <trkpt lat="23.971331" lon="121.529109">
        <ele>814.0</ele>
      </trkpt>
      <trkpt lat="23.97116" lon="121.52909">
        <ele>811.0</ele>
      </trkpt>
      <trkpt lat="23.971025" lon="121.529113">
        <ele>810.0</ele>
      </trkpt>
      <trkpt lat="23.970947" lon="121.529109">
        <ele>809.0</ele>
      </trkpt>
      <trkpt lat="23.970792" lon="121.529193">
        <ele>810.0</ele>
      </trkpt>
      <trkpt lat="23.970681" lon="121.529316">
        <ele>816.0</ele>
      </trkpt>
      <trkpt lat="23.970647" lon="121.529442">
        <ele>822.0</ele>
      </trkpt>
      <trkpt lat="23.970575" lon="121.52949">
        <ele>825.0</ele>
      </trkpt>
      <trkpt lat="23.970244" lon="121.529562">
        <ele>829.0</ele>
      </trkpt>
      <trkpt lat="23.97013" lon="121.52952">
        <ele>827.0</ele>
      </trkpt>
      <trkpt lat="23.970052" lon="121.529642">
        <ele>833.0</ele>
      </trkpt>
      <trkpt lat="23.970029" lon="121.529808">
        <ele>840.0</ele>
      </trkpt>
      <trkpt lat="23.969961" lon="121.530099">
        <ele>852.0</ele>
      </trkpt>
      <trkpt lat="23.969961" lon="121.530099">
        <ele>852.0</ele>
      </trkpt>
      <trkpt lat="23.969885" lon="121.530426">
        <ele>864.0</ele>
      </trkpt>
      <trkpt lat="23.969662" lon="121.530495">
        <ele>864.0</ele>
      </trkpt>
      <trkpt lat="23.969658" lon="121.530841">
        <ele>875.0</ele>
      </trkpt>
      <trkpt lat="23.969699" lon="121.530967">
        <ele>869.0</ele>
      </trkpt>
      <trkpt lat="23.970033" lon="121.531016">
        <ele>872.0</ele>
      </trkpt>
      <trkpt lat="23.970275" lon="121.531093">
        <ele>872.0</ele>
      </trkpt>
      <trkpt lat="23.970614" lon="121.531358">
        <ele>872.0</ele>
      </trkpt>
      <trkpt lat="23.970711" lon="121.531408">
        <ele>874.0</ele>
      </trkpt>
      <trkpt lat="23.970801" lon="121.531411">
        <ele>876.0</ele>
      </trkpt>
      <trkpt lat="23.97085" lon="121.531399">
        <ele>877.0</ele>
      </trkpt>
      <trkpt lat="23.97085" lon="121.531399">
        <ele>877.0</ele>
      </trkpt>
      <trkpt lat="23.970801" lon="121.531411">
        <ele>876.0</ele>
      </trkpt>
      <trkpt lat="23.970827" lon="121.531441">
        <ele>877.0</ele>
      </trkpt>
      <trkpt lat="23.970931" lon="121.531431">
        <ele>876.0</ele>
      </trkpt>
      <trkpt lat="23.97123" lon="121.531458">
        <ele>875.0</ele>
      </trkpt>
      <trkpt lat="23.971328" lon="121.531564">
        <ele>874.0</ele>
      </trkpt>
      <trkpt lat="23.97129" lon="121.531665">
        <ele>874.0</ele>
      </trkpt>
      <trkpt lat="23.971292" lon="121.531712">
        <ele>871.0</ele>
      </trkpt>
      <trkpt lat="23.971349" lon="121.53172">
        <ele>870.0</ele>
      </trkpt>
      <trkpt lat="23.971463" lon="121.531773">
        <ele>866.0</ele>
      </trkpt>
      <trkpt lat="23.971584" lon="121.531859">
        <ele>861.0</ele>
      </trkpt>
      <trkpt lat="23.971592" lon="121.531922">
        <ele>858.0</ele>
      </trkpt>
      <trkpt lat="23.971746" lon="121.532184">
        <ele>841.0</ele>
      </trkpt>
      <trkpt lat="23.971743" lon="121.532217">
        <ele>840.0</ele>
      </trkpt>
      <trkpt lat="23.971698" lon="121.532262">
        <ele>839.0</ele>
      </trkpt>
      <trkpt lat="23.971704" lon="121.5323">
        <ele>837.0</ele>
      </trkpt>
      <trkpt lat="23.971788" lon="121.532368">
        <ele>831.0</ele>
      </trkpt>
      <trkpt lat="23.971855" lon="121.532492">
        <ele>823.0</ele>
      </trkpt>
      <trkpt lat="23.971839" lon="121.532572">
        <ele>819.0</ele>
      </trkpt>
      <trkpt lat="23.97178" lon="121.532656">
        <ele>816.0</ele>
      </trkpt>
      <trkpt lat="23.971765" lon="121.532876">
        <ele>805.0</ele>
      </trkpt>
      <trkpt lat="23.971739" lon="121.533004">
        <ele>798.0</ele>
      </trkpt>
      <trkpt lat="23.971746" lon="121.533059">
        <ele>795.0</ele>
      </trkpt>
      <trkpt lat="23.97182" lon="121.53311">
        <ele>792.0</ele>
      </trkpt>
      <trkpt lat="23.97182" lon="121.53311">
        <ele>792.0</ele>
      </trkpt>
      <trkpt lat="23.97192" lon="121.533179">
        <ele>788.0</ele>
      </trkpt>
      <trkpt lat="23.971963" lon="121.53325">
        <ele>785.0</ele>
      </trkpt>
      <trkpt lat="23.972086" lon="121.533311">
        <ele>781.0</ele>
      </trkpt>
      <trkpt lat="23.972194" lon="121.533434">
        <ele>776.0</ele>
      </trkpt>
      <trkpt lat="23.972231" lon="121.533436">
        <ele>776.0</ele>
      </trkpt>
      <trkpt lat="23.972283" lon="121.533491">
        <ele>774.0</ele>
      </trkpt>
      <trkpt lat="23.972366" lon="121.533542">
        <ele>772.0</ele>
      </trkpt>
      <trkpt lat="23.972477" lon="121.533657">
        <ele>769.0</ele>
      </trkpt>
      <trkpt lat="23.972623" lon="121.533776">
        <ele>763.0</ele>
      </trkpt>
      <trkpt lat="23.972704" lon="121.533836">
        <ele>760.0</ele>
      </trkpt>
      <trkpt lat="23.972777" lon="121.533848">
        <ele>759.0</ele>
      </trkpt>
      <trkpt lat="23.972965" lon="121.533698">
        <ele>761.0</ele>
      </trkpt>
      <trkpt lat="23.973028" lon="121.533547">
        <ele>763.0</ele>
      </trkpt>
      <trkpt lat="23.973336" lon="121.533173">
        <ele>764.0</ele>
      </trkpt>
      <trkpt lat="23.973461" lon="121.533083">
        <ele>765.0</ele>
      </trkpt>
      <trkpt lat="23.97361" lon="121.533109">
        <ele>763.0</ele>
      </trkpt>
      <trkpt lat="23.973613" lon="121.53317">
        <ele>762.0</ele>
      </trkpt>
      <trkpt lat="23.973665" lon="121.533209">
        <ele>761.0</ele>
      </trkpt>
      <trkpt lat="23.973777" lon="121.533336">
        <ele>757.0</ele>
      </trkpt>
      <trkpt lat="23.973838" lon="121.533414">
        <ele>755.0</ele>
      </trkpt>
      <trkpt lat="23.973854" lon="121.533464">
        <ele>753.0</ele>
      </trkpt>
      <trkpt lat="23.973824" lon="121.533608">
        <ele>750.0</ele>
      </trkpt>
      <trkpt lat="23.973768" lon="121.533757">
        <ele>747.0</ele>
      </trkpt>
      <trkpt lat="23.973757" lon="121.53392">
        <ele>743.0</ele>
      </trkpt>
      <trkpt lat="23.973718" lon="121.534031">
        <ele>741.0</ele>
      </trkpt>
      <trkpt lat="23.973728" lon="121.534206">
        <ele>737.0</ele>
      </trkpt>
      <trkpt lat="23.973789" lon="121.534294">
        <ele>734.0</ele>
      </trkpt>
      <trkpt lat="23.973863" lon="121.534506">
        <ele>728.0</ele>
      </trkpt>
      <trkpt lat="23.973914" lon="121.534764">
        <ele>721.0</ele>
      </trkpt>
      <trkpt lat="23.973918" lon="121.535447">
        <ele>709.0</ele>
      </trkpt>
      <trkpt lat="23.973877" lon="121.535566">
        <ele>708.0</ele>
      </trkpt>
      <trkpt lat="23.973873" lon="121.535632">
        <ele>707.0</ele>
      </trkpt>
      <trkpt lat="23.973942" lon="121.535641">
        <ele>706.0</ele>
      </trkpt>
      <trkpt lat="23.973984" lon="121.535665">
        <ele>705.0</ele>
      </trkpt>
      <trkpt lat="23.97418" lon="121.535809">
        <ele>700.0</ele>
      </trkpt>
      <trkpt lat="23.974257" lon="121.535913">
        <ele>697.0</ele>
      </trkpt>
      <trkpt lat="23.974267" lon="121.535946">
        <ele>696.0</ele>
      </trkpt>
      <trkpt lat="23.974245" lon="121.536012">
        <ele>696.0</ele>
      </trkpt>
      <trkpt lat="23.974151" lon="121.536103">
        <ele>697.0</ele>
      </trkpt>
      <trkpt lat="23.974143" lon="121.536152">
        <ele>697.0</ele>
      </trkpt>
      <trkpt lat="23.97414" lon="121.536246">
        <ele>696.0</ele>
      </trkpt>
      <trkpt lat="23.974232" lon="121.536428">
        <ele>692.0</ele>
      </trkpt>
      <trkpt lat="23.974314" lon="121.536492">
        <ele>690.0</ele>
      </trkpt>
      <trkpt lat="23.974404" lon="121.53652">
        <ele>689.0</ele>
      </trkpt>
      <trkpt lat="23.974427" lon="121.536512">
        <ele>688.0</ele>
      </trkpt>
      <trkpt lat="23.974427" lon="121.536512">
        <ele>688.0</ele>
      </trkpt>
      <trkpt lat="23.974577" lon="121.536459">
        <ele>686.0</ele>
      </trkpt>
      <trkpt lat="23.974937" lon="121.536156">
        <ele>679.0</ele>
      </trkpt>
      <trkpt lat="23.975122" lon="121.535858">
        <ele>671.0</ele>
      </trkpt>
      <trkpt lat="23.975193" lon="121.535278">
        <ele>674.0</ele>
      </trkpt>
      <trkpt lat="23.975251" lon="121.535271">
        <ele>672.0</ele>
      </trkpt>
      <trkpt lat="23.975275" lon="121.535338">
        <ele>671.0</ele>
      </trkpt>
      <trkpt lat="23.975296" lon="121.535539">
        <ele>668.0</ele>
      </trkpt>
      <trkpt lat="23.975362" lon="121.535694">
        <ele>664.0</ele>
      </trkpt>
      <trkpt lat="23.975434" lon="121.535828">
        <ele>659.0</ele>
      </trkpt>
      <trkpt lat="23.975649" lon="121.536059">
        <ele>652.0</ele>
      </trkpt>
      <trkpt lat="23.975879" lon="121.536436">
        <ele>645.0</ele>
      </trkpt>
      <trkpt lat="23.975971" lon="121.536557">
        <ele>641.0</ele>
      </trkpt>
      <trkpt lat="23.976049" lon="121.536746">
        <ele>637.0</ele>
      </trkpt>
      <trkpt lat="23.976087" lon="121.53688">
        <ele>635.0</ele>
      </trkpt>
      <trkpt lat="23.976127" lon="121.536904">
        <ele>633.0</ele>
      </trkpt>
      <trkpt lat="23.976171" lon="121.536854">
        <ele>630.0</ele>
      </trkpt>
      <trkpt lat="23.97617" lon="121.536761">
        <ele>630.0</ele>
      </trkpt>
      <trkpt lat="23.976105" lon="121.536577">
        <ele>633.0</ele>
      </trkpt>
      <trkpt lat="23.976117" lon="121.536509">
        <ele>632.0</ele>
      </trkpt>
      <trkpt lat="23.976229" lon="121.536518">
        <ele>626.0</ele>
      </trkpt>
      <trkpt lat="23.976342" lon="121.536632">
        <ele>619.0</ele>
      </trkpt>
      <trkpt lat="23.976449" lon="121.536796">
        <ele>614.0</ele>
      </trkpt>
      <trkpt lat="23.976458" lon="121.537016">
        <ele>615.0</ele>
      </trkpt>
      <trkpt lat="23.976498" lon="121.537111">
        <ele>613.0</ele>
      </trkpt>
      <trkpt lat="23.976567" lon="121.537223">
        <ele>610.0</ele>
      </trkpt>
      <trkpt lat="23.976601" lon="121.53737">
        <ele>609.0</ele>
      </trkpt>
      <trkpt lat="23.976649" lon="121.537361">
        <ele>606.0</ele>
      </trkpt>
      <trkpt lat="23.976678" lon="121.537258">
        <ele>604.0</ele>
      </trkpt>
      <trkpt lat="23.976656" lon="121.537056">
        <ele>603.0</ele>
      </trkpt>
      <trkpt lat="23.976728" lon="121.536869">
        <ele>599.0</ele>
      </trkpt>
      <trkpt lat="23.976716" lon="121.536716">
        <ele>598.0</ele>
      </trkpt>
      <trkpt lat="23.976736" lon="121.536671">
        <ele>597.0</ele>
      </trkpt>
      <trkpt lat="23.976782" lon="121.536681">
        <ele>595.0</ele>
      </trkpt>
      <trkpt lat="23.976829" lon="121.536726">
        <ele>594.0</ele>
      </trkpt>
      <trkpt lat="23.976908" lon="121.537077">
        <ele>591.0</ele>
      </trkpt>
      <trkpt lat="23.977062" lon="121.537306">
        <ele>582.0</ele>
      </trkpt>
      <trkpt lat="23.977286" lon="121.537784">
        <ele>568.0</ele>
      </trkpt>
      <trkpt lat="23.97728" lon="121.537844">
        <ele>568.0</ele>
      </trkpt>
      <trkpt lat="23.977231" lon="121.537965">
        <ele>572.0</ele>
      </trkpt>
      <trkpt lat="23.977231" lon="121.537965">
        <ele>572.0</ele>
      </trkpt>
      <trkpt lat="23.977219" lon="121.537995">
        <ele>572.0</ele>
      </trkpt>
      <trkpt lat="23.977222" lon="121.53805">
        <ele>572.0</ele>
      </trkpt>
      <trkpt lat="23.977264" lon="121.538085">
        <ele>570.0</ele>
      </trkpt>
      <trkpt lat="23.977355" lon="121.538057">
        <ele>564.0</ele>
      </trkpt>
      <trkpt lat="23.977433" lon="121.53801">
        <ele>559.0</ele>
      </trkpt>
      <trkpt lat="23.977528" lon="121.537845">
        <ele>553.0</ele>
      </trkpt>
      <trkpt lat="23.977592" lon="121.537661">
        <ele>550.0</ele>
      </trkpt>
      <trkpt lat="23.977613" lon="121.53741">
        <ele>550.0</ele>
      </trkpt>
      <trkpt lat="23.977663" lon="121.537389">
        <ele>549.0</ele>
      </trkpt>
      <trkpt lat="23.977709" lon="121.537425">
        <ele>546.0</ele>
      </trkpt>
      <trkpt lat="23.977796" lon="121.537664">
        <ele>541.0</ele>
      </trkpt>
      <trkpt lat="23.977924" lon="121.537949">
        <ele>533.0</ele>
      </trkpt>
      <trkpt lat="23.977995" lon="121.538205">
        <ele>528.0</ele>
      </trkpt>
      <trkpt lat="23.978112" lon="121.538435">
        <ele>521.0</ele>
      </trkpt>
      <trkpt lat="23.978124" lon="121.538616">
        <ele>520.0</ele>
      </trkpt>
      <trkpt lat="23.978148" lon="121.538654">
        <ele>519.0</ele>
      </trkpt>
      <trkpt lat="23.97821" lon="121.538616">
        <ele>515.0</ele>
      </trkpt>
      <trkpt lat="23.978263" lon="121.538455">
        <ele>512.0</ele>
      </trkpt>
      <trkpt lat="23.97829" lon="121.538269">
        <ele>511.0</ele>
      </trkpt>
      <trkpt lat="23.978261" lon="121.537797">
        <ele>518.0</ele>
      </trkpt>
      <trkpt lat="23.978289" lon="121.537728">
        <ele>518.0</ele>
      </trkpt>
      <trkpt lat="23.978315" lon="121.537724">
        <ele>517.0</ele>
      </trkpt>
      <trkpt lat="23.978341" lon="121.537743">
        <ele>516.0</ele>
      </trkpt>
      <trkpt lat="23.978422" lon="121.538003">
        <ele>510.0</ele>
      </trkpt>
      <trkpt lat="23.978535" lon="121.538247">
        <ele>501.0</ele>
      </trkpt>
      <trkpt lat="23.978684" lon="121.538506">
        <ele>492.0</ele>
      </trkpt>
      <trkpt lat="23.978817" lon="121.538816">
        <ele>485.0</ele>
      </trkpt>
      <trkpt lat="23.978829" lon="121.539052">
        <ele>484.0</ele>
      </trkpt>
      <trkpt lat="23.979006" lon="121.539467">
        <ele>473.0</ele>
      </trkpt>
      <trkpt lat="23.979158" lon="121.540131">
        <ele>462.0</ele>
      </trkpt>
      <trkpt lat="23.979183" lon="121.540435">
        <ele>462.0</ele>
      </trkpt>
      <trkpt lat="23.979254" lon="121.540516">
        <ele>458.0</ele>
      </trkpt>
      <trkpt lat="23.979414" lon="121.540593">
        <ele>449.0</ele>
      </trkpt>
      <trkpt lat="23.979724" lon="121.540701">
        <ele>433.0</ele>
      </trkpt>
      <trkpt lat="23.979786" lon="121.54078">
        <ele>430.0</ele>
      </trkpt>
      <trkpt lat="23.979777" lon="121.54093">
        <ele>429.0</ele>
      </trkpt>
      <trkpt lat="23.979517" lon="121.541749">
        <ele>427.0</ele>
      </trkpt>
      <trkpt lat="23.979436" lon="121.541895">
        <ele>424.0</ele>
      </trkpt>
      <trkpt lat="23.979436" lon="121.541895">
        <ele>424.0</ele>
      </trkpt>
      <trkpt lat="23.979031" lon="121.542624">
        <ele>399.0</ele>
      </trkpt>
      <trkpt lat="23.979047" lon="121.542671">
        <ele>397.0</ele>
      </trkpt>
      <trkpt lat="23.979092" lon="121.542683">
        <ele>396.0</ele>
      </trkpt>
      <trkpt lat="23.97928" lon="121.54252">
        <ele>398.0</ele>
      </trkpt>
      <trkpt lat="23.979392" lon="121.542491">
        <ele>396.0</ele>
      </trkpt>
      <trkpt lat="23.979662" lon="121.542503">
        <ele>386.0</ele>
      </trkpt>
      <trkpt lat="23.979939" lon="121.542438">
        <ele>379.0</ele>
      </trkpt>
      <trkpt lat="23.980107" lon="121.542317">
        <ele>377.0</ele>
      </trkpt>
      <trkpt lat="23.980503" lon="121.542098">
        <ele>366.0</ele>
      </trkpt>
      <trkpt lat="23.980626" lon="121.541958">
        <ele>363.0</ele>
      </trkpt>
      <trkpt lat="23.980693" lon="121.541929">
        <ele>360.0</ele>
      </trkpt>
      <trkpt lat="23.980736" lon="121.541942">
        <ele>358.0</ele>
      </trkpt>
      <trkpt lat="23.980751" lon="121.541997">
        <ele>356.0</ele>
      </trkpt>
      <trkpt lat="23.980729" lon="121.542068">
        <ele>356.0</ele>
      </trkpt>
      <trkpt lat="23.980354" lon="121.542499">
        <ele>363.0</ele>
      </trkpt>
      <trkpt lat="23.980226" lon="121.542744">
        <ele>358.0</ele>
      </trkpt>
      <trkpt lat="23.980122" lon="121.543002">
        <ele>351.0</ele>
      </trkpt>
      <trkpt lat="23.980072" lon="121.543068">
        <ele>350.0</ele>
      </trkpt>
      <trkpt lat="23.979943" lon="121.543155">
        <ele>350.0</ele>
      </trkpt>
      <trkpt lat="23.979854" lon="121.543241">
        <ele>349.0</ele>
      </trkpt>
      <trkpt lat="23.97984" lon="121.543302">
        <ele>347.0</ele>
      </trkpt>
      <trkpt lat="23.979876" lon="121.54335">
        <ele>344.0</ele>
      </trkpt>
      <trkpt lat="23.980201" lon="121.543337">
        <ele>335.0</ele>
      </trkpt>
      <trkpt lat="23.980403" lon="121.543241">
        <ele>333.0</ele>
      </trkpt>
      <trkpt lat="23.980629" lon="121.543077">
        <ele>332.0</ele>
      </trkpt>
      <trkpt lat="23.981148" lon="121.542926">
        <ele>320.0</ele>
      </trkpt>
      <trkpt lat="23.981348" lon="121.542819">
        <ele>316.0</ele>
      </trkpt>
      <trkpt lat="23.981422" lon="121.54259">
        <ele>317.0</ele>
      </trkpt>
      <trkpt lat="23.981431" lon="121.542439">
        <ele>319.0</ele>
      </trkpt>
      <trkpt lat="23.981406" lon="121.541946">
        <ele>326.0</ele>
      </trkpt>
      <trkpt lat="23.981435" lon="121.541914">
        <ele>325.0</ele>
      </trkpt>
      <trkpt lat="23.981473" lon="121.541912">
        <ele>323.0</ele>
      </trkpt>
      <trkpt lat="23.981541" lon="121.54198">
        <ele>319.0</ele>
      </trkpt>
      <trkpt lat="23.981602" lon="121.542299">
        <ele>312.0</ele>
      </trkpt>
      <trkpt lat="23.981957" lon="121.542874">
        <ele>296.0</ele>
      </trkpt>
      <trkpt lat="23.98198" lon="121.543068">
        <ele>293.0</ele>
      </trkpt>
      <trkpt lat="23.981889" lon="121.543321">
        <ele>292.0</ele>
      </trkpt>
      <trkpt lat="23.981859" lon="121.543521">
        <ele>286.0</ele>
      </trkpt>
      <trkpt lat="23.981812" lon="121.543594">
        <ele>285.0</ele>
      </trkpt>
      <trkpt lat="23.981729" lon="121.543673">
        <ele>285.0</ele>
      </trkpt>
      <trkpt lat="23.981475" lon="121.543737">
        <ele>289.0</ele>
      </trkpt>
      <trkpt lat="23.981427" lon="121.543794">
        <ele>288.0</ele>
      </trkpt>
      <trkpt lat="23.981412" lon="121.543874">
        <ele>285.0</ele>
      </trkpt>
      <trkpt lat="23.981457" lon="121.543944">
        <ele>282.0</ele>
      </trkpt>
      <trkpt lat="23.981551" lon="121.54398">
        <ele>278.0</ele>
      </trkpt>
      <trkpt lat="23.981676" lon="121.543987">
        <ele>275.0</ele>
      </trkpt>
      <trkpt lat="23.98268" lon="121.543794">
        <ele>258.0</ele>
      </trkpt>
      <trkpt lat="23.982753" lon="121.543834">
        <ele>255.0</ele>
      </trkpt>
      <trkpt lat="23.982771" lon="121.543924">
        <ele>252.0</ele>
      </trkpt>
      <trkpt lat="23.982756" lon="121.544013">
        <ele>251.0</ele>
      </trkpt>
      <trkpt lat="23.982709" lon="121.544082">
        <ele>250.0</ele>
      </trkpt>
      <trkpt lat="23.982594" lon="121.544176">
        <ele>249.0</ele>
      </trkpt>
      <trkpt lat="23.982479" lon="121.544238">
        <ele>249.0</ele>
      </trkpt>
      <trkpt lat="23.982193" lon="121.544326">
        <ele>252.0</ele>
      </trkpt>
      <trkpt lat="23.982129" lon="121.544402">
        <ele>251.0</ele>
      </trkpt>
      <trkpt lat="23.982039" lon="121.544796">
        <ele>239.0</ele>
      </trkpt>
      <trkpt lat="23.982007" lon="121.544872">
        <ele>237.0</ele>
      </trkpt>
      <trkpt lat="23.981788" lon="121.545016">
        <ele>236.0</ele>
      </trkpt>
      <trkpt lat="23.981743" lon="121.545115">
        <ele>235.0</ele>
      </trkpt>
      <trkpt lat="23.981678" lon="121.545197">
        <ele>235.0</ele>
      </trkpt>
      <trkpt lat="23.981393" lon="121.54535">
        <ele>246.0</ele>
      </trkpt>
      <trkpt lat="23.981326" lon="121.545417">
        <ele>248.0</ele>
      </trkpt>
      <trkpt lat="23.981326" lon="121.545493">
        <ele>247.0</ele>
      </trkpt>
      <trkpt lat="23.98134" lon="121.54553">
        <ele>246.0</ele>
      </trkpt>
      <trkpt lat="23.98134" lon="121.54553">
        <ele>246.0</ele>
      </trkpt>
      <trkpt lat="23.981358" lon="121.545575">
        <ele>244.0</ele>
      </trkpt>
      <trkpt lat="23.9815" lon="121.54553">
        <ele>238.0</ele>
      </trkpt>
      <trkpt lat="23.981599" lon="121.545467">
        <ele>234.0</ele>
      </trkpt>
      <trkpt lat="23.981928" lon="121.545447">
        <ele>224.0</ele>
      </trkpt>
      <trkpt lat="23.981997" lon="121.545423">
        <ele>223.0</ele>
      </trkpt>
      <trkpt lat="23.982177" lon="121.545232">
        <ele>223.0</ele>
      </trkpt>
      <trkpt lat="23.982234" lon="121.545202">
        <ele>223.0</ele>
      </trkpt>
      <trkpt lat="23.982691" lon="121.545164">
        <ele>215.0</ele>
      </trkpt>
      <trkpt lat="23.982921" lon="121.545055">
        <ele>213.0</ele>
      </trkpt>
      <trkpt lat="23.983202" lon="121.545031">
        <ele>209.0</ele>
      </trkpt>
      <trkpt lat="23.983412" lon="121.544975">
        <ele>205.0</ele>
      </trkpt>
      <trkpt lat="23.98346" lon="121.54497">
        <ele>204.0</ele>
      </trkpt>
      <trkpt lat="23.983504" lon="121.544986">
        <ele>202.0</ele>
      </trkpt>
      <trkpt lat="23.983519" lon="121.545037">
        <ele>200.0</ele>
      </trkpt>
      <trkpt lat="23.983188" lon="121.545251">
        <ele>203.0</ele>
      </trkpt>
      <trkpt lat="23.983144" lon="121.54533">
        <ele>201.0</ele>
      </trkpt>
      <trkpt lat="23.983114" lon="121.545509">
        <ele>197.0</ele>
      </trkpt>
      <trkpt lat="23.983023" lon="121.545637">
        <ele>195.0</ele>
      </trkpt>
      <trkpt lat="23.982809" lon="121.545746">
        <ele>196.0</ele>
      </trkpt>
      <trkpt lat="23.982769" lon="121.545806">
        <ele>195.0</ele>
      </trkpt>
      <trkpt lat="23.982733" lon="121.545915">
        <ele>194.0</ele>
      </trkpt>
      <trkpt lat="23.98272" lon="121.546053">
        <ele>193.0</ele>
      </trkpt>
      <trkpt lat="23.982737" lon="121.546248">
        <ele>190.0</ele>
      </trkpt>
      <trkpt lat="23.982713" lon="121.54636">
        <ele>190.0</ele>
      </trkpt>
      <trkpt lat="23.982743" lon="121.546394">
        <ele>189.0</ele>
      </trkpt>
      <trkpt lat="23.982779" lon="121.5464">
        <ele>188.0</ele>
      </trkpt>
      <trkpt lat="23.982832" lon="121.546369">
        <ele>186.0</ele>
      </trkpt>
      <trkpt lat="23.982875" lon="121.546195">
        <ele>187.0</ele>
      </trkpt>
      <trkpt lat="23.982942" lon="121.546049">
        <ele>187.0</ele>
      </trkpt>
      <trkpt lat="23.983101" lon="121.545915">
        <ele>186.0</ele>
      </trkpt>
      <trkpt lat="23.983403" lon="121.545818">
        <ele>182.0</ele>
      </trkpt>
      <trkpt lat="23.983663" lon="121.545577">
        <ele>183.0</ele>
      </trkpt>
      <trkpt lat="23.983712" lon="121.545549">
        <ele>182.0</ele>
      </trkpt>
      <trkpt lat="23.9838" lon="121.545555">
        <ele>180.0</ele>
      </trkpt>
      <trkpt lat="23.983824" lon="121.545584">
        <ele>179.0</ele>
      </trkpt>
      <trkpt lat="23.983827" lon="121.545615">
        <ele>178.0</ele>
      </trkpt>
      <trkpt lat="23.983809" lon="121.545653">
        <ele>177.0</ele>
      </trkpt>
      <trkpt lat="23.983625" lon="121.545814">
        <ele>178.0</ele>
      </trkpt>
      <trkpt lat="23.983434" lon="121.546098">
        <ele>174.0</ele>
      </trkpt>
      <trkpt lat="23.98331" lon="121.546418">
        <ele>168.0</ele>
      </trkpt>
      <trkpt lat="23.983241" lon="121.546779">
        <ele>163.0</ele>
      </trkpt>
      <trkpt lat="23.983145" lon="121.54701">
        <ele>167.0</ele>
      </trkpt>
      <trkpt lat="23.983145" lon="121.547058">
        <ele>167.0</ele>
      </trkpt>
      <trkpt lat="23.983177" lon="121.547104">
        <ele>165.0</ele>
      </trkpt>
      <trkpt lat="23.983236" lon="121.54712">
        <ele>162.0</ele>
      </trkpt>
      <trkpt lat="23.983407" lon="121.547085">
        <ele>155.0</ele>
      </trkpt>
      <trkpt lat="23.983488" lon="121.547053">
        <ele>154.0</ele>
      </trkpt>
      <trkpt lat="23.984343" lon="121.546483">
        <ele>144.0</ele>
      </trkpt>
      <trkpt lat="23.984493" lon="121.546296">
        <ele>145.0</ele>
      </trkpt>
      <trkpt lat="23.984569" lon="121.546295">
        <ele>143.0</ele>
      </trkpt>
      <trkpt lat="23.984697" lon="121.546333">
        <ele>139.0</ele>
      </trkpt>
      <trkpt lat="23.98473" lon="121.546484">
        <ele>133.0</ele>
      </trkpt>
      <trkpt lat="23.984704" lon="121.546694">
        <ele>128.0</ele>
      </trkpt>
      <trkpt lat="23.984648" lon="121.546866">
        <ele>128.0</ele>
      </trkpt>
      <trkpt lat="23.984608" lon="121.546907">
        <ele>128.0</ele>
      </trkpt>
      <trkpt lat="23.984486" lon="121.546962">
        <ele>131.0</ele>
      </trkpt>
      <trkpt lat="23.984457" lon="121.547011">
        <ele>131.0</ele>
      </trkpt>
      <trkpt lat="23.984456" lon="121.547066">
        <ele>130.0</ele>
      </trkpt>
      <trkpt lat="23.98459" lon="121.547468">
        <ele>121.0</ele>
      </trkpt>
      <trkpt lat="23.98459" lon="121.547801">
        <ele>114.0</ele>
      </trkpt>
      <trkpt lat="23.984128" lon="121.548056">
        <ele>122.0</ele>
      </trkpt>
      <trkpt lat="23.984096" lon="121.548096">
        <ele>122.0</ele>
      </trkpt>
      <trkpt lat="23.984086" lon="121.548142">
        <ele>122.0</ele>
      </trkpt>
      <trkpt lat="23.984101" lon="121.548198">
        <ele>120.0</ele>
      </trkpt>
      <trkpt lat="23.984133" lon="121.548225">
        <ele>118.0</ele>
      </trkpt>
      <trkpt lat="23.984532" lon="121.548367">
        <ele>104.0</ele>
      </trkpt>
      <trkpt lat="23.984687" lon="121.548364">
        <ele>100.0</ele>
      </trkpt>
      <trkpt lat="23.984819" lon="121.548316">
        <ele>98.0</ele>
      </trkpt>
      <trkpt lat="23.985049" lon="121.548175">
        <ele>95.0</ele>
      </trkpt>
      <trkpt lat="23.985049" lon="121.548175">
        <ele>95.0</ele>
      </trkpt>
      <trkpt lat="23.985245" lon="121.547916">
        <ele>97.0</ele>
      </trkpt>
      <trkpt lat="23.985319" lon="121.547646">
        <ele>100.0</ele>
      </trkpt>
      <trkpt lat="23.985326" lon="121.547439">
        <ele>103.0</ele>
      </trkpt>
      <trkpt lat="23.985383" lon="121.547238">
        <ele>104.0</ele>
      </trkpt>
      <trkpt lat="23.9855" lon="121.547077">
        <ele>103.0</ele>
      </trkpt>
      <trkpt lat="23.985598" lon="121.546991">
        <ele>102.0</ele>
      </trkpt>
      <trkpt lat="23.985625" lon="121.546987">
        <ele>101.0</ele>
      </trkpt>
      <trkpt lat="23.985625" lon="121.546987">
        <ele>101.0</ele>
      </trkpt>
      <trkpt lat="23.985658" lon="121.546982">
        <ele>100.0</ele>
      </trkpt>
      <trkpt lat="23.985369" lon="121.548285">
        <ele>89.0</ele>
      </trkpt>
      <trkpt lat="23.985342" lon="121.548349">
        <ele>88.0</ele>
      </trkpt>
      <trkpt lat="23.984899" lon="121.54891">
        <ele>83.0</ele>
      </trkpt>
      <trkpt lat="23.984624" lon="121.549161">
        <ele>82.0</ele>
      </trkpt>
      <trkpt lat="23.984577" lon="121.549247">
        <ele>81.0</ele>
      </trkpt>
      <trkpt lat="23.984535" lon="121.549427">
        <ele>79.0</ele>
      </trkpt>
      <trkpt lat="23.984516" lon="121.549888">
        <ele>71.0</ele>
      </trkpt>
      <trkpt lat="23.984489" lon="121.549933">
        <ele>70.0</ele>
      </trkpt>
      <trkpt lat="23.98445" lon="121.54995">
        <ele>70.0</ele>
      </trkpt>
      <trkpt lat="23.98445" lon="121.54995">
        <ele>70.0</ele>
      </trkpt>
      <trkpt lat="23.984374" lon="121.549981">
        <ele>70.0</ele>
      </trkpt>
      <trkpt lat="23.984056" lon="121.552217">
        <ele>63.0</ele>
      </trkpt>
      <trkpt lat="23.983457" lon="121.55202">
        <ele>62.0</ele>
      </trkpt>
      <trkpt lat="23.982848" lon="121.553026">
        <ele>59.0</ele>
      </trkpt>
      <trkpt lat="23.983718" lon="121.553786">
        <ele>58.0</ele>
      </trkpt>
      <trkpt lat="23.984492" lon="121.554208">
        <ele>57.0</ele>
      </trkpt>
      <trkpt lat="23.981844" lon="121.559104">
        <ele>48.0</ele>
      </trkpt>
      <trkpt lat="23.981013" lon="121.560605">
        <ele>44.0</ele>
      </trkpt>
      <trkpt lat="23.98096" lon="121.560761">
        <ele>44.0</ele>
      </trkpt>
      <trkpt lat="23.980876" lon="121.560851">
        <ele>43.0</ele>
      </trkpt>
      <trkpt lat="23.980587" lon="121.561398">
        <ele>43.0</ele>
      </trkpt>
      <trkpt lat="23.980577" lon="121.561475">
        <ele>43.0</ele>
      </trkpt>
      <trkpt lat="23.979284" lon="121.5638">
        <ele>41.0</ele>
      </trkpt>
      <trkpt lat="23.979054" lon="121.564187">
        <ele>40.0</ele>
      </trkpt>
      <trkpt lat="23.978021" lon="121.566136">
        <ele>40.0</ele>
      </trkpt>
      <trkpt lat="23.978516" lon="121.566463">
        <ele>41.0</ele>
      </trkpt>
    </trkseg>
  </trk>
</gpx>
