<?xml version="1.0" encoding="UTF-8"?>
<gpx xmlns="http://www.topografix.com/GPX/1/1" xmlns:xsi="http://www.w3.org/2001/XMLSchema-instance" xsi:schemaLocation="http://www.topografix.com/GPX/1/1 http://www.topografix.com/GPX/1/1/gpx.xsd" version="1.1" creator="Martin Schneider">
  <wpt lat="23.928803" lon="121.506066">
    <ele>142.0</ele>
    <name>Start</name>
  </wpt>
  <wpt lat="23.928803" lon="121.506066">
    <ele>142.0</ele>
    <name>End</name>
  </wpt>
  <wpt lat="23.919109" lon="121.520669">
    <ele>576.0</ele>
    <name>Summit Liyushan</name>
  </wpt>
  <trk>
    <name>89_Liyushan</name>
    <trkseg>
      <trkpt lat="23.928803" lon="121.506066">
        <ele>142.0</ele>
      </trkpt>
      <trkpt lat="23.928803" lon="121.506066">
        <ele>142.0</ele>
      </trkpt>
      <trkpt lat="23.928632" lon="121.506058">
        <ele>142.0</ele>
      </trkpt>
      <trkpt lat="23.928569" lon="121.506133">
        <ele>141.0</ele>
      </trkpt>
      <trkpt lat="23.92851" lon="121.506163">
        <ele>141.0</ele>
      </trkpt>
      <trkpt lat="23.928429" lon="121.506141">
        <ele>141.0</ele>
      </trkpt>
      <trkpt lat="23.928351" lon="121.505986">
        <ele>141.0</ele>
      </trkpt>
      <trkpt lat="23.928343" lon="121.505917">
        <ele>141.0</ele>
      </trkpt>
      <trkpt lat="23.928213" lon="121.505864">
        <ele>141.0</ele>
      </trkpt>
      <trkpt lat="23.928091" lon="121.505864">
        <ele>140.0</ele>
      </trkpt>
      <trkpt lat="23.928017" lon="121.505846">
        <ele>140.0</ele>
      </trkpt>
      <trkpt lat="23.928017" lon="121.505846">
        <ele>140.0</ele>
      </trkpt>
      <trkpt lat="23.927809" lon="121.505798">
        <ele>140.0</ele>
      </trkpt>
      <trkpt lat="23.927639" lon="121.5059">
        <ele>139.0</ele>
      </trkpt>
      <trkpt lat="23.927463" lon="121.505737">
        <ele>140.0</ele>
      </trkpt>
      <trkpt lat="23.927086" lon="121.505704">
        <ele>141.0</ele>
      </trkpt>
      <trkpt lat="23.927008" lon="121.505728">
        <ele>141.0</ele>
      </trkpt>
      <trkpt lat="23.926898" lon="121.505829">
        <ele>139.0</ele>
      </trkpt>
      <trkpt lat="23.926841" lon="121.505828">
        <ele>139.0</ele>
      </trkpt>
      <trkpt lat="23.926796" lon="121.505798">
        <ele>139.0</ele>
      </trkpt>
      <trkpt lat="23.926796" lon="121.505798">
        <ele>139.0</ele>
      </trkpt>
      <trkpt lat="23.926647" lon="121.505818">
        <ele>139.0</ele>
      </trkpt>
      <trkpt lat="23.926628" lon="121.506001">
        <ele>139.0</ele>
      </trkpt>
      <trkpt lat="23.926559" lon="121.506008">
        <ele>140.0</ele>
      </trkpt>
      <trkpt lat="23.926526" lon="121.506044">
        <ele>140.0</ele>
      </trkpt>
      <trkpt lat="23.926533" lon="121.506091">
        <ele>140.0</ele>
      </trkpt>
      <trkpt lat="23.926487" lon="121.50613">
        <ele>140.0</ele>
      </trkpt>
      <trkpt lat="23.92647" lon="121.5062">
        <ele>140.0</ele>
      </trkpt>
      <trkpt lat="23.92643" lon="121.50624">
        <ele>140.0</ele>
      </trkpt>
      <trkpt lat="23.926411" lon="121.506294">
        <ele>140.0</ele>
      </trkpt>
      <trkpt lat="23.926385" lon="121.506309">
        <ele>140.0</ele>
      </trkpt>
      <trkpt lat="23.926361" lon="121.506303">
        <ele>140.0</ele>
      </trkpt>
      <trkpt lat="23.926322" lon="121.506256">
        <ele>141.0</ele>
      </trkpt>
      <trkpt lat="23.926269" lon="121.50627">
        <ele>141.0</ele>
      </trkpt>
      <trkpt lat="23.926243" lon="121.506236">
        <ele>141.0</ele>
      </trkpt>
      <trkpt lat="23.926176" lon="121.506237">
        <ele>141.0</ele>
      </trkpt>
      <trkpt lat="23.926125" lon="121.506188">
        <ele>141.0</ele>
      </trkpt>
      <trkpt lat="23.926094" lon="121.506233">
        <ele>141.0</ele>
      </trkpt>
      <trkpt lat="23.925999" lon="121.506265">
        <ele>142.0</ele>
      </trkpt>
      <trkpt lat="23.925809" lon="121.506437">
        <ele>142.0</ele>
      </trkpt>
      <trkpt lat="23.925437" lon="121.506828">
        <ele>140.0</ele>
      </trkpt>
      <trkpt lat="23.925437" lon="121.506828">
        <ele>140.0</ele>
      </trkpt>
      <trkpt lat="23.925382" lon="121.506885">
        <ele>140.0</ele>
      </trkpt>
      <trkpt lat="23.925334" lon="121.506959">
        <ele>140.0</ele>
      </trkpt>
      <trkpt lat="23.925031" lon="121.507251">
        <ele>139.0</ele>
      </trkpt>
      <trkpt lat="23.924823" lon="121.507364">
        <ele>140.0</ele>
      </trkpt>
      <trkpt lat="23.924676" lon="121.507444">
        <ele>140.0</ele>
      </trkpt>
      <trkpt lat="23.923929" lon="121.507515">
        <ele>141.0</ele>
      </trkpt>
      <trkpt lat="23.923389" lon="121.506998">
        <ele>142.0</ele>
      </trkpt>
      <trkpt lat="23.923364" lon="121.506962">
        <ele>142.0</ele>
      </trkpt>
      <trkpt lat="23.923471" lon="121.506802">
        <ele>142.0</ele>
      </trkpt>
      <trkpt lat="23.923467" lon="121.506791">
        <ele>142.0</ele>
      </trkpt>
      <trkpt lat="23.923467" lon="121.506791">
        <ele>142.0</ele>
      </trkpt>
      <trkpt lat="23.923436" lon="121.506716">
        <ele>142.0</ele>
      </trkpt>
      <trkpt lat="23.923412" lon="121.506577">
        <ele>142.0</ele>
      </trkpt>
      <trkpt lat="23.923277" lon="121.50652">
        <ele>142.0</ele>
      </trkpt>
      <trkpt lat="23.923073" lon="121.506391">
        <ele>143.0</ele>
      </trkpt>
      <trkpt lat="23.922856" lon="121.506293">
        <ele>144.0</ele>
      </trkpt>
      <trkpt lat="23.922695" lon="121.506279">
        <ele>144.0</ele>
      </trkpt>
      <trkpt lat="23.922603" lon="121.50631">
        <ele>144.0</ele>
      </trkpt>
      <trkpt lat="23.922473" lon="121.506397">
        <ele>144.0</ele>
      </trkpt>
      <trkpt lat="23.922408" lon="121.50651">
        <ele>144.0</ele>
      </trkpt>
      <trkpt lat="23.922408" lon="121.50651">
        <ele>144.0</ele>
      </trkpt>
      <trkpt lat="23.922355" lon="121.5066">
        <ele>145.0</ele>
      </trkpt>
      <trkpt lat="23.922129" lon="121.507216">
        <ele>153.0</ele>
      </trkpt>
      <trkpt lat="23.922059" lon="121.507316">
        <ele>155.0</ele>
      </trkpt>
      <trkpt lat="23.922053" lon="121.507427">
        <ele>156.0</ele>
      </trkpt>
      <trkpt lat="23.922082" lon="121.507568">
        <ele>157.0</ele>
      </trkpt>
      <trkpt lat="23.922168" lon="121.507721">
        <ele>157.0</ele>
      </trkpt>
      <trkpt lat="23.922221" lon="121.507851">
        <ele>157.0</ele>
      </trkpt>
      <trkpt lat="23.922193" lon="121.507911">
        <ele>158.0</ele>
      </trkpt>
      <trkpt lat="23.922193" lon="121.507911">
        <ele>158.0</ele>
      </trkpt>
      <trkpt lat="23.922207" lon="121.507951">
        <ele>159.0</ele>
      </trkpt>
      <trkpt lat="23.922573" lon="121.508207">
        <ele>152.0</ele>
      </trkpt>
      <trkpt lat="23.922636" lon="121.508314">
        <ele>152.0</ele>
      </trkpt>
      <trkpt lat="23.922635" lon="121.508381">
        <ele>153.0</ele>
      </trkpt>
      <trkpt lat="23.922536" lon="121.508486">
        <ele>156.0</ele>
      </trkpt>
      <trkpt lat="23.922526" lon="121.508457">
        <ele>156.0</ele>
      </trkpt>
      <trkpt lat="23.922539" lon="121.508395">
        <ele>155.0</ele>
      </trkpt>
      <trkpt lat="23.9225" lon="121.508384">
        <ele>155.0</ele>
      </trkpt>
      <trkpt lat="23.922394" lon="121.508398">
        <ele>159.0</ele>
      </trkpt>
      <trkpt lat="23.922333" lon="121.508436">
        <ele>161.0</ele>
      </trkpt>
      <trkpt lat="23.922301" lon="121.508551">
        <ele>164.0</ele>
      </trkpt>
      <trkpt lat="23.922267" lon="121.508687">
        <ele>167.0</ele>
      </trkpt>
      <trkpt lat="23.92219" lon="121.508711">
        <ele>170.0</ele>
      </trkpt>
      <trkpt lat="23.921592" lon="121.508687">
        <ele>191.0</ele>
      </trkpt>
      <trkpt lat="23.92157" lon="121.508775">
        <ele>195.0</ele>
      </trkpt>
      <trkpt lat="23.921618" lon="121.50896">
        <ele>198.0</ele>
      </trkpt>
      <trkpt lat="23.921615" lon="121.508998">
        <ele>199.0</ele>
      </trkpt>
      <trkpt lat="23.921615" lon="121.508998">
        <ele>199.0</ele>
      </trkpt>
      <trkpt lat="23.921589" lon="121.509284">
        <ele>205.0</ele>
      </trkpt>
      <trkpt lat="23.921459" lon="121.509594">
        <ele>211.0</ele>
      </trkpt>
      <trkpt lat="23.921211" lon="121.509916">
        <ele>220.0</ele>
      </trkpt>
      <trkpt lat="23.920831" lon="121.510299">
        <ele>231.0</ele>
      </trkpt>
      <trkpt lat="23.920392" lon="121.510991">
        <ele>252.0</ele>
      </trkpt>
      <trkpt lat="23.9204" lon="121.511168">
        <ele>252.0</ele>
      </trkpt>
      <trkpt lat="23.92036" lon="121.511537">
        <ele>256.0</ele>
      </trkpt>
      <trkpt lat="23.92036" lon="121.511537">
        <ele>256.0</ele>
      </trkpt>
      <trkpt lat="23.920298" lon="121.512116">
        <ele>263.0</ele>
      </trkpt>
      <trkpt lat="23.920447" lon="121.51255">
        <ele>257.0</ele>
      </trkpt>
      <trkpt lat="23.92052" lon="121.512985">
        <ele>264.0</ele>
      </trkpt>
      <trkpt lat="23.920806" lon="121.513811">
        <ele>273.0</ele>
      </trkpt>
      <trkpt lat="23.920772" lon="121.514059">
        <ele>282.0</ele>
      </trkpt>
      <trkpt lat="23.920716" lon="121.514213">
        <ele>288.0</ele>
      </trkpt>
      <trkpt lat="23.920537" lon="121.51419">
        <ele>293.0</ele>
      </trkpt>
      <trkpt lat="23.920379" lon="121.514376">
        <ele>302.0</ele>
      </trkpt>
      <trkpt lat="23.920344" lon="121.51485">
        <ele>311.0</ele>
      </trkpt>
      <trkpt lat="23.920344" lon="121.51485">
        <ele>311.0</ele>
      </trkpt>
      <trkpt lat="23.92034" lon="121.51491">
        <ele>313.0</ele>
      </trkpt>
      <trkpt lat="23.920071" lon="121.515123">
        <ele>321.0</ele>
      </trkpt>
      <trkpt lat="23.920131" lon="121.515397">
        <ele>324.0</ele>
      </trkpt>
      <trkpt lat="23.920139" lon="121.515752">
        <ele>329.0</ele>
      </trkpt>
      <trkpt lat="23.920353" lon="121.516001">
        <ele>333.0</ele>
      </trkpt>
      <trkpt lat="23.920473" lon="121.516097">
        <ele>335.0</ele>
      </trkpt>
      <trkpt lat="23.919606" lon="121.516768">
        <ele>369.0</ele>
      </trkpt>
      <trkpt lat="23.919095" lon="121.517588">
        <ele>409.0</ele>
      </trkpt>
      <trkpt lat="23.919053" lon="121.518285">
        <ele>443.0</ele>
      </trkpt>
      <trkpt lat="23.919053" lon="121.518285">
        <ele>443.0</ele>
      </trkpt>
      <trkpt lat="23.919045" lon="121.518421">
        <ele>452.0</ele>
      </trkpt>
      <trkpt lat="23.918865" lon="121.518738">
        <ele>474.0</ele>
      </trkpt>
      <trkpt lat="23.918573" lon="121.518533">
        <ele>465.0</ele>
      </trkpt>
      <trkpt lat="23.918113" lon="121.519678">
        <ele>525.0</ele>
      </trkpt>
      <trkpt lat="23.918045" lon="121.520246">
        <ele>547.0</ele>
      </trkpt>
      <trkpt lat="23.917744" lon="121.520912">
        <ele>554.0</ele>
      </trkpt>
      <trkpt lat="23.917923" lon="121.52094">
        <ele>553.0</ele>
      </trkpt>
      <trkpt lat="23.917923" lon="121.52094">
        <ele>553.0</ele>
      </trkpt>
      <trkpt lat="23.918256" lon="121.520992">
        <ele>553.0</ele>
      </trkpt>
      <trkpt lat="23.918722" lon="121.520695">
        <ele>566.0</ele>
      </trkpt>
      <trkpt lat="23.918948" lon="121.520613">
        <ele>571.0</ele>
      </trkpt>
      <trkpt lat="23.919109" lon="121.520669">
        <ele>576.0</ele>
      </trkpt>
      <trkpt lat="23.919161" lon="121.520773">
        <ele>578.0</ele>
      </trkpt>
      <trkpt lat="23.919296" lon="121.520901">
        <ele>572.0</ele>
      </trkpt>
      <trkpt lat="23.919516" lon="121.521055">
        <ele>561.0</ele>
      </trkpt>
      <trkpt lat="23.919535" lon="121.521226">
        <ele>555.0</ele>
      </trkpt>
      <trkpt lat="23.919574" lon="121.521243">
        <ele>554.0</ele>
      </trkpt>
      <trkpt lat="23.919646" lon="121.52117">
        <ele>555.0</ele>
      </trkpt>
      <trkpt lat="23.91968" lon="121.521186">
        <ele>554.0</ele>
      </trkpt>
      <trkpt lat="23.919658" lon="121.521371">
        <ele>549.0</ele>
      </trkpt>
      <trkpt lat="23.91969" lon="121.521452">
        <ele>546.0</ele>
      </trkpt>
      <trkpt lat="23.919697" lon="121.521535">
        <ele>544.0</ele>
      </trkpt>
      <trkpt lat="23.919734" lon="121.521538">
        <ele>544.0</ele>
      </trkpt>
      <trkpt lat="23.919773" lon="121.521505">
        <ele>545.0</ele>
      </trkpt>
      <trkpt lat="23.919805" lon="121.521524">
        <ele>544.0</ele>
      </trkpt>
      <trkpt lat="23.919815" lon="121.521664">
        <ele>541.0</ele>
      </trkpt>
      <trkpt lat="23.91991" lon="121.521664">
        <ele>542.0</ele>
      </trkpt>
      <trkpt lat="23.919949" lon="121.521803">
        <ele>535.0</ele>
      </trkpt>
      <trkpt lat="23.920082" lon="121.521953">
        <ele>527.0</ele>
      </trkpt>
      <trkpt lat="23.92029" lon="121.522076">
        <ele>521.0</ele>
      </trkpt>
      <trkpt lat="23.920615" lon="121.522193">
        <ele>518.0</ele>
      </trkpt>
      <trkpt lat="23.920615" lon="121.522193">
        <ele>518.0</ele>
      </trkpt>
      <trkpt lat="23.920729" lon="121.522207">
        <ele>518.0</ele>
      </trkpt>
      <trkpt lat="23.921215" lon="121.522497">
        <ele>510.0</ele>
      </trkpt>
      <trkpt lat="23.921638" lon="121.522631">
        <ele>499.0</ele>
      </trkpt>
      <trkpt lat="23.921857" lon="121.52278">
        <ele>491.0</ele>
      </trkpt>
      <trkpt lat="23.921935" lon="121.522794">
        <ele>490.0</ele>
      </trkpt>
      <trkpt lat="23.922154" lon="121.522761">
        <ele>490.0</ele>
      </trkpt>
      <trkpt lat="23.922256" lon="121.522767">
        <ele>489.0</ele>
      </trkpt>
      <trkpt lat="23.922434" lon="121.522824">
        <ele>486.0</ele>
      </trkpt>
      <trkpt lat="23.922605" lon="121.522827">
        <ele>488.0</ele>
      </trkpt>
      <trkpt lat="23.922973" lon="121.522699">
        <ele>497.0</ele>
      </trkpt>
      <trkpt lat="23.923213" lon="121.522657">
        <ele>503.0</ele>
      </trkpt>
      <trkpt lat="23.923303" lon="121.522538">
        <ele>505.0</ele>
      </trkpt>
      <trkpt lat="23.92331" lon="121.522745">
        <ele>504.0</ele>
      </trkpt>
      <trkpt lat="23.92331" lon="121.522745">
        <ele>504.0</ele>
      </trkpt>
      <trkpt lat="23.923295" lon="121.522925">
        <ele>502.0</ele>
      </trkpt>
      <trkpt lat="23.923441" lon="121.522866">
        <ele>505.0</ele>
      </trkpt>
      <trkpt lat="23.923502" lon="121.522857">
        <ele>505.0</ele>
      </trkpt>
      <trkpt lat="23.92364" lon="121.522932">
        <ele>507.0</ele>
      </trkpt>
      <trkpt lat="23.923587" lon="121.522792">
        <ele>506.0</ele>
      </trkpt>
      <trkpt lat="23.923721" lon="121.522674">
        <ele>507.0</ele>
      </trkpt>
      <trkpt lat="23.923821" lon="121.522649">
        <ele>507.0</ele>
      </trkpt>
      <trkpt lat="23.923751" lon="121.522373">
        <ele>502.0</ele>
      </trkpt>
      <trkpt lat="23.923751" lon="121.522267">
        <ele>498.0</ele>
      </trkpt>
      <trkpt lat="23.92384" lon="121.522214">
        <ele>496.0</ele>
      </trkpt>
      <trkpt lat="23.923929" lon="121.522239">
        <ele>497.0</ele>
      </trkpt>
      <trkpt lat="23.924052" lon="121.522369">
        <ele>502.0</ele>
      </trkpt>
      <trkpt lat="23.924182" lon="121.522361">
        <ele>502.0</ele>
      </trkpt>
      <trkpt lat="23.924241" lon="121.522292">
        <ele>498.0</ele>
      </trkpt>
      <trkpt lat="23.924082" lon="121.522027">
        <ele>490.0</ele>
      </trkpt>
      <trkpt lat="23.924033" lon="121.521828">
        <ele>482.0</ele>
      </trkpt>
      <trkpt lat="23.923896" lon="121.521609">
        <ele>474.0</ele>
      </trkpt>
      <trkpt lat="23.923818" lon="121.52158">
        <ele>472.0</ele>
      </trkpt>
      <trkpt lat="23.923747" lon="121.52158">
        <ele>472.0</ele>
      </trkpt>
      <trkpt lat="23.923673" lon="121.521629">
        <ele>474.0</ele>
      </trkpt>
      <trkpt lat="23.923368" lon="121.521629">
        <ele>473.0</ele>
      </trkpt>
      <trkpt lat="23.923249" lon="121.521731">
        <ele>476.0</ele>
      </trkpt>
      <trkpt lat="23.92319" lon="121.521735">
        <ele>476.0</ele>
      </trkpt>
      <trkpt lat="23.923026" lon="121.521601">
        <ele>471.0</ele>
      </trkpt>
      <trkpt lat="23.922952" lon="121.521601">
        <ele>470.0</ele>
      </trkpt>
      <trkpt lat="23.922907" lon="121.521466">
        <ele>467.0</ele>
      </trkpt>
      <trkpt lat="23.922933" lon="121.521377">
        <ele>465.0</ele>
      </trkpt>
      <trkpt lat="23.922985" lon="121.521369">
        <ele>464.0</ele>
      </trkpt>
      <trkpt lat="23.923108" lon="121.521397">
        <ele>465.0</ele>
      </trkpt>
      <trkpt lat="23.923361" lon="121.521243">
        <ele>459.0</ele>
      </trkpt>
      <trkpt lat="23.92348" lon="121.521121">
        <ele>454.0</ele>
      </trkpt>
      <trkpt lat="23.923658" lon="121.521056">
        <ele>452.0</ele>
      </trkpt>
      <trkpt lat="23.923799" lon="121.520909">
        <ele>446.0</ele>
      </trkpt>
      <trkpt lat="23.92426" lon="121.520775">
        <ele>437.0</ele>
      </trkpt>
      <trkpt lat="23.924368" lon="121.520787">
        <ele>434.0</ele>
      </trkpt>
      <trkpt lat="23.92467" lon="121.521011">
        <ele>433.0</ele>
      </trkpt>
      <trkpt lat="23.924818" lon="121.521276">
        <ele>439.0</ele>
      </trkpt>
      <trkpt lat="23.924818" lon="121.521276">
        <ele>439.0</ele>
      </trkpt>
      <trkpt lat="23.925139" lon="121.521479">
        <ele>436.0</ele>
      </trkpt>
      <trkpt lat="23.925168" lon="121.521409">
        <ele>432.0</ele>
      </trkpt>
      <trkpt lat="23.925113" lon="121.521312">
        <ele>430.0</ele>
      </trkpt>
      <trkpt lat="23.925142" lon="121.521202">
        <ele>425.0</ele>
      </trkpt>
      <trkpt lat="23.925213" lon="121.521153">
        <ele>420.0</ele>
      </trkpt>
      <trkpt lat="23.925336" lon="121.521145">
        <ele>415.0</ele>
      </trkpt>
      <trkpt lat="23.925447" lon="121.521109">
        <ele>410.0</ele>
      </trkpt>
      <trkpt lat="23.925455" lon="121.521007">
        <ele>405.0</ele>
      </trkpt>
      <trkpt lat="23.925391" lon="121.520836">
        <ele>399.0</ele>
      </trkpt>
      <trkpt lat="23.925421" lon="121.520645">
        <ele>391.0</ele>
      </trkpt>
      <trkpt lat="23.925507" lon="121.520503">
        <ele>382.0</ele>
      </trkpt>
      <trkpt lat="23.925614" lon="121.520478">
        <ele>377.0</ele>
      </trkpt>
      <trkpt lat="23.925834" lon="121.520572">
        <ele>372.0</ele>
      </trkpt>
      <trkpt lat="23.925971" lon="121.52056">
        <ele>369.0</ele>
      </trkpt>
      <trkpt lat="23.925979" lon="121.520418">
        <ele>364.0</ele>
      </trkpt>
      <trkpt lat="23.925953" lon="121.519978">
        <ele>350.0</ele>
      </trkpt>
      <trkpt lat="23.92583" lon="121.519629">
        <ele>342.0</ele>
      </trkpt>
      <trkpt lat="23.925681" lon="121.519487">
        <ele>342.0</ele>
      </trkpt>
      <trkpt lat="23.925633" lon="121.519121">
        <ele>333.0</ele>
      </trkpt>
      <trkpt lat="23.925711" lon="121.518966">
        <ele>328.0</ele>
      </trkpt>
      <trkpt lat="23.925904" lon="121.518881">
        <ele>321.0</ele>
      </trkpt>
      <trkpt lat="23.926001" lon="121.518885">
        <ele>318.0</ele>
      </trkpt>
      <trkpt lat="23.926302" lon="121.518738">
        <ele>308.0</ele>
      </trkpt>
      <trkpt lat="23.926426" lon="121.518654">
        <ele>302.0</ele>
      </trkpt>
      <trkpt lat="23.926549" lon="121.518629">
        <ele>298.0</ele>
      </trkpt>
      <trkpt lat="23.926623" lon="121.518721">
        <ele>299.0</ele>
      </trkpt>
      <trkpt lat="23.926688" lon="121.518732">
        <ele>298.0</ele>
      </trkpt>
      <trkpt lat="23.926691" lon="121.518679">
        <ele>296.0</ele>
      </trkpt>
      <trkpt lat="23.926607" lon="121.518498">
        <ele>293.0</ele>
      </trkpt>
      <trkpt lat="23.926591" lon="121.518311">
        <ele>287.0</ele>
      </trkpt>
      <trkpt lat="23.926416" lon="121.518152">
        <ele>288.0</ele>
      </trkpt>
      <trkpt lat="23.92641" lon="121.518031">
        <ele>284.0</ele>
      </trkpt>
      <trkpt lat="23.926504" lon="121.517939">
        <ele>278.0</ele>
      </trkpt>
      <trkpt lat="23.927306" lon="121.517426">
        <ele>248.0</ele>
      </trkpt>
      <trkpt lat="23.927312" lon="121.517359">
        <ele>246.0</ele>
      </trkpt>
      <trkpt lat="23.927173" lon="121.517245">
        <ele>243.0</ele>
      </trkpt>
      <trkpt lat="23.927232" lon="121.517093">
        <ele>238.0</ele>
      </trkpt>
      <trkpt lat="23.927319" lon="121.516931">
        <ele>233.0</ele>
      </trkpt>
      <trkpt lat="23.927532" lon="121.516587">
        <ele>220.0</ele>
      </trkpt>
      <trkpt lat="23.9275" lon="121.516485">
        <ele>217.0</ele>
      </trkpt>
      <trkpt lat="23.927403" lon="121.516421">
        <ele>215.0</ele>
      </trkpt>
      <trkpt lat="23.927358" lon="121.516318">
        <ele>211.0</ele>
      </trkpt>
      <trkpt lat="23.927474" lon="121.516262">
        <ele>209.0</ele>
      </trkpt>
      <trkpt lat="23.927717" lon="121.516205">
        <ele>203.0</ele>
      </trkpt>
      <trkpt lat="23.927778" lon="121.516247">
        <ele>203.0</ele>
      </trkpt>
      <trkpt lat="23.927882" lon="121.516247">
        <ele>201.0</ele>
      </trkpt>
      <trkpt lat="23.927901" lon="121.51618">
        <ele>199.0</ele>
      </trkpt>
      <trkpt lat="23.92782" lon="121.516035">
        <ele>195.0</ele>
      </trkpt>
      <trkpt lat="23.927665" lon="121.515855">
        <ele>191.0</ele>
      </trkpt>
      <trkpt lat="23.927542" lon="121.515738">
        <ele>189.0</ele>
      </trkpt>
      <trkpt lat="23.927587" lon="121.515586">
        <ele>183.0</ele>
      </trkpt>
      <trkpt lat="23.927785" lon="121.515476">
        <ele>176.0</ele>
      </trkpt>
      <trkpt lat="23.928053" lon="121.515391">
        <ele>170.0</ele>
      </trkpt>
      <trkpt lat="23.927866" lon="121.515097">
        <ele>163.0</ele>
      </trkpt>
      <trkpt lat="23.927911" lon="121.514903">
        <ele>157.0</ele>
      </trkpt>
      <trkpt lat="23.928014" lon="121.514814">
        <ele>155.0</ele>
      </trkpt>
      <trkpt lat="23.928215" lon="121.514804">
        <ele>154.0</ele>
      </trkpt>
      <trkpt lat="23.928215" lon="121.514804">
        <ele>154.0</ele>
      </trkpt>
      <trkpt lat="23.928324" lon="121.514822">
        <ele>153.0</ele>
      </trkpt>
      <trkpt lat="23.92838" lon="121.514904">
        <ele>155.0</ele>
      </trkpt>
      <trkpt lat="23.928452" lon="121.515112">
        <ele>160.0</ele>
      </trkpt>
      <trkpt lat="23.92849" lon="121.515396">
        <ele>168.0</ele>
      </trkpt>
      <trkpt lat="23.928568" lon="121.515461">
        <ele>171.0</ele>
      </trkpt>
      <trkpt lat="23.92867" lon="121.515461">
        <ele>172.0</ele>
      </trkpt>
      <trkpt lat="23.928841" lon="121.515392">
        <ele>170.0</ele>
      </trkpt>
      <trkpt lat="23.929082" lon="121.515266">
        <ele>166.0</ele>
      </trkpt>
      <trkpt lat="23.929294" lon="121.515047">
        <ele>159.0</ele>
      </trkpt>
      <trkpt lat="23.929651" lon="121.514541">
        <ele>158.0</ele>
      </trkpt>
      <trkpt lat="23.92987" lon="121.514341">
        <ele>159.0</ele>
      </trkpt>
      <trkpt lat="23.930009" lon="121.514286">
        <ele>161.0</ele>
      </trkpt>
      <trkpt lat="23.93065" lon="121.514207">
        <ele>162.0</ele>
      </trkpt>
      <trkpt lat="23.931046" lon="121.514217">
        <ele>164.0</ele>
      </trkpt>
      <trkpt lat="23.931264" lon="121.514152">
        <ele>162.0</ele>
      </trkpt>
      <trkpt lat="23.931396" lon="121.514087">
        <ele>160.0</ele>
      </trkpt>
      <trkpt lat="23.931719" lon="121.514004">
        <ele>160.0</ele>
      </trkpt>
      <trkpt lat="23.932032" lon="121.513758">
        <ele>160.0</ele>
      </trkpt>
      <trkpt lat="23.932188" lon="121.513609">
        <ele>160.0</ele>
      </trkpt>
      <trkpt lat="23.932552" lon="121.513332">
        <ele>160.0</ele>
      </trkpt>
      <trkpt lat="23.932678" lon="121.513254">
        <ele>160.0</ele>
      </trkpt>
      <trkpt lat="23.932836" lon="121.513108">
        <ele>159.0</ele>
      </trkpt>
      <trkpt lat="23.932956" lon="121.512916">
        <ele>156.0</ele>
      </trkpt>
      <trkpt lat="23.933037" lon="121.512825">
        <ele>155.0</ele>
      </trkpt>
      <trkpt lat="23.933037" lon="121.512825">
        <ele>155.0</ele>
      </trkpt>
      <trkpt lat="23.933302" lon="121.512532">
        <ele>151.0</ele>
      </trkpt>
      <trkpt lat="23.933406" lon="121.512491">
        <ele>151.0</ele>
      </trkpt>
      <trkpt lat="23.934359" lon="121.512447">
        <ele>154.0</ele>
      </trkpt>
      <trkpt lat="23.934635" lon="121.512484">
        <ele>155.0</ele>
      </trkpt>
      <trkpt lat="23.935005" lon="121.512478">
        <ele>156.0</ele>
      </trkpt>
      <trkpt lat="23.935119" lon="121.512458">
        <ele>156.0</ele>
      </trkpt>
      <trkpt lat="23.935318" lon="121.512368">
        <ele>155.0</ele>
      </trkpt>
      <trkpt lat="23.935636" lon="121.512409">
        <ele>157.0</ele>
      </trkpt>
      <trkpt lat="23.935636" lon="121.512409">
        <ele>157.0</ele>
      </trkpt>
      <trkpt lat="23.935769" lon="121.512432">
        <ele>158.0</ele>
      </trkpt>
      <trkpt lat="23.936093" lon="121.512438">
        <ele>159.0</ele>
      </trkpt>
      <trkpt lat="23.936389" lon="121.512406">
        <ele>159.0</ele>
      </trkpt>
      <trkpt lat="23.936675" lon="121.512257">
        <ele>156.0</ele>
      </trkpt>
      <trkpt lat="23.937108" lon="121.511907">
        <ele>153.0</ele>
      </trkpt>
      <trkpt lat="23.937317" lon="121.51171">
        <ele>149.0</ele>
      </trkpt>
      <trkpt lat="23.937359" lon="121.511592">
        <ele>148.0</ele>
      </trkpt>
      <trkpt lat="23.93737" lon="121.51147">
        <ele>147.0</ele>
      </trkpt>
      <trkpt lat="23.93737" lon="121.51147">
        <ele>147.0</ele>
      </trkpt>
      <trkpt lat="23.937368" lon="121.511395">
        <ele>146.0</ele>
      </trkpt>
      <trkpt lat="23.937338" lon="121.511431">
        <ele>146.0</ele>
      </trkpt>
      <trkpt lat="23.937238" lon="121.51145">
        <ele>145.0</ele>
      </trkpt>
      <trkpt lat="23.937099" lon="121.511408">
        <ele>144.0</ele>
      </trkpt>
      <trkpt lat="23.936918" lon="121.511414">
        <ele>143.0</ele>
      </trkpt>
      <trkpt lat="23.936741" lon="121.511485">
        <ele>141.0</ele>
      </trkpt>
      <trkpt lat="23.936643" lon="121.511495">
        <ele>141.0</ele>
      </trkpt>
      <trkpt lat="23.936513" lon="121.511497">
        <ele>142.0</ele>
      </trkpt>
      <trkpt lat="23.936455" lon="121.511466">
        <ele>142.0</ele>
      </trkpt>
      <trkpt lat="23.936377" lon="121.511318">
        <ele>142.0</ele>
      </trkpt>
      <trkpt lat="23.936366" lon="121.51126">
        <ele>142.0</ele>
      </trkpt>
      <trkpt lat="23.936559" lon="121.510651">
        <ele>140.0</ele>
      </trkpt>
      <trkpt lat="23.936516" lon="121.510526">
        <ele>140.0</ele>
      </trkpt>
      <trkpt lat="23.936464" lon="121.510454">
        <ele>141.0</ele>
      </trkpt>
      <trkpt lat="23.935793" lon="121.509781">
        <ele>142.0</ele>
      </trkpt>
      <trkpt lat="23.935793" lon="121.509781">
        <ele>142.0</ele>
      </trkpt>
      <trkpt lat="23.93571" lon="121.509697">
        <ele>141.0</ele>
      </trkpt>
      <trkpt lat="23.934678" lon="121.508654">
        <ele>141.0</ele>
      </trkpt>
      <trkpt lat="23.934473" lon="121.508457">
        <ele>141.0</ele>
      </trkpt>
      <trkpt lat="23.934432" lon="121.508504">
        <ele>141.0</ele>
      </trkpt>
      <trkpt lat="23.934357" lon="121.508435">
        <ele>140.0</ele>
      </trkpt>
      <trkpt lat="23.934316" lon="121.508426">
        <ele>140.0</ele>
      </trkpt>
      <trkpt lat="23.934246" lon="121.508446">
        <ele>140.0</ele>
      </trkpt>
      <trkpt lat="23.934184" lon="121.508521">
        <ele>140.0</ele>
      </trkpt>
      <trkpt lat="23.934184" lon="121.508521">
        <ele>140.0</ele>
      </trkpt>
      <trkpt lat="23.934134" lon="121.50858">
        <ele>140.0</ele>
      </trkpt>
      <trkpt lat="23.934085" lon="121.50853">
        <ele>140.0</ele>
      </trkpt>
      <trkpt lat="23.933984" lon="121.508651">
        <ele>140.0</ele>
      </trkpt>
      <trkpt lat="23.933769" lon="121.50866">
        <ele>140.0</ele>
      </trkpt>
      <trkpt lat="23.933674" lon="121.508623">
        <ele>140.0</ele>
      </trkpt>
      <trkpt lat="23.933444" lon="121.508357">
        <ele>140.0</ele>
      </trkpt>
      <trkpt lat="23.93336" lon="121.508283">
        <ele>140.0</ele>
      </trkpt>
      <trkpt lat="23.933201" lon="121.508206">
        <ele>140.0</ele>
      </trkpt>
      <trkpt lat="23.933136" lon="121.508095">
        <ele>140.0</ele>
      </trkpt>
      <trkpt lat="23.933094" lon="121.507941">
        <ele>140.0</ele>
      </trkpt>
      <trkpt lat="23.932884" lon="121.507952">
        <ele>140.0</ele>
      </trkpt>
      <trkpt lat="23.932813" lon="121.507908">
        <ele>140.0</ele>
      </trkpt>
      <trkpt lat="23.93258" lon="121.507498">
        <ele>140.0</ele>
      </trkpt>
      <trkpt lat="23.93258" lon="121.507498">
        <ele>140.0</ele>
      </trkpt>
      <trkpt lat="23.932526" lon="121.507403">
        <ele>141.0</ele>
      </trkpt>
      <trkpt lat="23.932241" lon="121.507048">
        <ele>146.0</ele>
      </trkpt>
      <trkpt lat="23.932185" lon="121.50701">
        <ele>146.0</ele>
      </trkpt>
      <trkpt lat="23.932125" lon="121.507016">
        <ele>146.0</ele>
      </trkpt>
      <trkpt lat="23.932114" lon="121.506977">
        <ele>147.0</ele>
      </trkpt>
      <trkpt lat="23.931417" lon="121.507107">
        <ele>145.0</ele>
      </trkpt>
      <trkpt lat="23.931178" lon="121.507116">
        <ele>145.0</ele>
      </trkpt>
      <trkpt lat="23.930914" lon="121.507084">
        <ele>145.0</ele>
      </trkpt>
      <trkpt lat="23.93064" lon="121.506995">
        <ele>145.0</ele>
      </trkpt>
      <trkpt lat="23.930478" lon="121.506916">
        <ele>144.0</ele>
      </trkpt>
      <trkpt lat="23.930176" lon="121.506696">
        <ele>141.0</ele>
      </trkpt>
      <trkpt lat="23.929825" lon="121.506357">
        <ele>145.0</ele>
      </trkpt>
      <trkpt lat="23.92962" lon="121.506182">
        <ele>147.0</ele>
      </trkpt>
      <trkpt lat="23.92962" lon="121.506182">
        <ele>147.0</ele>
      </trkpt>
      <trkpt lat="23.929536" lon="121.506111">
        <ele>147.0</ele>
      </trkpt>
      <trkpt lat="23.929397" lon="121.506055">
        <ele>146.0</ele>
      </trkpt>
      <trkpt lat="23.929068" lon="121.50604">
        <ele>143.0</ele>
      </trkpt>
      <trkpt lat="23.928916" lon="121.506072">
        <ele>143.0</ele>
      </trkpt>
      <trkpt lat="23.928803" lon="121.506066">
        <ele>142.0</ele>
      </trkpt>
    </trkseg>
  </trk>
</gpx>
