<?xml version="1.0" encoding="UTF-8"?>
<gpx xmlns="http://www.topografix.com/GPX/1/1" xmlns:xsi="http://www.w3.org/2001/XMLSchema-instance" xsi:schemaLocation="http://www.topografix.com/GPX/1/1 http://www.topografix.com/GPX/1/1/gpx.xsd" version="1.1" creator="Martin Schneider">
  <wpt lat="22.637901" lon="121.500437">
    <ele>25.0</ele>
    <name>Start</name>
  </wpt>
  <wpt lat="22.637889" lon="121.500445">
    <ele>24.0</ele>
    <name>End</name>
  </wpt>
  <trk>
    <name>089a_Huoshaoshan</name>
    <trkseg>
      <trkpt lat="22.637901" lon="121.500437">
        <ele>25.0</ele>
      </trkpt>
      <trkpt lat="22.637901" lon="121.500437">
        <ele>25.0</ele>
      </trkpt>
      <trkpt lat="22.637958" lon="121.500396">
        <ele>25.0</ele>
      </trkpt>
      <trkpt lat="22.638177" lon="121.500063">
        <ele>26.0</ele>
      </trkpt>
      <trkpt lat="22.638285" lon="121.499968">
        <ele>26.0</ele>
      </trkpt>
      <trkpt lat="22.638403" lon="121.499975">
        <ele>28.0</ele>
      </trkpt>
      <trkpt lat="22.63878" lon="121.500207">
        <ele>34.0</ele>
      </trkpt>
      <trkpt lat="22.63893" lon="121.500369">
        <ele>37.0</ele>
      </trkpt>
      <trkpt lat="22.639117" lon="121.50063">
        <ele>40.0</ele>
      </trkpt>
      <trkpt lat="22.639179" lon="121.500676">
        <ele>40.0</ele>
      </trkpt>
      <trkpt lat="22.639254" lon="121.500671">
        <ele>41.0</ele>
      </trkpt>
      <trkpt lat="22.639582" lon="121.500429">
        <ele>41.0</ele>
      </trkpt>
      <trkpt lat="22.639709" lon="121.500492">
        <ele>42.0</ele>
      </trkpt>
      <trkpt lat="22.6399" lon="121.500488">
        <ele>43.0</ele>
      </trkpt>
      <trkpt lat="22.640687" lon="121.500149">
        <ele>44.0</ele>
      </trkpt>
      <trkpt lat="22.64088" lon="121.500089">
        <ele>45.0</ele>
      </trkpt>
      <trkpt lat="22.641183" lon="121.499953">
        <ele>48.0</ele>
      </trkpt>
      <trkpt lat="22.641464" lon="121.499802">
        <ele>50.0</ele>
      </trkpt>
      <trkpt lat="22.641685" lon="121.499747">
        <ele>52.0</ele>
      </trkpt>
      <trkpt lat="22.642147" lon="121.49959">
        <ele>62.0</ele>
      </trkpt>
      <trkpt lat="22.642417" lon="121.499386">
        <ele>66.0</ele>
      </trkpt>
      <trkpt lat="22.642611" lon="121.49929">
        <ele>68.0</ele>
      </trkpt>
      <trkpt lat="22.642745" lon="121.499258">
        <ele>69.0</ele>
      </trkpt>
      <trkpt lat="22.64305" lon="121.499132">
        <ele>72.0</ele>
      </trkpt>
      <trkpt lat="22.643579" lon="121.499026">
        <ele>70.0</ele>
      </trkpt>
      <trkpt lat="22.643825" lon="121.498939">
        <ele>67.0</ele>
      </trkpt>
      <trkpt lat="22.643864" lon="121.498901">
        <ele>67.0</ele>
      </trkpt>
      <trkpt lat="22.643922" lon="121.498798">
        <ele>68.0</ele>
      </trkpt>
      <trkpt lat="22.644048" lon="121.498683">
        <ele>70.0</ele>
      </trkpt>
      <trkpt lat="22.644089" lon="121.498612">
        <ele>72.0</ele>
      </trkpt>
      <trkpt lat="22.644219" lon="121.498322">
        <ele>79.0</ele>
      </trkpt>
      <trkpt lat="22.644227" lon="121.498003">
        <ele>86.0</ele>
      </trkpt>
      <trkpt lat="22.644275" lon="121.497779">
        <ele>90.0</ele>
      </trkpt>
      <trkpt lat="22.644334" lon="121.497651">
        <ele>91.0</ele>
      </trkpt>
      <trkpt lat="22.644342" lon="121.497566">
        <ele>93.0</ele>
      </trkpt>
      <trkpt lat="22.644291" lon="121.497481">
        <ele>97.0</ele>
      </trkpt>
      <trkpt lat="22.644197" lon="121.497373">
        <ele>103.0</ele>
      </trkpt>
      <trkpt lat="22.644212" lon="121.497237">
        <ele>106.0</ele>
      </trkpt>
      <trkpt lat="22.644277" lon="121.497202">
        <ele>105.0</ele>
      </trkpt>
      <trkpt lat="22.644302" lon="121.497149">
        <ele>105.0</ele>
      </trkpt>
      <trkpt lat="22.644224" lon="121.497044">
        <ele>111.0</ele>
      </trkpt>
      <trkpt lat="22.644177" lon="121.496926">
        <ele>116.0</ele>
      </trkpt>
      <trkpt lat="22.644179" lon="121.496817">
        <ele>119.0</ele>
      </trkpt>
      <trkpt lat="22.644096" lon="121.496601">
        <ele>121.0</ele>
      </trkpt>
      <trkpt lat="22.64409" lon="121.496415">
        <ele>122.0</ele>
      </trkpt>
      <trkpt lat="22.644088" lon="121.496169">
        <ele>123.0</ele>
      </trkpt>
      <trkpt lat="22.644178" lon="121.496059">
        <ele>126.0</ele>
      </trkpt>
      <trkpt lat="22.644299" lon="121.495846">
        <ele>126.0</ele>
      </trkpt>
      <trkpt lat="22.644425" lon="121.495715">
        <ele>124.0</ele>
      </trkpt>
      <trkpt lat="22.644428" lon="121.495657">
        <ele>124.0</ele>
      </trkpt>
      <trkpt lat="22.644376" lon="121.495488">
        <ele>124.0</ele>
      </trkpt>
      <trkpt lat="22.644376" lon="121.495412">
        <ele>124.0</ele>
      </trkpt>
      <trkpt lat="22.644441" lon="121.495332">
        <ele>124.0</ele>
      </trkpt>
      <trkpt lat="22.644501" lon="121.495288">
        <ele>124.0</ele>
      </trkpt>
      <trkpt lat="22.644718" lon="121.495133">
        <ele>126.0</ele>
      </trkpt>
      <trkpt lat="22.644741" lon="121.495094">
        <ele>127.0</ele>
      </trkpt>
      <trkpt lat="22.644753" lon="121.495018">
        <ele>128.0</ele>
      </trkpt>
      <trkpt lat="22.644745" lon="121.494893">
        <ele>129.0</ele>
      </trkpt>
      <trkpt lat="22.644765" lon="121.49453">
        <ele>132.0</ele>
      </trkpt>
      <trkpt lat="22.644829" lon="121.494186">
        <ele>136.0</ele>
      </trkpt>
      <trkpt lat="22.644985" lon="121.493985">
        <ele>140.0</ele>
      </trkpt>
      <trkpt lat="22.645131" lon="121.493918">
        <ele>137.0</ele>
      </trkpt>
      <trkpt lat="22.645169" lon="121.493869">
        <ele>136.0</ele>
      </trkpt>
      <trkpt lat="22.645205" lon="121.493643">
        <ele>135.0</ele>
      </trkpt>
      <trkpt lat="22.645186" lon="121.493467">
        <ele>136.0</ele>
      </trkpt>
      <trkpt lat="22.645346" lon="121.493229">
        <ele>135.0</ele>
      </trkpt>
      <trkpt lat="22.645357" lon="121.493174">
        <ele>135.0</ele>
      </trkpt>
      <trkpt lat="22.645348" lon="121.493086">
        <ele>136.0</ele>
      </trkpt>
      <trkpt lat="22.645202" lon="121.492887">
        <ele>137.0</ele>
      </trkpt>
      <trkpt lat="22.645193" lon="121.492751">
        <ele>137.0</ele>
      </trkpt>
      <trkpt lat="22.645208" lon="121.492643">
        <ele>137.0</ele>
      </trkpt>
      <trkpt lat="22.645253" lon="121.492554">
        <ele>138.0</ele>
      </trkpt>
      <trkpt lat="22.645325" lon="121.492523">
        <ele>138.0</ele>
      </trkpt>
      <trkpt lat="22.645393" lon="121.492466">
        <ele>139.0</ele>
      </trkpt>
      <trkpt lat="22.645447" lon="121.492358">
        <ele>141.0</ele>
      </trkpt>
      <trkpt lat="22.645636" lon="121.492327">
        <ele>143.0</ele>
      </trkpt>
      <trkpt lat="22.645695" lon="121.492296">
        <ele>144.0</ele>
      </trkpt>
      <trkpt lat="22.64579" lon="121.492214">
        <ele>146.0</ele>
      </trkpt>
      <trkpt lat="22.64587" lon="121.492093">
        <ele>147.0</ele>
      </trkpt>
      <trkpt lat="22.645979" lon="121.49197">
        <ele>148.0</ele>
      </trkpt>
      <trkpt lat="22.646032" lon="121.491857">
        <ele>150.0</ele>
      </trkpt>
      <trkpt lat="22.646047" lon="121.491773">
        <ele>152.0</ele>
      </trkpt>
      <trkpt lat="22.646043" lon="121.491606">
        <ele>154.0</ele>
      </trkpt>
      <trkpt lat="22.646113" lon="121.49153">
        <ele>155.0</ele>
      </trkpt>
      <trkpt lat="22.646163" lon="121.491374">
        <ele>158.0</ele>
      </trkpt>
      <trkpt lat="22.646235" lon="121.491227">
        <ele>160.0</ele>
      </trkpt>
      <trkpt lat="22.646328" lon="121.491089">
        <ele>162.0</ele>
      </trkpt>
      <trkpt lat="22.646375" lon="121.490917">
        <ele>165.0</ele>
      </trkpt>
      <trkpt lat="22.646424" lon="121.490859">
        <ele>167.0</ele>
      </trkpt>
      <trkpt lat="22.64672" lon="121.490676">
        <ele>169.0</ele>
      </trkpt>
      <trkpt lat="22.646789" lon="121.490578">
        <ele>169.0</ele>
      </trkpt>
      <trkpt lat="22.64681" lon="121.490518">
        <ele>169.0</ele>
      </trkpt>
      <trkpt lat="22.646807" lon="121.490472">
        <ele>169.0</ele>
      </trkpt>
      <trkpt lat="22.646765" lon="121.490204">
        <ele>170.0</ele>
      </trkpt>
      <trkpt lat="22.646789" lon="121.49012">
        <ele>170.0</ele>
      </trkpt>
      <trkpt lat="22.646841" lon="121.490102">
        <ele>170.0</ele>
      </trkpt>
      <trkpt lat="22.646948" lon="121.490107">
        <ele>170.0</ele>
      </trkpt>
      <trkpt lat="22.646948" lon="121.490107">
        <ele>170.0</ele>
      </trkpt>
      <trkpt lat="22.647116" lon="121.490098">
        <ele>169.0</ele>
      </trkpt>
      <trkpt lat="22.64727" lon="121.490136">
        <ele>169.0</ele>
      </trkpt>
      <trkpt lat="22.647441" lon="121.490125">
        <ele>169.0</ele>
      </trkpt>
      <trkpt lat="22.647583" lon="121.490158">
        <ele>169.0</ele>
      </trkpt>
      <trkpt lat="22.647734" lon="121.490169">
        <ele>169.0</ele>
      </trkpt>
      <trkpt lat="22.648034" lon="121.490255">
        <ele>168.0</ele>
      </trkpt>
      <trkpt lat="22.648196" lon="121.49027">
        <ele>167.0</ele>
      </trkpt>
      <trkpt lat="22.648311" lon="121.490244">
        <ele>167.0</ele>
      </trkpt>
      <trkpt lat="22.648414" lon="121.490179">
        <ele>166.0</ele>
      </trkpt>
      <trkpt lat="22.648601" lon="121.489876">
        <ele>165.0</ele>
      </trkpt>
      <trkpt lat="22.648776" lon="121.489719">
        <ele>162.0</ele>
      </trkpt>
      <trkpt lat="22.648945" lon="121.489529">
        <ele>161.0</ele>
      </trkpt>
      <trkpt lat="22.649107" lon="121.489379">
        <ele>160.0</ele>
      </trkpt>
      <trkpt lat="22.649289" lon="121.489154">
        <ele>159.0</ele>
      </trkpt>
      <trkpt lat="22.649334" lon="121.489073">
        <ele>159.0</ele>
      </trkpt>
      <trkpt lat="22.649496" lon="121.488902">
        <ele>158.0</ele>
      </trkpt>
      <trkpt lat="22.649583" lon="121.488771">
        <ele>158.0</ele>
      </trkpt>
      <trkpt lat="22.64981" lon="121.488523">
        <ele>160.0</ele>
      </trkpt>
      <trkpt lat="22.649877" lon="121.488414">
        <ele>161.0</ele>
      </trkpt>
      <trkpt lat="22.649905" lon="121.488333">
        <ele>162.0</ele>
      </trkpt>
      <trkpt lat="22.649937" lon="121.48815">
        <ele>165.0</ele>
      </trkpt>
      <trkpt lat="22.649981" lon="121.488066">
        <ele>166.0</ele>
      </trkpt>
      <trkpt lat="22.650041" lon="121.487995">
        <ele>167.0</ele>
      </trkpt>
      <trkpt lat="22.650138" lon="121.48793">
        <ele>167.0</ele>
      </trkpt>
      <trkpt lat="22.650272" lon="121.487804">
        <ele>168.0</ele>
      </trkpt>
      <trkpt lat="22.650304" lon="121.487755">
        <ele>168.0</ele>
      </trkpt>
      <trkpt lat="22.650304" lon="121.487755">
        <ele>168.0</ele>
      </trkpt>
      <trkpt lat="22.650385" lon="121.487635">
        <ele>169.0</ele>
      </trkpt>
      <trkpt lat="22.650493" lon="121.487509">
        <ele>170.0</ele>
      </trkpt>
      <trkpt lat="22.650587" lon="121.487426">
        <ele>171.0</ele>
      </trkpt>
      <trkpt lat="22.651217" lon="121.487009">
        <ele>182.0</ele>
      </trkpt>
      <trkpt lat="22.651231" lon="121.487001">
        <ele>182.0</ele>
      </trkpt>
      <trkpt lat="22.65125" lon="121.48699">
        <ele>183.0</ele>
      </trkpt>
      <trkpt lat="22.651304" lon="121.486968">
        <ele>184.0</ele>
      </trkpt>
      <trkpt lat="22.651304" lon="121.486969">
        <ele>184.0</ele>
      </trkpt>
      <trkpt lat="22.651307" lon="121.486967">
        <ele>184.0</ele>
      </trkpt>
      <trkpt lat="22.651371" lon="121.486793">
        <ele>190.0</ele>
      </trkpt>
      <trkpt lat="22.651426" lon="121.486722">
        <ele>193.0</ele>
      </trkpt>
      <trkpt lat="22.652136" lon="121.486015">
        <ele>214.0</ele>
      </trkpt>
      <trkpt lat="22.652162" lon="121.485951">
        <ele>215.0</ele>
      </trkpt>
      <trkpt lat="22.652169" lon="121.48583">
        <ele>216.0</ele>
      </trkpt>
      <trkpt lat="22.652155" lon="121.485745">
        <ele>218.0</ele>
      </trkpt>
      <trkpt lat="22.652086" lon="121.485711">
        <ele>219.0</ele>
      </trkpt>
      <trkpt lat="22.65201" lon="121.485719">
        <ele>219.0</ele>
      </trkpt>
      <trkpt lat="22.651813" lon="121.485916">
        <ele>215.0</ele>
      </trkpt>
      <trkpt lat="22.651636" lon="121.485992">
        <ele>213.0</ele>
      </trkpt>
      <trkpt lat="22.651062" lon="121.48597">
        <ele>213.0</ele>
      </trkpt>
      <trkpt lat="22.650853" lon="121.486053">
        <ele>210.0</ele>
      </trkpt>
      <trkpt lat="22.650617" lon="121.486265">
        <ele>204.0</ele>
      </trkpt>
      <trkpt lat="22.650475" lon="121.486295">
        <ele>204.0</ele>
      </trkpt>
      <trkpt lat="22.650404" lon="121.486383">
        <ele>203.0</ele>
      </trkpt>
      <trkpt lat="22.650304" lon="121.48643">
        <ele>203.0</ele>
      </trkpt>
      <trkpt lat="22.650227" lon="121.486419">
        <ele>203.0</ele>
      </trkpt>
      <trkpt lat="22.650184" lon="121.486328">
        <ele>205.0</ele>
      </trkpt>
      <trkpt lat="22.650172" lon="121.485971">
        <ele>211.0</ele>
      </trkpt>
      <trkpt lat="22.65049" lon="121.485668">
        <ele>219.0</ele>
      </trkpt>
      <trkpt lat="22.65053" lon="121.48556">
        <ele>221.0</ele>
      </trkpt>
      <trkpt lat="22.650546" lon="121.485383">
        <ele>225.0</ele>
      </trkpt>
      <trkpt lat="22.6506" lon="121.485287">
        <ele>228.0</ele>
      </trkpt>
      <trkpt lat="22.651149" lon="121.484989">
        <ele>239.0</ele>
      </trkpt>
      <trkpt lat="22.651149" lon="121.484989">
        <ele>239.0</ele>
      </trkpt>
      <trkpt lat="22.6506" lon="121.485287">
        <ele>228.0</ele>
      </trkpt>
      <trkpt lat="22.650546" lon="121.485383">
        <ele>225.0</ele>
      </trkpt>
      <trkpt lat="22.65053" lon="121.48556">
        <ele>221.0</ele>
      </trkpt>
      <trkpt lat="22.65049" lon="121.485668">
        <ele>219.0</ele>
      </trkpt>
      <trkpt lat="22.650172" lon="121.485971">
        <ele>211.0</ele>
      </trkpt>
      <trkpt lat="22.650184" lon="121.486328">
        <ele>205.0</ele>
      </trkpt>
      <trkpt lat="22.650227" lon="121.486419">
        <ele>203.0</ele>
      </trkpt>
      <trkpt lat="22.650304" lon="121.48643">
        <ele>203.0</ele>
      </trkpt>
      <trkpt lat="22.650404" lon="121.486383">
        <ele>203.0</ele>
      </trkpt>
      <trkpt lat="22.650475" lon="121.486295">
        <ele>204.0</ele>
      </trkpt>
      <trkpt lat="22.650617" lon="121.486265">
        <ele>204.0</ele>
      </trkpt>
      <trkpt lat="22.650853" lon="121.486053">
        <ele>210.0</ele>
      </trkpt>
      <trkpt lat="22.651062" lon="121.48597">
        <ele>213.0</ele>
      </trkpt>
      <trkpt lat="22.651636" lon="121.485992">
        <ele>213.0</ele>
      </trkpt>
      <trkpt lat="22.651813" lon="121.485916">
        <ele>215.0</ele>
      </trkpt>
      <trkpt lat="22.65201" lon="121.485719">
        <ele>219.0</ele>
      </trkpt>
      <trkpt lat="22.652086" lon="121.485711">
        <ele>219.0</ele>
      </trkpt>
      <trkpt lat="22.652155" lon="121.485745">
        <ele>218.0</ele>
      </trkpt>
      <trkpt lat="22.652169" lon="121.48583">
        <ele>216.0</ele>
      </trkpt>
      <trkpt lat="22.652162" lon="121.485951">
        <ele>215.0</ele>
      </trkpt>
      <trkpt lat="22.652136" lon="121.486015">
        <ele>214.0</ele>
      </trkpt>
      <trkpt lat="22.651426" lon="121.486722">
        <ele>193.0</ele>
      </trkpt>
      <trkpt lat="22.651371" lon="121.486793">
        <ele>190.0</ele>
      </trkpt>
      <trkpt lat="22.65131" lon="121.486959">
        <ele>184.0</ele>
      </trkpt>
      <trkpt lat="22.65131" lon="121.486959">
        <ele>184.0</ele>
      </trkpt>
      <trkpt lat="22.651307" lon="121.486967">
        <ele>184.0</ele>
      </trkpt>
      <trkpt lat="22.6513239" lon="121.4870524">
        <ele>181.0</ele>
      </trkpt>
      <trkpt lat="22.6520764" lon="121.4873421">
        <ele>175.0</ele>
      </trkpt>
      <trkpt lat="22.6526408" lon="121.4875352">
        <ele>172.0</ele>
      </trkpt>
      <trkpt lat="22.6532448" lon="121.4873636">
        <ele>172.0</ele>
      </trkpt>
      <trkpt lat="22.6553735" lon="121.4862049">
        <ele>172.0</ele>
      </trkpt>
      <trkpt lat="22.6557596" lon="121.4860439">
        <ele>170.0</ele>
      </trkpt>
      <trkpt lat="22.6560666" lon="121.4859903">
        <ele>168.0</ele>
      </trkpt>
      <trkpt lat="22.656067" lon="121.485993">
        <ele>168.0</ele>
      </trkpt>
      <trkpt lat="22.656038" lon="121.485993">
        <ele>168.0</ele>
      </trkpt>
      <trkpt lat="22.656028" lon="121.486171">
        <ele>169.0</ele>
      </trkpt>
      <trkpt lat="22.656084" lon="121.486175">
        <ele>169.0</ele>
      </trkpt>
      <trkpt lat="22.656148" lon="121.486184">
        <ele>169.0</ele>
      </trkpt>
      <trkpt lat="22.656356" lon="121.486346">
        <ele>171.0</ele>
      </trkpt>
      <trkpt lat="22.656456" lon="121.486404">
        <ele>172.0</ele>
      </trkpt>
      <trkpt lat="22.656507" lon="121.486455">
        <ele>172.0</ele>
      </trkpt>
      <trkpt lat="22.656539" lon="121.486523">
        <ele>173.0</ele>
      </trkpt>
      <trkpt lat="22.656564" lon="121.48667">
        <ele>175.0</ele>
      </trkpt>
      <trkpt lat="22.656571" lon="121.486813">
        <ele>177.0</ele>
      </trkpt>
      <trkpt lat="22.656806" lon="121.487071">
        <ele>181.0</ele>
      </trkpt>
      <trkpt lat="22.656929" lon="121.487181">
        <ele>182.0</ele>
      </trkpt>
      <trkpt lat="22.657014" lon="121.487342">
        <ele>185.0</ele>
      </trkpt>
      <trkpt lat="22.657168" lon="121.487497">
        <ele>188.0</ele>
      </trkpt>
      <trkpt lat="22.657316" lon="121.487727">
        <ele>191.0</ele>
      </trkpt>
      <trkpt lat="22.65731" lon="121.487866">
        <ele>192.0</ele>
      </trkpt>
      <trkpt lat="22.657328" lon="121.487949">
        <ele>192.0</ele>
      </trkpt>
      <trkpt lat="22.657389" lon="121.488043">
        <ele>194.0</ele>
      </trkpt>
      <trkpt lat="22.657355" lon="121.48844">
        <ele>197.0</ele>
      </trkpt>
      <trkpt lat="22.657378" lon="121.488609">
        <ele>199.0</ele>
      </trkpt>
      <trkpt lat="22.657468" lon="121.488718">
        <ele>202.0</ele>
      </trkpt>
      <trkpt lat="22.65749" lon="121.48881">
        <ele>204.0</ele>
      </trkpt>
      <trkpt lat="22.657644" lon="121.489044">
        <ele>205.0</ele>
      </trkpt>
      <trkpt lat="22.657713" lon="121.489291">
        <ele>207.0</ele>
      </trkpt>
      <trkpt lat="22.657626" lon="121.489572">
        <ele>208.0</ele>
      </trkpt>
      <trkpt lat="22.657589" lon="121.490043">
        <ele>210.0</ele>
      </trkpt>
      <trkpt lat="22.657613" lon="121.490202">
        <ele>208.0</ele>
      </trkpt>
      <trkpt lat="22.657648" lon="121.490322">
        <ele>208.0</ele>
      </trkpt>
      <trkpt lat="22.657742" lon="121.490541">
        <ele>207.0</ele>
      </trkpt>
      <trkpt lat="22.657792" lon="121.490854">
        <ele>207.0</ele>
      </trkpt>
      <trkpt lat="22.657811" lon="121.491297">
        <ele>217.0</ele>
      </trkpt>
      <trkpt lat="22.657796" lon="121.491407">
        <ele>219.0</ele>
      </trkpt>
      <trkpt lat="22.657859" lon="121.491634">
        <ele>226.0</ele>
      </trkpt>
      <trkpt lat="22.657957" lon="121.491828">
        <ele>232.0</ele>
      </trkpt>
      <trkpt lat="22.658116" lon="121.492066">
        <ele>240.0</ele>
      </trkpt>
      <trkpt lat="22.658115" lon="121.492085">
        <ele>240.0</ele>
      </trkpt>
      <trkpt lat="22.657984" lon="121.492132">
        <ele>239.0</ele>
      </trkpt>
      <trkpt lat="22.658054" lon="121.492244">
        <ele>243.0</ele>
      </trkpt>
      <trkpt lat="22.657907" lon="121.492268">
        <ele>241.0</ele>
      </trkpt>
      <trkpt lat="22.657829" lon="121.492312">
        <ele>241.0</ele>
      </trkpt>
      <trkpt lat="22.657844" lon="121.492351">
        <ele>243.0</ele>
      </trkpt>
      <trkpt lat="22.657941" lon="121.492422">
        <ele>245.0</ele>
      </trkpt>
      <trkpt lat="22.657836" lon="121.492509">
        <ele>246.0</ele>
      </trkpt>
      <trkpt lat="22.657906" lon="121.492554">
        <ele>246.0</ele>
      </trkpt>
      <trkpt lat="22.658038" lon="121.492561">
        <ele>247.0</ele>
      </trkpt>
      <trkpt lat="22.657931" lon="121.492628">
        <ele>246.0</ele>
      </trkpt>
      <trkpt lat="22.657915" lon="121.49267">
        <ele>245.0</ele>
      </trkpt>
      <trkpt lat="22.657935" lon="121.492688">
        <ele>245.0</ele>
      </trkpt>
      <trkpt lat="22.658137" lon="121.492662">
        <ele>247.0</ele>
      </trkpt>
      <trkpt lat="22.658273" lon="121.492622">
        <ele>248.0</ele>
      </trkpt>
      <trkpt lat="22.658356" lon="121.492577">
        <ele>250.0</ele>
      </trkpt>
      <trkpt lat="22.658388" lon="121.492583">
        <ele>249.0</ele>
      </trkpt>
      <trkpt lat="22.658378" lon="121.492613">
        <ele>249.0</ele>
      </trkpt>
      <trkpt lat="22.658331" lon="121.492658">
        <ele>248.0</ele>
      </trkpt>
      <trkpt lat="22.658316" lon="121.492634">
        <ele>248.0</ele>
      </trkpt>
      <trkpt lat="22.658264" lon="121.492682">
        <ele>247.0</ele>
      </trkpt>
      <trkpt lat="22.658264" lon="121.492682">
        <ele>247.0</ele>
      </trkpt>
      <trkpt lat="22.658316" lon="121.492634">
        <ele>248.0</ele>
      </trkpt>
      <trkpt lat="22.658331" lon="121.492658">
        <ele>248.0</ele>
      </trkpt>
      <trkpt lat="22.658378" lon="121.492613">
        <ele>249.0</ele>
      </trkpt>
      <trkpt lat="22.658388" lon="121.492583">
        <ele>249.0</ele>
      </trkpt>
      <trkpt lat="22.658356" lon="121.492577">
        <ele>250.0</ele>
      </trkpt>
      <trkpt lat="22.658273" lon="121.492622">
        <ele>248.0</ele>
      </trkpt>
      <trkpt lat="22.658137" lon="121.492662">
        <ele>247.0</ele>
      </trkpt>
      <trkpt lat="22.657935" lon="121.492688">
        <ele>245.0</ele>
      </trkpt>
      <trkpt lat="22.657915" lon="121.49267">
        <ele>245.0</ele>
      </trkpt>
      <trkpt lat="22.657931" lon="121.492628">
        <ele>246.0</ele>
      </trkpt>
      <trkpt lat="22.658038" lon="121.492561">
        <ele>247.0</ele>
      </trkpt>
      <trkpt lat="22.657906" lon="121.492554">
        <ele>246.0</ele>
      </trkpt>
      <trkpt lat="22.657836" lon="121.492509">
        <ele>246.0</ele>
      </trkpt>
      <trkpt lat="22.657941" lon="121.492422">
        <ele>245.0</ele>
      </trkpt>
      <trkpt lat="22.657844" lon="121.492351">
        <ele>243.0</ele>
      </trkpt>
      <trkpt lat="22.657829" lon="121.492312">
        <ele>241.0</ele>
      </trkpt>
      <trkpt lat="22.657907" lon="121.492268">
        <ele>241.0</ele>
      </trkpt>
      <trkpt lat="22.658054" lon="121.492244">
        <ele>243.0</ele>
      </trkpt>
      <trkpt lat="22.657984" lon="121.492132">
        <ele>239.0</ele>
      </trkpt>
      <trkpt lat="22.658115" lon="121.492085">
        <ele>240.0</ele>
      </trkpt>
      <trkpt lat="22.658116" lon="121.492066">
        <ele>240.0</ele>
      </trkpt>
      <trkpt lat="22.657957" lon="121.491828">
        <ele>232.0</ele>
      </trkpt>
      <trkpt lat="22.657859" lon="121.491634">
        <ele>226.0</ele>
      </trkpt>
      <trkpt lat="22.657796" lon="121.491407">
        <ele>219.0</ele>
      </trkpt>
      <trkpt lat="22.657811" lon="121.491297">
        <ele>217.0</ele>
      </trkpt>
      <trkpt lat="22.657792" lon="121.490854">
        <ele>207.0</ele>
      </trkpt>
      <trkpt lat="22.657742" lon="121.490541">
        <ele>207.0</ele>
      </trkpt>
      <trkpt lat="22.657648" lon="121.490322">
        <ele>208.0</ele>
      </trkpt>
      <trkpt lat="22.657613" lon="121.490202">
        <ele>208.0</ele>
      </trkpt>
      <trkpt lat="22.657589" lon="121.490043">
        <ele>210.0</ele>
      </trkpt>
      <trkpt lat="22.657626" lon="121.489572">
        <ele>208.0</ele>
      </trkpt>
      <trkpt lat="22.657713" lon="121.489291">
        <ele>207.0</ele>
      </trkpt>
      <trkpt lat="22.657644" lon="121.489044">
        <ele>205.0</ele>
      </trkpt>
      <trkpt lat="22.65749" lon="121.48881">
        <ele>204.0</ele>
      </trkpt>
      <trkpt lat="22.657468" lon="121.488718">
        <ele>202.0</ele>
      </trkpt>
      <trkpt lat="22.657378" lon="121.488609">
        <ele>199.0</ele>
      </trkpt>
      <trkpt lat="22.657355" lon="121.48844">
        <ele>197.0</ele>
      </trkpt>
      <trkpt lat="22.657389" lon="121.488043">
        <ele>194.0</ele>
      </trkpt>
      <trkpt lat="22.657328" lon="121.487949">
        <ele>192.0</ele>
      </trkpt>
      <trkpt lat="22.65731" lon="121.487866">
        <ele>192.0</ele>
      </trkpt>
      <trkpt lat="22.657316" lon="121.487727">
        <ele>191.0</ele>
      </trkpt>
      <trkpt lat="22.657168" lon="121.487497">
        <ele>188.0</ele>
      </trkpt>
      <trkpt lat="22.657014" lon="121.487342">
        <ele>185.0</ele>
      </trkpt>
      <trkpt lat="22.656929" lon="121.487181">
        <ele>182.0</ele>
      </trkpt>
      <trkpt lat="22.656806" lon="121.487071">
        <ele>181.0</ele>
      </trkpt>
      <trkpt lat="22.656571" lon="121.486813">
        <ele>177.0</ele>
      </trkpt>
      <trkpt lat="22.656564" lon="121.48667">
        <ele>175.0</ele>
      </trkpt>
      <trkpt lat="22.656539" lon="121.486523">
        <ele>173.0</ele>
      </trkpt>
      <trkpt lat="22.656507" lon="121.486455">
        <ele>172.0</ele>
      </trkpt>
      <trkpt lat="22.656456" lon="121.486404">
        <ele>172.0</ele>
      </trkpt>
      <trkpt lat="22.656356" lon="121.486346">
        <ele>171.0</ele>
      </trkpt>
      <trkpt lat="22.656148" lon="121.486184">
        <ele>169.0</ele>
      </trkpt>
      <trkpt lat="22.656084" lon="121.486175">
        <ele>169.0</ele>
      </trkpt>
      <trkpt lat="22.656028" lon="121.486171">
        <ele>169.0</ele>
      </trkpt>
      <trkpt lat="22.65602" lon="121.486348">
        <ele>170.0</ele>
      </trkpt>
      <trkpt lat="22.655944" lon="121.486489">
        <ele>171.0</ele>
      </trkpt>
      <trkpt lat="22.655852" lon="121.486603">
        <ele>171.0</ele>
      </trkpt>
      <trkpt lat="22.655658" lon="121.486799">
        <ele>170.0</ele>
      </trkpt>
      <trkpt lat="22.655374" lon="121.487167">
        <ele>169.0</ele>
      </trkpt>
      <trkpt lat="22.655304" lon="121.487325">
        <ele>169.0</ele>
      </trkpt>
      <trkpt lat="22.655278" lon="121.487415">
        <ele>169.0</ele>
      </trkpt>
      <trkpt lat="22.655248" lon="121.487643">
        <ele>169.0</ele>
      </trkpt>
      <trkpt lat="22.655207" lon="121.487735">
        <ele>169.0</ele>
      </trkpt>
      <trkpt lat="22.655157" lon="121.487803">
        <ele>169.0</ele>
      </trkpt>
      <trkpt lat="22.655066" lon="121.487886">
        <ele>169.0</ele>
      </trkpt>
      <trkpt lat="22.654976" lon="121.487953">
        <ele>170.0</ele>
      </trkpt>
      <trkpt lat="22.654909" lon="121.487972">
        <ele>169.0</ele>
      </trkpt>
      <trkpt lat="22.654679" lon="121.487945">
        <ele>168.0</ele>
      </trkpt>
      <trkpt lat="22.654547" lon="121.487995">
        <ele>168.0</ele>
      </trkpt>
      <trkpt lat="22.654547" lon="121.487995">
        <ele>168.0</ele>
      </trkpt>
      <trkpt lat="22.65409" lon="121.488227">
        <ele>166.0</ele>
      </trkpt>
      <trkpt lat="22.653903" lon="121.488293">
        <ele>165.0</ele>
      </trkpt>
      <trkpt lat="22.653538" lon="121.488327">
        <ele>163.0</ele>
      </trkpt>
      <trkpt lat="22.653426" lon="121.488312">
        <ele>163.0</ele>
      </trkpt>
      <trkpt lat="22.653297" lon="121.488241">
        <ele>163.0</ele>
      </trkpt>
      <trkpt lat="22.653133" lon="121.48822">
        <ele>163.0</ele>
      </trkpt>
      <trkpt lat="22.652963" lon="121.488226">
        <ele>163.0</ele>
      </trkpt>
      <trkpt lat="22.652657" lon="121.488256">
        <ele>163.0</ele>
      </trkpt>
      <trkpt lat="22.652554" lon="121.488288">
        <ele>163.0</ele>
      </trkpt>
      <trkpt lat="22.652407" lon="121.488368">
        <ele>162.0</ele>
      </trkpt>
      <trkpt lat="22.65213" lon="121.488537">
        <ele>161.0</ele>
      </trkpt>
      <trkpt lat="22.651883" lon="121.488693">
        <ele>164.0</ele>
      </trkpt>
      <trkpt lat="22.651786" lon="121.488809">
        <ele>166.0</ele>
      </trkpt>
      <trkpt lat="22.651488" lon="121.489286">
        <ele>166.0</ele>
      </trkpt>
      <trkpt lat="22.65105" lon="121.489767">
        <ele>162.0</ele>
      </trkpt>
      <trkpt lat="22.650969" lon="121.489869">
        <ele>163.0</ele>
      </trkpt>
      <trkpt lat="22.65092" lon="121.489963">
        <ele>165.0</ele>
      </trkpt>
      <trkpt lat="22.650697" lon="121.490171">
        <ele>159.0</ele>
      </trkpt>
      <trkpt lat="22.650641" lon="121.490354">
        <ele>154.0</ele>
      </trkpt>
      <trkpt lat="22.650493" lon="121.490585">
        <ele>147.0</ele>
      </trkpt>
      <trkpt lat="22.650446" lon="121.49076">
        <ele>143.0</ele>
      </trkpt>
      <trkpt lat="22.650273" lon="121.491207">
        <ele>133.0</ele>
      </trkpt>
      <trkpt lat="22.650266" lon="121.491389">
        <ele>130.0</ele>
      </trkpt>
      <trkpt lat="22.650186" lon="121.491596">
        <ele>126.0</ele>
      </trkpt>
      <trkpt lat="22.650124" lon="121.491812">
        <ele>123.0</ele>
      </trkpt>
      <trkpt lat="22.650081" lon="121.491871">
        <ele>123.0</ele>
      </trkpt>
      <trkpt lat="22.649973" lon="121.491936">
        <ele>123.0</ele>
      </trkpt>
      <trkpt lat="22.649855" lon="121.492077">
        <ele>118.0</ele>
      </trkpt>
      <trkpt lat="22.649797" lon="121.492196">
        <ele>115.0</ele>
      </trkpt>
      <trkpt lat="22.649754" lon="121.492228">
        <ele>114.0</ele>
      </trkpt>
      <trkpt lat="22.6497" lon="121.492334">
        <ele>112.0</ele>
      </trkpt>
      <trkpt lat="22.649652" lon="121.492501">
        <ele>108.0</ele>
      </trkpt>
      <trkpt lat="22.649633" lon="121.492671">
        <ele>106.0</ele>
      </trkpt>
      <trkpt lat="22.649522" lon="121.492766">
        <ele>104.0</ele>
      </trkpt>
      <trkpt lat="22.649501" lon="121.492842">
        <ele>103.0</ele>
      </trkpt>
      <trkpt lat="22.64951" lon="121.492894">
        <ele>102.0</ele>
      </trkpt>
      <trkpt lat="22.649538" lon="121.49304">
        <ele>101.0</ele>
      </trkpt>
      <trkpt lat="22.649636" lon="121.49335">
        <ele>98.0</ele>
      </trkpt>
      <trkpt lat="22.649637" lon="121.493425">
        <ele>97.0</ele>
      </trkpt>
      <trkpt lat="22.649644" lon="121.493464">
        <ele>97.0</ele>
      </trkpt>
      <trkpt lat="22.649659" lon="121.493548">
        <ele>96.0</ele>
      </trkpt>
      <trkpt lat="22.649719" lon="121.493697">
        <ele>94.0</ele>
      </trkpt>
      <trkpt lat="22.649657" lon="121.494027">
        <ele>91.0</ele>
      </trkpt>
      <trkpt lat="22.649533" lon="121.494284">
        <ele>89.0</ele>
      </trkpt>
      <trkpt lat="22.649534" lon="121.494284">
        <ele>89.0</ele>
      </trkpt>
      <trkpt lat="22.649485" lon="121.494542">
        <ele>86.0</ele>
      </trkpt>
      <trkpt lat="22.649484" lon="121.494727">
        <ele>85.0</ele>
      </trkpt>
      <trkpt lat="22.649518" lon="121.495192">
        <ele>80.0</ele>
      </trkpt>
      <trkpt lat="22.649472" lon="121.495394">
        <ele>78.0</ele>
      </trkpt>
      <trkpt lat="22.649492" lon="121.49558">
        <ele>76.0</ele>
      </trkpt>
      <trkpt lat="22.649441" lon="121.495904">
        <ele>72.0</ele>
      </trkpt>
      <trkpt lat="22.649464" lon="121.496026">
        <ele>71.0</ele>
      </trkpt>
      <trkpt lat="22.64939" lon="121.496634">
        <ele>66.0</ele>
      </trkpt>
      <trkpt lat="22.649322" lon="121.496943">
        <ele>60.0</ele>
      </trkpt>
      <trkpt lat="22.649329" lon="121.497103">
        <ele>57.0</ele>
      </trkpt>
      <trkpt lat="22.649288" lon="121.497444">
        <ele>50.0</ele>
      </trkpt>
      <trkpt lat="22.649373" lon="121.49764">
        <ele>44.0</ele>
      </trkpt>
      <trkpt lat="22.64938" lon="121.497788">
        <ele>40.0</ele>
      </trkpt>
      <trkpt lat="22.649351" lon="121.497985">
        <ele>35.0</ele>
      </trkpt>
      <trkpt lat="22.649331" lon="121.498006">
        <ele>35.0</ele>
      </trkpt>
      <trkpt lat="22.649225" lon="121.498199">
        <ele>29.0</ele>
      </trkpt>
      <trkpt lat="22.649159" lon="121.498256">
        <ele>27.0</ele>
      </trkpt>
      <trkpt lat="22.649179" lon="121.498284">
        <ele>26.0</ele>
      </trkpt>
      <trkpt lat="22.649232" lon="121.498334">
        <ele>25.0</ele>
      </trkpt>
      <trkpt lat="22.649362" lon="121.498573">
        <ele>22.0</ele>
      </trkpt>
      <trkpt lat="22.649353" lon="121.49865">
        <ele>21.0</ele>
      </trkpt>
      <trkpt lat="22.649234" lon="121.498603">
        <ele>21.0</ele>
      </trkpt>
      <trkpt lat="22.649122" lon="121.498577">
        <ele>21.0</ele>
      </trkpt>
      <trkpt lat="22.648968" lon="121.498582">
        <ele>19.0</ele>
      </trkpt>
      <trkpt lat="22.648701" lon="121.498701">
        <ele>15.0</ele>
      </trkpt>
      <trkpt lat="22.648691" lon="121.498747">
        <ele>15.0</ele>
      </trkpt>
      <trkpt lat="22.648691" lon="121.498747">
        <ele>15.0</ele>
      </trkpt>
      <trkpt lat="22.648588" lon="121.499235">
        <ele>10.0</ele>
      </trkpt>
      <trkpt lat="22.64755" lon="121.498897">
        <ele>8.0</ele>
      </trkpt>
      <trkpt lat="22.646851" lon="121.498711">
        <ele>8.0</ele>
      </trkpt>
      <trkpt lat="22.646069" lon="121.498515">
        <ele>10.0</ele>
      </trkpt>
      <trkpt lat="22.645736" lon="121.498446">
        <ele>13.0</ele>
      </trkpt>
      <trkpt lat="22.645568" lon="121.498446">
        <ele>18.0</ele>
      </trkpt>
      <trkpt lat="22.645471" lon="121.498477">
        <ele>20.0</ele>
      </trkpt>
      <trkpt lat="22.645358" lon="121.49856">
        <ele>21.0</ele>
      </trkpt>
      <trkpt lat="22.645269" lon="121.498649">
        <ele>21.0</ele>
      </trkpt>
      <trkpt lat="22.644856" lon="121.499251">
        <ele>18.0</ele>
      </trkpt>
      <trkpt lat="22.644658" lon="121.49971">
        <ele>23.0</ele>
      </trkpt>
      <trkpt lat="22.644628" lon="121.499715">
        <ele>24.0</ele>
      </trkpt>
      <trkpt lat="22.644605" lon="121.499719">
        <ele>25.0</ele>
      </trkpt>
      <trkpt lat="22.644539" lon="121.499728">
        <ele>28.0</ele>
      </trkpt>
      <trkpt lat="22.644538" lon="121.499728">
        <ele>28.0</ele>
      </trkpt>
      <trkpt lat="22.644497" lon="121.499701">
        <ele>31.0</ele>
      </trkpt>
      <trkpt lat="22.64446" lon="121.499455">
        <ele>35.0</ele>
      </trkpt>
      <trkpt lat="22.644406" lon="121.49939">
        <ele>38.0</ele>
      </trkpt>
      <trkpt lat="22.64424" lon="121.49936">
        <ele>46.0</ele>
      </trkpt>
      <trkpt lat="22.644215" lon="121.499378">
        <ele>47.0</ele>
      </trkpt>
      <trkpt lat="22.644145" lon="121.499487">
        <ele>49.0</ele>
      </trkpt>
      <trkpt lat="22.644161" lon="121.499591">
        <ele>48.0</ele>
      </trkpt>
      <trkpt lat="22.644158" lon="121.499654">
        <ele>47.0</ele>
      </trkpt>
      <trkpt lat="22.644186" lon="121.499717">
        <ele>45.0</ele>
      </trkpt>
      <trkpt lat="22.64418" lon="121.499748">
        <ele>45.0</ele>
      </trkpt>
      <trkpt lat="22.644076" lon="121.499678">
        <ele>50.0</ele>
      </trkpt>
      <trkpt lat="22.644037" lon="121.499626">
        <ele>52.0</ele>
      </trkpt>
      <trkpt lat="22.644022" lon="121.499563">
        <ele>53.0</ele>
      </trkpt>
      <trkpt lat="22.643976" lon="121.499511">
        <ele>55.0</ele>
      </trkpt>
      <trkpt lat="22.643965" lon="121.499464">
        <ele>56.0</ele>
      </trkpt>
      <trkpt lat="22.643995" lon="121.499358">
        <ele>55.0</ele>
      </trkpt>
      <trkpt lat="22.643988" lon="121.499306">
        <ele>56.0</ele>
      </trkpt>
      <trkpt lat="22.643926" lon="121.499237">
        <ele>58.0</ele>
      </trkpt>
      <trkpt lat="22.643898" lon="121.499178">
        <ele>59.0</ele>
      </trkpt>
      <trkpt lat="22.643823" lon="121.499111">
        <ele>63.0</ele>
      </trkpt>
      <trkpt lat="22.64377" lon="121.499098">
        <ele>64.0</ele>
      </trkpt>
      <trkpt lat="22.64366" lon="121.499081">
        <ele>67.0</ele>
      </trkpt>
      <trkpt lat="22.643602" lon="121.499019">
        <ele>70.0</ele>
      </trkpt>
      <trkpt lat="22.643579" lon="121.499026">
        <ele>70.0</ele>
      </trkpt>
      <trkpt lat="22.643531" lon="121.499036">
        <ele>71.0</ele>
      </trkpt>
      <trkpt lat="22.643531" lon="121.499036">
        <ele>71.0</ele>
      </trkpt>
      <trkpt lat="22.64305" lon="121.499132">
        <ele>72.0</ele>
      </trkpt>
      <trkpt lat="22.642745" lon="121.499258">
        <ele>69.0</ele>
      </trkpt>
      <trkpt lat="22.642611" lon="121.49929">
        <ele>68.0</ele>
      </trkpt>
      <trkpt lat="22.642417" lon="121.499386">
        <ele>66.0</ele>
      </trkpt>
      <trkpt lat="22.642147" lon="121.49959">
        <ele>62.0</ele>
      </trkpt>
      <trkpt lat="22.641685" lon="121.499747">
        <ele>52.0</ele>
      </trkpt>
      <trkpt lat="22.641464" lon="121.499802">
        <ele>50.0</ele>
      </trkpt>
      <trkpt lat="22.641183" lon="121.499953">
        <ele>48.0</ele>
      </trkpt>
      <trkpt lat="22.64088" lon="121.500089">
        <ele>45.0</ele>
      </trkpt>
      <trkpt lat="22.640687" lon="121.500149">
        <ele>44.0</ele>
      </trkpt>
      <trkpt lat="22.6399" lon="121.500488">
        <ele>43.0</ele>
      </trkpt>
      <trkpt lat="22.639709" lon="121.500492">
        <ele>42.0</ele>
      </trkpt>
      <trkpt lat="22.639582" lon="121.500429">
        <ele>41.0</ele>
      </trkpt>
      <trkpt lat="22.639254" lon="121.500671">
        <ele>41.0</ele>
      </trkpt>
      <trkpt lat="22.639179" lon="121.500676">
        <ele>40.0</ele>
      </trkpt>
      <trkpt lat="22.639117" lon="121.50063">
        <ele>40.0</ele>
      </trkpt>
      <trkpt lat="22.63893" lon="121.500369">
        <ele>37.0</ele>
      </trkpt>
      <trkpt lat="22.63878" lon="121.500207">
        <ele>34.0</ele>
      </trkpt>
      <trkpt lat="22.638403" lon="121.499975">
        <ele>28.0</ele>
      </trkpt>
      <trkpt lat="22.638285" lon="121.499968">
        <ele>26.0</ele>
      </trkpt>
      <trkpt lat="22.638177" lon="121.500063">
        <ele>26.0</ele>
      </trkpt>
      <trkpt lat="22.637958" lon="121.500396">
        <ele>25.0</ele>
      </trkpt>
      <trkpt lat="22.637889" lon="121.500445">
        <ele>24.0</ele>
      </trkpt>
    </trkseg>
  </trk>
</gpx>
